<?xml version="1.0" encoding="UTF-8"?>
<!-- track-length = 15318 filtered ascend = 1127 plain-ascend = 1100 cost=15657 energy=.3kwh time=3h 8m 43s -->
<gpx 
 xmlns="http://www.topografix.com/GPX/1/1" 
 xmlns:xsi="http://www.w3.org/2001/XMLSchema-instance" 
 xsi:schemaLocation="http://www.topografix.com/GPX/1/1 http://www.topografix.com/GPX/1/1/gpx.xsd" 
 creator="BRouter-1.7.10" version="1.1">
 <metadata>
  <name>Bourg-d'Oisans - Alpe d'Huez</name>
  <desc>Sample track for the browser demo. Routed with BRouter over OpenStreetMap data (ODbL), elevation from SRTM.</desc>
  <copyright author="OpenStreetMap contributors">
   <license>https://opendatacommons.org/licenses/odbl/1-0/</license>
  </copyright>
 </metadata>
 <trk>
  <name>Bourg-d'Oisans - Alpe d'Huez</name>
  <trkseg>
   <trkpt lon="6.028044" lat="45.055269"><ele>722.75</ele></trkpt>
   <trkpt lon="6.028109" lat="45.055211"><ele>722.75</ele></trkpt>
   <trkpt lon="6.028620" lat="45.055509"><ele>719.75</ele></trkpt>
   <trkpt lon="6.028965" lat="45.055682"><ele>719.0</ele></trkpt>
   <trkpt lon="6.029365" lat="45.055847"><ele>719.0</ele></trkpt>
   <trkpt lon="6.029637" lat="45.055951"><ele>719.0</ele></trkpt>
   <trkpt lon="6.029666" lat="45.055826"><ele>719.0</ele></trkpt>
   <trkpt lon="6.029703" lat="45.055640"><ele>718.75</ele></trkpt>
   <trkpt lon="6.029731" lat="45.055518"><ele>718.75</ele></trkpt>
   <trkpt lon="6.029764" lat="45.055314"><ele>718.75</ele></trkpt>
   <trkpt lon="6.029797" lat="45.055177"><ele>719.0</ele></trkpt>
   <trkpt lon="6.029898" lat="45.055001"><ele>719.0</ele></trkpt>
   <trkpt lon="6.029975" lat="45.054973"><ele>719.0</ele></trkpt>
   <trkpt lon="6.030074" lat="45.054958"><ele>719.0</ele></trkpt>
   <trkpt lon="6.030302" lat="45.054950"><ele>719.0</ele></trkpt>
   <trkpt lon="6.030589" lat="45.054915"><ele>718.75</ele></trkpt>
   <trkpt lon="6.030688" lat="45.054902"><ele>718.5</ele></trkpt>
   <trkpt lon="6.030788" lat="45.054886"><ele>718.0</ele></trkpt>
   <trkpt lon="6.031057" lat="45.054872"><ele>718.0</ele></trkpt>
   <trkpt lon="6.031240" lat="45.054856"><ele>718.0</ele></trkpt>
   <trkpt lon="6.031447" lat="45.054828"><ele>718.0</ele></trkpt>
   <trkpt lon="6.031492" lat="45.054820"><ele>718.0</ele></trkpt>
   <trkpt lon="6.031572" lat="45.054807"><ele>718.0</ele></trkpt>
   <trkpt lon="6.031808" lat="45.054759"><ele>718.0</ele></trkpt>
   <trkpt lon="6.031910" lat="45.054745"><ele>718.0</ele></trkpt>
   <trkpt lon="6.032000" lat="45.054756"><ele>718.0</ele></trkpt>
   <trkpt lon="6.032403" lat="45.054895"><ele>718.0</ele></trkpt>
   <trkpt lon="6.032764" lat="45.055111"><ele>718.0</ele></trkpt>
   <trkpt lon="6.032905" lat="45.055232"><ele>718.0</ele></trkpt>
   <trkpt lon="6.032972" lat="45.055290"><ele>717.75</ele></trkpt>
   <trkpt lon="6.033684" lat="45.055901"><ele>717.75</ele></trkpt>
   <trkpt lon="6.033791" lat="45.056000"><ele>717.75</ele></trkpt>
   <trkpt lon="6.033841" lat="45.056046"><ele>717.75</ele></trkpt>
   <trkpt lon="6.033994" lat="45.056188"><ele>717.5</ele></trkpt>
   <trkpt lon="6.034057" lat="45.056244"><ele>717.25</ele></trkpt>
   <trkpt lon="6.034157" lat="45.056334"><ele>717.75</ele></trkpt>
   <trkpt lon="6.034318" lat="45.056479"><ele>717.75</ele></trkpt>
   <trkpt lon="6.034522" lat="45.056665"><ele>717.5</ele></trkpt>
   <trkpt lon="6.034737" lat="45.056865"><ele>718.25</ele></trkpt>
   <trkpt lon="6.035360" lat="45.057404"><ele>718.75</ele></trkpt>
   <trkpt lon="6.035665" lat="45.057671"><ele>719.25</ele></trkpt>
   <trkpt lon="6.036071" lat="45.058030"><ele>721.75</ele></trkpt>
   <trkpt lon="6.036257" lat="45.058162"><ele>722.0</ele></trkpt>
   <trkpt lon="6.036546" lat="45.058351"><ele>722.75</ele></trkpt>
   <trkpt lon="6.036638" lat="45.058408"><ele>721.75</ele></trkpt>
   <trkpt lon="6.037081" lat="45.058693"><ele>721.5</ele></trkpt>
   <trkpt lon="6.037123" lat="45.058723"><ele>722.25</ele></trkpt>
   <trkpt lon="6.037189" lat="45.058765"><ele>723.25</ele></trkpt>
   <trkpt lon="6.037361" lat="45.058878"><ele>723.25</ele></trkpt>
   <trkpt lon="6.037386" lat="45.058894"><ele>723.25</ele></trkpt>
   <trkpt lon="6.037671" lat="45.059018"><ele>721.5</ele></trkpt>
   <trkpt lon="6.037762" lat="45.059055"><ele>721.25</ele></trkpt>
   <trkpt lon="6.037826" lat="45.059053"><ele>721.25</ele></trkpt>
   <trkpt lon="6.037889" lat="45.059062"><ele>721.25</ele></trkpt>
   <trkpt lon="6.037946" lat="45.059083"><ele>721.5</ele></trkpt>
   <trkpt lon="6.037995" lat="45.059113"><ele>722.0</ele></trkpt>
   <trkpt lon="6.038028" lat="45.059146"><ele>722.5</ele></trkpt>
   <trkpt lon="6.038050" lat="45.059184"><ele>722.75</ele></trkpt>
   <trkpt lon="6.038059" lat="45.059225"><ele>722.75</ele></trkpt>
   <trkpt lon="6.038055" lat="45.059266"><ele>722.5</ele></trkpt>
   <trkpt lon="6.038038" lat="45.059304"><ele>722.5</ele></trkpt>
   <trkpt lon="6.038010" lat="45.059338"><ele>722.25</ele></trkpt>
   <trkpt lon="6.037972" lat="45.059367"><ele>722.25</ele></trkpt>
   <trkpt lon="6.037926" lat="45.059390"><ele>722.0</ele></trkpt>
   <trkpt lon="6.037869" lat="45.059462"><ele>721.75</ele></trkpt>
   <trkpt lon="6.037838" lat="45.059520"><ele>721.5</ele></trkpt>
   <trkpt lon="6.037812" lat="45.059626"><ele>721.25</ele></trkpt>
   <trkpt lon="6.037783" lat="45.059727"><ele>720.75</ele></trkpt>
   <trkpt lon="6.037776" lat="45.059790"><ele>720.5</ele></trkpt>
   <trkpt lon="6.037716" lat="45.060156"><ele>718.75</ele></trkpt>
   <trkpt lon="6.037685" lat="45.060307"><ele>718.0</ele></trkpt>
   <trkpt lon="6.037621" lat="45.060627"><ele>718.0</ele></trkpt>
   <trkpt lon="6.037474" lat="45.061230"><ele>718.0</ele></trkpt>
   <trkpt lon="6.037377" lat="45.061567"><ele>717.25</ele></trkpt>
   <trkpt lon="6.037296" lat="45.061755"><ele>717.0</ele></trkpt>
   <trkpt lon="6.037091" lat="45.062101"><ele>717.0</ele></trkpt>
   <trkpt lon="6.037026" lat="45.062221"><ele>717.0</ele></trkpt>
   <trkpt lon="6.036992" lat="45.062308"><ele>717.25</ele></trkpt>
   <trkpt lon="6.036974" lat="45.062400"><ele>717.5</ele></trkpt>
   <trkpt lon="6.036971" lat="45.062466"><ele>717.75</ele></trkpt>
   <trkpt lon="6.036979" lat="45.062561"><ele>717.5</ele></trkpt>
   <trkpt lon="6.036997" lat="45.062645"><ele>717.25</ele></trkpt>
   <trkpt lon="6.037023" lat="45.062722"><ele>717.0</ele></trkpt>
   <trkpt lon="6.037099" lat="45.062855"><ele>717.0</ele></trkpt>
   <trkpt lon="6.037150" lat="45.062916"><ele>717.0</ele></trkpt>
   <trkpt lon="6.037239" lat="45.062992"><ele>717.75</ele></trkpt>
   <trkpt lon="6.038198" lat="45.063675"><ele>719.75</ele></trkpt>
   <trkpt lon="6.038924" lat="45.064189"><ele>722.5</ele></trkpt>
   <trkpt lon="6.038995" lat="45.064239"><ele>722.0</ele></trkpt>
   <trkpt lon="6.039174" lat="45.064366"><ele>722.5</ele></trkpt>
   <trkpt lon="6.039472" lat="45.064580"><ele>723.0</ele></trkpt>
   <trkpt lon="6.039872" lat="45.064878"><ele>722.25</ele></trkpt>
   <trkpt lon="6.040019" lat="45.064996"><ele>723.0</ele></trkpt>
   <trkpt lon="6.040062" lat="45.065041"><ele>723.75</ele></trkpt>
   <trkpt lon="6.040104" lat="45.065123"><ele>725.0</ele></trkpt>
   <trkpt lon="6.040115" lat="45.065172"><ele>725.75</ele></trkpt>
   <trkpt lon="6.040110" lat="45.065259"><ele>726.25</ele></trkpt>
   <trkpt lon="6.040079" lat="45.065370"><ele>727.75</ele></trkpt>
   <trkpt lon="6.039921" lat="45.065774"><ele>732.25</ele></trkpt>
   <trkpt lon="6.039630" lat="45.066496"><ele>740.0</ele></trkpt>
   <trkpt lon="6.039586" lat="45.066655"><ele>742.25</ele></trkpt>
   <trkpt lon="6.039482" lat="45.067357"><ele>751.0</ele></trkpt>
   <trkpt lon="6.039410" lat="45.067808"><ele>754.5</ele></trkpt>
   <trkpt lon="6.039349" lat="45.067966"><ele>757.0</ele></trkpt>
   <trkpt lon="6.039246" lat="45.068169"><ele>759.5</ele></trkpt>
   <trkpt lon="6.039236" lat="45.068240"><ele>760.75</ele></trkpt>
   <trkpt lon="6.039239" lat="45.068312"><ele>762.5</ele></trkpt>
   <trkpt lon="6.039300" lat="45.068621"><ele>766.75</ele></trkpt>
   <trkpt lon="6.039297" lat="45.068724"><ele>767.75</ele></trkpt>
   <trkpt lon="6.039190" lat="45.069149"><ele>772.25</ele></trkpt>
   <trkpt lon="6.039146" lat="45.069272"><ele>774.0</ele></trkpt>
   <trkpt lon="6.039098" lat="45.069368"><ele>775.0</ele></trkpt>
   <trkpt lon="6.038956" lat="45.069599"><ele>778.5</ele></trkpt>
   <trkpt lon="6.038869" lat="45.069763"><ele>780.25</ele></trkpt>
   <trkpt lon="6.038782" lat="45.069957"><ele>782.5</ele></trkpt>
   <trkpt lon="6.038723" lat="45.070121"><ele>784.75</ele></trkpt>
   <trkpt lon="6.038697" lat="45.070248"><ele>786.75</ele></trkpt>
   <trkpt lon="6.038691" lat="45.070373"><ele>788.0</ele></trkpt>
   <trkpt lon="6.038701" lat="45.070526"><ele>790.0</ele></trkpt>
   <trkpt lon="6.038797" lat="45.070913"><ele>795.25</ele></trkpt>
   <trkpt lon="6.038956" lat="45.071424"><ele>801.75</ele></trkpt>
   <trkpt lon="6.038976" lat="45.071537"><ele>802.5</ele></trkpt>
   <trkpt lon="6.038985" lat="45.071736"><ele>802.0</ele></trkpt>
   <trkpt lon="6.038999" lat="45.071784"><ele>801.5</ele></trkpt>
   <trkpt lon="6.039019" lat="45.071820"><ele>801.75</ele></trkpt>
   <trkpt lon="6.039052" lat="45.071848"><ele>802.5</ele></trkpt>
   <trkpt lon="6.039096" lat="45.071866"><ele>803.75</ele></trkpt>
   <trkpt lon="6.039155" lat="45.071872"><ele>805.75</ele></trkpt>
   <trkpt lon="6.039226" lat="45.071859"><ele>809.0</ele></trkpt>
   <trkpt lon="6.039256" lat="45.071840"><ele>810.75</ele></trkpt>
   <trkpt lon="6.039294" lat="45.071786"><ele>812.5</ele></trkpt>
   <trkpt lon="6.039289" lat="45.071729"><ele>812.5</ele></trkpt>
   <trkpt lon="6.039207" lat="45.071461"><ele>811.0</ele></trkpt>
   <trkpt lon="6.039138" lat="45.071170"><ele>812.0</ele></trkpt>
   <trkpt lon="6.039123" lat="45.071053"><ele>812.75</ele></trkpt>
   <trkpt lon="6.039125" lat="45.070994"><ele>813.5</ele></trkpt>
   <trkpt lon="6.039137" lat="45.070935"><ele>814.75</ele></trkpt>
   <trkpt lon="6.039188" lat="45.070797"><ele>818.5</ele></trkpt>
   <trkpt lon="6.039264" lat="45.070616"><ele>820.0</ele></trkpt>
   <trkpt lon="6.039343" lat="45.070474"><ele>821.5</ele></trkpt>
   <trkpt lon="6.039418" lat="45.070361"><ele>823.0</ele></trkpt>
   <trkpt lon="6.039475" lat="45.070294"><ele>824.5</ele></trkpt>
   <trkpt lon="6.039637" lat="45.070136"><ele>827.75</ele></trkpt>
   <trkpt lon="6.040006" lat="45.069861"><ele>832.75</ele></trkpt>
   <trkpt lon="6.040076" lat="45.069797"><ele>833.25</ele></trkpt>
   <trkpt lon="6.040229" lat="45.069637"><ele>833.5</ele></trkpt>
   <trkpt lon="6.040313" lat="45.069571"><ele>835.25</ele></trkpt>
   <trkpt lon="6.040565" lat="45.069409"><ele>839.75</ele></trkpt>
   <trkpt lon="6.040745" lat="45.069314"><ele>847.25</ele></trkpt>
   <trkpt lon="6.040780" lat="45.069288"><ele>848.0</ele></trkpt>
   <trkpt lon="6.040836" lat="45.069225"><ele>847.25</ele></trkpt>
   <trkpt lon="6.040862" lat="45.069172"><ele>845.0</ele></trkpt>
   <trkpt lon="6.040878" lat="45.069132"><ele>845.25</ele></trkpt>
   <trkpt lon="6.040939" lat="45.068845"><ele>848.25</ele></trkpt>
   <trkpt lon="6.041067" lat="45.068269"><ele>854.25</ele></trkpt>
   <trkpt lon="6.041088" lat="45.068192"><ele>855.0</ele></trkpt>
   <trkpt lon="6.041133" lat="45.068079"><ele>857.25</ele></trkpt>
   <trkpt lon="6.041350" lat="45.067649"><ele>862.5</ele></trkpt>
   <trkpt lon="6.041458" lat="45.067462"><ele>868.5</ele></trkpt>
   <trkpt lon="6.041846" lat="45.066844"><ele>874.75</ele></trkpt>
   <trkpt lon="6.041958" lat="45.066641"><ele>876.0</ele></trkpt>
   <trkpt lon="6.042055" lat="45.066440"><ele>876.5</ele></trkpt>
   <trkpt lon="6.042106" lat="45.066404"><ele>877.5</ele></trkpt>
   <trkpt lon="6.042167" lat="45.066396"><ele>878.75</ele></trkpt>
   <trkpt lon="6.042196" lat="45.066401"><ele>879.25</ele></trkpt>
   <trkpt lon="6.042221" lat="45.066411"><ele>880.0</ele></trkpt>
   <trkpt lon="6.042258" lat="45.066444"><ele>882.75</ele></trkpt>
   <trkpt lon="6.042263" lat="45.066487"><ele>883.5</ele></trkpt>
   <trkpt lon="6.042249" lat="45.066525"><ele>882.5</ele></trkpt>
   <trkpt lon="6.042117" lat="45.066760"><ele>882.75</ele></trkpt>
   <trkpt lon="6.041799" lat="45.067406"><ele>889.25</ele></trkpt>
   <trkpt lon="6.041752" lat="45.067540"><ele>890.25</ele></trkpt>
   <trkpt lon="6.041743" lat="45.067613"><ele>889.5</ele></trkpt>
   <trkpt lon="6.041748" lat="45.067653"><ele>889.5</ele></trkpt>
   <trkpt lon="6.041781" lat="45.067755"><ele>890.25</ele></trkpt>
   <trkpt lon="6.041867" lat="45.067961"><ele>893.5</ele></trkpt>
   <trkpt lon="6.041880" lat="45.067983"><ele>894.0</ele></trkpt>
   <trkpt lon="6.041904" lat="45.068003"><ele>895.0</ele></trkpt>
   <trkpt lon="6.041980" lat="45.068016"><ele>899.5</ele></trkpt>
   <trkpt lon="6.042014" lat="45.068016"><ele>902.25</ele></trkpt>
   <trkpt lon="6.042048" lat="45.068002"><ele>904.75</ele></trkpt>
   <trkpt lon="6.042066" lat="45.067986"><ele>906.0</ele></trkpt>
   <trkpt lon="6.042080" lat="45.067967"><ele>906.75</ele></trkpt>
   <trkpt lon="6.042090" lat="45.067917"><ele>906.5</ele></trkpt>
   <trkpt lon="6.042078" lat="45.067881"><ele>905.25</ele></trkpt>
   <trkpt lon="6.042042" lat="45.067827"><ele>902.0</ele></trkpt>
   <trkpt lon="6.041934" lat="45.067684"><ele>897.0</ele></trkpt>
   <trkpt lon="6.041913" lat="45.067613"><ele>897.25</ele></trkpt>
   <trkpt lon="6.041919" lat="45.067539"><ele>898.75</ele></trkpt>
   <trkpt lon="6.041986" lat="45.067410"><ele>900.0</ele></trkpt>
   <trkpt lon="6.042070" lat="45.067309"><ele>901.5</ele></trkpt>
   <trkpt lon="6.042143" lat="45.067241"><ele>903.75</ele></trkpt>
   <trkpt lon="6.042493" lat="45.066960"><ele>909.5</ele></trkpt>
   <trkpt lon="6.042644" lat="45.066792"><ele>912.75</ele></trkpt>
   <trkpt lon="6.042705" lat="45.066703"><ele>912.5</ele></trkpt>
   <trkpt lon="6.042759" lat="45.066607"><ele>913.25</ele></trkpt>
   <trkpt lon="6.043075" lat="45.065998"><ele>918.5</ele></trkpt>
   <trkpt lon="6.043106" lat="45.065962"><ele>917.75</ele></trkpt>
   <trkpt lon="6.043126" lat="45.065950"><ele>917.5</ele></trkpt>
   <trkpt lon="6.043185" lat="45.065935"><ele>916.25</ele></trkpt>
   <trkpt lon="6.043220" lat="45.065937"><ele>916.0</ele></trkpt>
   <trkpt lon="6.043278" lat="45.065956"><ele>916.0</ele></trkpt>
   <trkpt lon="6.043303" lat="45.065973"><ele>916.75</ele></trkpt>
   <trkpt lon="6.043329" lat="45.066015"><ele>918.75</ele></trkpt>
   <trkpt lon="6.043330" lat="45.066065"><ele>921.25</ele></trkpt>
   <trkpt lon="6.043240" lat="45.066225"><ele>925.5</ele></trkpt>
   <trkpt lon="6.043214" lat="45.066299"><ele>926.75</ele></trkpt>
   <trkpt lon="6.043095" lat="45.066792"><ele>934.75</ele></trkpt>
   <trkpt lon="6.043055" lat="45.066860"><ele>935.5</ele></trkpt>
   <trkpt lon="6.042870" lat="45.067075"><ele>935.25</ele></trkpt>
   <trkpt lon="6.042824" lat="45.067174"><ele>937.5</ele></trkpt>
   <trkpt lon="6.042813" lat="45.067248"><ele>939.5</ele></trkpt>
   <trkpt lon="6.042824" lat="45.067496"><ele>942.75</ele></trkpt>
   <trkpt lon="6.042819" lat="45.067586"><ele>944.25</ele></trkpt>
   <trkpt lon="6.042803" lat="45.067647"><ele>944.25</ele></trkpt>
   <trkpt lon="6.042663" lat="45.067948"><ele>947.5</ele></trkpt>
   <trkpt lon="6.042632" lat="45.068036"><ele>949.25</ele></trkpt>
   <trkpt lon="6.042618" lat="45.068103"><ele>949.75</ele></trkpt>
   <trkpt lon="6.042613" lat="45.068180"><ele>950.5</ele></trkpt>
   <trkpt lon="6.042613" lat="45.068321"><ele>952.5</ele></trkpt>
   <trkpt lon="6.042663" lat="45.068838"><ele>954.5</ele></trkpt>
   <trkpt lon="6.042676" lat="45.068866"><ele>955.25</ele></trkpt>
   <trkpt lon="6.042697" lat="45.068885"><ele>956.5</ele></trkpt>
   <trkpt lon="6.042725" lat="45.068898"><ele>958.5</ele></trkpt>
   <trkpt lon="6.042763" lat="45.068903"><ele>960.75</ele></trkpt>
   <trkpt lon="6.042799" lat="45.068903"><ele>963.0</ele></trkpt>
   <trkpt lon="6.042869" lat="45.068873"><ele>967.0</ele></trkpt>
   <trkpt lon="6.042888" lat="45.068852"><ele>968.0</ele></trkpt>
   <trkpt lon="6.042895" lat="45.068817"><ele>968.0</ele></trkpt>
   <trkpt lon="6.042898" lat="45.068787"><ele>968.0</ele></trkpt>
   <trkpt lon="6.042889" lat="45.068735"><ele>966.75</ele></trkpt>
   <trkpt lon="6.042814" lat="45.068541"><ele>961.25</ele></trkpt>
   <trkpt lon="6.042803" lat="45.068484"><ele>961.0</ele></trkpt>
   <trkpt lon="6.042799" lat="45.068402"><ele>961.75</ele></trkpt>
   <trkpt lon="6.042808" lat="45.068321"><ele>962.75</ele></trkpt>
   <trkpt lon="6.042851" lat="45.068225"><ele>964.0</ele></trkpt>
   <trkpt lon="6.042906" lat="45.068146"><ele>965.25</ele></trkpt>
   <trkpt lon="6.043206" lat="45.067801"><ele>971.0</ele></trkpt>
   <trkpt lon="6.043646" lat="45.067260"><ele>976.5</ele></trkpt>
   <trkpt lon="6.043684" lat="45.067226"><ele>976.25</ele></trkpt>
   <trkpt lon="6.043727" lat="45.067201"><ele>976.5</ele></trkpt>
   <trkpt lon="6.043778" lat="45.067183"><ele>977.0</ele></trkpt>
   <trkpt lon="6.043816" lat="45.067178"><ele>977.5</ele></trkpt>
   <trkpt lon="6.043873" lat="45.067180"><ele>978.75</ele></trkpt>
   <trkpt lon="6.043919" lat="45.067191"><ele>979.25</ele></trkpt>
   <trkpt lon="6.043982" lat="45.067220"><ele>980.25</ele></trkpt>
   <trkpt lon="6.044125" lat="45.067344"><ele>983.75</ele></trkpt>
   <trkpt lon="6.044467" lat="45.067679"><ele>986.0</ele></trkpt>
   <trkpt lon="6.044518" lat="45.067750"><ele>986.25</ele></trkpt>
   <trkpt lon="6.044610" lat="45.067905"><ele>986.5</ele></trkpt>
   <trkpt lon="6.044680" lat="45.068078"><ele>987.75</ele></trkpt>
   <trkpt lon="6.044737" lat="45.068255"><ele>989.75</ele></trkpt>
   <trkpt lon="6.044836" lat="45.068694"><ele>994.5</ele></trkpt>
   <trkpt lon="6.044858" lat="45.068755"><ele>995.0</ele></trkpt>
   <trkpt lon="6.044905" lat="45.068824"><ele>995.0</ele></trkpt>
   <trkpt lon="6.044970" lat="45.068894"><ele>994.75</ele></trkpt>
   <trkpt lon="6.045053" lat="45.068960"><ele>994.0</ele></trkpt>
   <trkpt lon="6.045297" lat="45.069116"><ele>991.5</ele></trkpt>
   <trkpt lon="6.045356" lat="45.069161"><ele>991.0</ele></trkpt>
   <trkpt lon="6.045387" lat="45.069194"><ele>991.25</ele></trkpt>
   <trkpt lon="6.045445" lat="45.069257"><ele>991.25</ele></trkpt>
   <trkpt lon="6.045631" lat="45.069508"><ele>992.5</ele></trkpt>
   <trkpt lon="6.045709" lat="45.069648"><ele>994.25</ele></trkpt>
   <trkpt lon="6.045802" lat="45.069898"><ele>1000.0</ele></trkpt>
   <trkpt lon="6.045871" lat="45.070012"><ele>1002.5</ele></trkpt>
   <trkpt lon="6.045985" lat="45.070114"><ele>1004.0</ele></trkpt>
   <trkpt lon="6.046095" lat="45.070180"><ele>1004.25</ele></trkpt>
   <trkpt lon="6.046715" lat="45.070512"><ele>1008.0</ele></trkpt>
   <trkpt lon="6.046807" lat="45.070566"><ele>1008.75</ele></trkpt>
   <trkpt lon="6.046944" lat="45.070671"><ele>1010.75</ele></trkpt>
   <trkpt lon="6.047627" lat="45.071409"><ele>1020.5</ele></trkpt>
   <trkpt lon="6.047864" lat="45.071627"><ele>1021.5</ele></trkpt>
   <trkpt lon="6.047966" lat="45.071710"><ele>1021.5</ele></trkpt>
   <trkpt lon="6.048093" lat="45.071798"><ele>1021.25</ele></trkpt>
   <trkpt lon="6.048159" lat="45.071855"><ele>1021.75</ele></trkpt>
   <trkpt lon="6.048167" lat="45.071879"><ele>1022.5</ele></trkpt>
   <trkpt lon="6.048157" lat="45.071923"><ele>1024.5</ele></trkpt>
   <trkpt lon="6.048111" lat="45.071968"><ele>1027.5</ele></trkpt>
   <trkpt lon="6.048070" lat="45.071980"><ele>1029.0</ele></trkpt>
   <trkpt lon="6.047997" lat="45.071984"><ele>1031.25</ele></trkpt>
   <trkpt lon="6.047961" lat="45.071977"><ele>1032.25</ele></trkpt>
   <trkpt lon="6.047929" lat="45.071961"><ele>1032.75</ele></trkpt>
   <trkpt lon="6.047894" lat="45.071935"><ele>1032.75</ele></trkpt>
   <trkpt lon="6.047743" lat="45.071739"><ele>1030.0</ele></trkpt>
   <trkpt lon="6.047645" lat="45.071646"><ele>1029.75</ele></trkpt>
   <trkpt lon="6.047338" lat="45.071413"><ele>1030.25</ele></trkpt>
   <trkpt lon="6.047222" lat="45.071339"><ele>1030.75</ele></trkpt>
   <trkpt lon="6.046885" lat="45.071147"><ele>1033.0</ele></trkpt>
   <trkpt lon="6.046809" lat="45.071114"><ele>1033.5</ele></trkpt>
   <trkpt lon="6.046736" lat="45.071091"><ele>1034.25</ele></trkpt>
   <trkpt lon="6.046668" lat="45.071073"><ele>1035.0</ele></trkpt>
   <trkpt lon="6.046587" lat="45.071060"><ele>1036.25</ele></trkpt>
   <trkpt lon="6.046379" lat="45.071043"><ele>1039.5</ele></trkpt>
   <trkpt lon="6.046264" lat="45.071043"><ele>1040.75</ele></trkpt>
   <trkpt lon="6.045241" lat="45.071093"><ele>1048.25</ele></trkpt>
   <trkpt lon="6.045059" lat="45.071095"><ele>1049.75</ele></trkpt>
   <trkpt lon="6.044977" lat="45.071089"><ele>1050.25</ele></trkpt>
   <trkpt lon="6.044835" lat="45.071057"><ele>1050.75</ele></trkpt>
   <trkpt lon="6.044661" lat="45.070990"><ele>1052.0</ele></trkpt>
   <trkpt lon="6.044454" lat="45.070898"><ele>1055.25</ele></trkpt>
   <trkpt lon="6.044406" lat="45.070884"><ele>1056.75</ele></trkpt>
   <trkpt lon="6.044345" lat="45.070877"><ele>1058.75</ele></trkpt>
   <trkpt lon="6.044306" lat="45.070886"><ele>1060.5</ele></trkpt>
   <trkpt lon="6.044249" lat="45.070932"><ele>1063.75</ele></trkpt>
   <trkpt lon="6.044243" lat="45.070954"><ele>1064.5</ele></trkpt>
   <trkpt lon="6.044248" lat="45.071000"><ele>1065.5</ele></trkpt>
   <trkpt lon="6.044266" lat="45.071027"><ele>1065.25</ele></trkpt>
   <trkpt lon="6.044300" lat="45.071051"><ele>1064.75</ele></trkpt>
   <trkpt lon="6.044772" lat="45.071266"><ele>1059.0</ele></trkpt>
   <trkpt lon="6.044893" lat="45.071309"><ele>1059.5</ele></trkpt>
   <trkpt lon="6.045053" lat="45.071344"><ele>1060.0</ele></trkpt>
   <trkpt lon="6.046083" lat="45.071518"><ele>1065.0</ele></trkpt>
   <trkpt lon="6.046177" lat="45.071541"><ele>1065.5</ele></trkpt>
   <trkpt lon="6.046352" lat="45.071605"><ele>1067.0</ele></trkpt>
   <trkpt lon="6.046530" lat="45.071702"><ele>1069.0</ele></trkpt>
   <trkpt lon="6.046749" lat="45.071860"><ele>1072.25</ele></trkpt>
   <trkpt lon="6.046952" lat="45.072052"><ele>1076.0</ele></trkpt>
   <trkpt lon="6.047609" lat="45.072851"><ele>1077.0</ele></trkpt>
   <trkpt lon="6.047648" lat="45.072912"><ele>1077.5</ele></trkpt>
   <trkpt lon="6.047675" lat="45.072975"><ele>1078.75</ele></trkpt>
   <trkpt lon="6.047693" lat="45.073055"><ele>1081.25</ele></trkpt>
   <trkpt lon="6.047705" lat="45.073319"><ele>1092.25</ele></trkpt>
   <trkpt lon="6.047717" lat="45.073358"><ele>1093.5</ele></trkpt>
   <trkpt lon="6.047751" lat="45.073412"><ele>1094.75</ele></trkpt>
   <trkpt lon="6.047834" lat="45.073488"><ele>1096.0</ele></trkpt>
   <trkpt lon="6.047939" lat="45.073547"><ele>1097.0</ele></trkpt>
   <trkpt lon="6.048041" lat="45.073578"><ele>1096.75</ele></trkpt>
   <trkpt lon="6.048507" lat="45.073677"><ele>1099.5</ele></trkpt>
   <trkpt lon="6.048610" lat="45.073686"><ele>1100.25</ele></trkpt>
   <trkpt lon="6.048705" lat="45.073680"><ele>1101.75</ele></trkpt>
   <trkpt lon="6.048781" lat="45.073664"><ele>1102.75</ele></trkpt>
   <trkpt lon="6.048844" lat="45.073642"><ele>1103.0</ele></trkpt>
   <trkpt lon="6.048945" lat="45.073576"><ele>1102.75</ele></trkpt>
   <trkpt lon="6.049096" lat="45.073456"><ele>1100.5</ele></trkpt>
   <trkpt lon="6.049200" lat="45.073391"><ele>1099.5</ele></trkpt>
   <trkpt lon="6.049277" lat="45.073359"><ele>1100.0</ele></trkpt>
   <trkpt lon="6.049393" lat="45.073328"><ele>1101.25</ele></trkpt>
   <trkpt lon="6.049543" lat="45.073303"><ele>1104.0</ele></trkpt>
   <trkpt lon="6.049704" lat="45.073264"><ele>1106.5</ele></trkpt>
   <trkpt lon="6.049807" lat="45.073222"><ele>1107.25</ele></trkpt>
   <trkpt lon="6.049928" lat="45.073159"><ele>1108.0</ele></trkpt>
   <trkpt lon="6.050982" lat="45.072496"><ele>1113.5</ele></trkpt>
   <trkpt lon="6.051079" lat="45.072442"><ele>1113.25</ele></trkpt>
   <trkpt lon="6.051133" lat="45.072434"><ele>1114.25</ele></trkpt>
   <trkpt lon="6.051184" lat="45.072439"><ele>1115.75</ele></trkpt>
   <trkpt lon="6.051224" lat="45.072454"><ele>1118.0</ele></trkpt>
   <trkpt lon="6.051251" lat="45.072478"><ele>1120.25</ele></trkpt>
   <trkpt lon="6.051268" lat="45.072508"><ele>1123.0</ele></trkpt>
   <trkpt lon="6.051264" lat="45.072544"><ele>1125.0</ele></trkpt>
   <trkpt lon="6.051245" lat="45.072573"><ele>1126.25</ele></trkpt>
   <trkpt lon="6.051200" lat="45.072608"><ele>1127.0</ele></trkpt>
   <trkpt lon="6.051004" lat="45.072693"><ele>1125.25</ele></trkpt>
   <trkpt lon="6.050942" lat="45.072727"><ele>1125.0</ele></trkpt>
   <trkpt lon="6.050865" lat="45.072782"><ele>1125.25</ele></trkpt>
   <trkpt lon="6.050761" lat="45.072879"><ele>1125.75</ele></trkpt>
   <trkpt lon="6.050187" lat="45.073596"><ele>1135.25</ele></trkpt>
   <trkpt lon="6.050105" lat="45.073676"><ele>1136.25</ele></trkpt>
   <trkpt lon="6.050019" lat="45.073743"><ele>1136.75</ele></trkpt>
   <trkpt lon="6.049747" lat="45.073910"><ele>1136.25</ele></trkpt>
   <trkpt lon="6.049688" lat="45.073961"><ele>1136.5</ele></trkpt>
   <trkpt lon="6.049647" lat="45.074011"><ele>1136.75</ele></trkpt>
   <trkpt lon="6.049612" lat="45.074069"><ele>1137.75</ele></trkpt>
   <trkpt lon="6.049584" lat="45.074199"><ele>1140.75</ele></trkpt>
   <trkpt lon="6.049569" lat="45.074480"><ele>1147.5</ele></trkpt>
   <trkpt lon="6.049552" lat="45.074555"><ele>1149.0</ele></trkpt>
   <trkpt lon="6.049507" lat="45.074635"><ele>1149.5</ele></trkpt>
   <trkpt lon="6.049446" lat="45.074702"><ele>1149.25</ele></trkpt>
   <trkpt lon="6.049369" lat="45.074763"><ele>1149.75</ele></trkpt>
   <trkpt lon="6.049300" lat="45.074799"><ele>1149.75</ele></trkpt>
   <trkpt lon="6.049118" lat="45.074870"><ele>1150.0</ele></trkpt>
   <trkpt lon="6.048759" lat="45.074992"><ele>1155.0</ele></trkpt>
   <trkpt lon="6.048662" lat="45.075013"><ele>1156.5</ele></trkpt>
   <trkpt lon="6.048593" lat="45.075021"><ele>1157.25</ele></trkpt>
   <trkpt lon="6.048510" lat="45.075019"><ele>1157.75</ele></trkpt>
   <trkpt lon="6.048373" lat="45.074994"><ele>1157.25</ele></trkpt>
   <trkpt lon="6.048124" lat="45.074908"><ele>1154.5</ele></trkpt>
   <trkpt lon="6.047908" lat="45.074815"><ele>1152.25</ele></trkpt>
   <trkpt lon="6.047788" lat="45.074765"><ele>1151.0</ele></trkpt>
   <trkpt lon="6.047734" lat="45.074757"><ele>1151.0</ele></trkpt>
   <trkpt lon="6.047689" lat="45.074759"><ele>1151.5</ele></trkpt>
   <trkpt lon="6.047653" lat="45.074769"><ele>1152.25</ele></trkpt>
   <trkpt lon="6.047617" lat="45.074790"><ele>1153.5</ele></trkpt>
   <trkpt lon="6.047598" lat="45.074817"><ele>1155.0</ele></trkpt>
   <trkpt lon="6.047593" lat="45.074849"><ele>1156.25</ele></trkpt>
   <trkpt lon="6.047601" lat="45.074879"><ele>1157.5</ele></trkpt>
   <trkpt lon="6.047628" lat="45.074904"><ele>1158.5</ele></trkpt>
   <trkpt lon="6.047665" lat="45.074921"><ele>1159.25</ele></trkpt>
   <trkpt lon="6.047802" lat="45.074947"><ele>1160.0</ele></trkpt>
   <trkpt lon="6.047961" lat="45.074970"><ele>1159.5</ele></trkpt>
   <trkpt lon="6.048025" lat="45.074987"><ele>1159.5</ele></trkpt>
   <trkpt lon="6.048151" lat="45.075035"><ele>1161.0</ele></trkpt>
   <trkpt lon="6.048592" lat="45.075209"><ele>1168.0</ele></trkpt>
   <trkpt lon="6.048714" lat="45.075235"><ele>1169.0</ele></trkpt>
   <trkpt lon="6.048899" lat="45.075252"><ele>1169.5</ele></trkpt>
   <trkpt lon="6.049486" lat="45.075239"><ele>1174.75</ele></trkpt>
   <trkpt lon="6.049632" lat="45.075224"><ele>1177.25</ele></trkpt>
   <trkpt lon="6.049734" lat="45.075203"><ele>1178.75</ele></trkpt>
   <trkpt lon="6.049824" lat="45.075173"><ele>1180.25</ele></trkpt>
   <trkpt lon="6.049884" lat="45.075144"><ele>1181.0</ele></trkpt>
   <trkpt lon="6.049961" lat="45.075092"><ele>1181.75</ele></trkpt>
   <trkpt lon="6.050007" lat="45.075048"><ele>1182.0</ele></trkpt>
   <trkpt lon="6.050048" lat="45.074982"><ele>1181.5</ele></trkpt>
   <trkpt lon="6.050100" lat="45.074879"><ele>1180.5</ele></trkpt>
   <trkpt lon="6.050196" lat="45.074593"><ele>1176.0</ele></trkpt>
   <trkpt lon="6.050241" lat="45.074513"><ele>1175.5</ele></trkpt>
   <trkpt lon="6.050291" lat="45.074458"><ele>1176.0</ele></trkpt>
   <trkpt lon="6.050350" lat="45.074416"><ele>1176.75</ele></trkpt>
   <trkpt lon="6.050455" lat="45.074366"><ele>1179.25</ele></trkpt>
   <trkpt lon="6.050676" lat="45.074282"><ele>1184.75</ele></trkpt>
   <trkpt lon="6.050774" lat="45.074226"><ele>1186.0</ele></trkpt>
   <trkpt lon="6.050845" lat="45.074177"><ele>1186.75</ele></trkpt>
   <trkpt lon="6.051666" lat="45.073574"><ele>1194.75</ele></trkpt>
   <trkpt lon="6.051848" lat="45.073395"><ele>1194.0</ele></trkpt>
   <trkpt lon="6.051982" lat="45.073225"><ele>1189.5</ele></trkpt>
   <trkpt lon="6.052018" lat="45.073206"><ele>1190.0</ele></trkpt>
   <trkpt lon="6.052048" lat="45.073200"><ele>1191.0</ele></trkpt>
   <trkpt lon="6.052088" lat="45.073200"><ele>1192.75</ele></trkpt>
   <trkpt lon="6.052126" lat="45.073208"><ele>1195.0</ele></trkpt>
   <trkpt lon="6.052161" lat="45.073230"><ele>1198.5</ele></trkpt>
   <trkpt lon="6.052177" lat="45.073255"><ele>1201.25</ele></trkpt>
   <trkpt lon="6.052169" lat="45.073302"><ele>1204.5</ele></trkpt>
   <trkpt lon="6.052134" lat="45.073343"><ele>1205.75</ele></trkpt>
   <trkpt lon="6.051933" lat="45.073511"><ele>1205.25</ele></trkpt>
   <trkpt lon="6.051589" lat="45.073820"><ele>1203.5</ele></trkpt>
   <trkpt lon="6.051059" lat="45.074388"><ele>1204.25</ele></trkpt>
   <trkpt lon="6.050961" lat="45.074509"><ele>1205.25</ele></trkpt>
   <trkpt lon="6.050854" lat="45.074702"><ele>1208.0</ele></trkpt>
   <trkpt lon="6.050806" lat="45.074817"><ele>1209.5</ele></trkpt>
   <trkpt lon="6.050772" lat="45.074918"><ele>1210.75</ele></trkpt>
   <trkpt lon="6.050702" lat="45.075220"><ele>1216.5</ele></trkpt>
   <trkpt lon="6.050676" lat="45.075307"><ele>1218.0</ele></trkpt>
   <trkpt lon="6.050639" lat="45.075385"><ele>1219.0</ele></trkpt>
   <trkpt lon="6.050593" lat="45.075456"><ele>1219.25</ele></trkpt>
   <trkpt lon="6.050346" lat="45.075764"><ele>1223.0</ele></trkpt>
   <trkpt lon="6.050271" lat="45.075840"><ele>1224.0</ele></trkpt>
   <trkpt lon="6.050199" lat="45.075891"><ele>1225.5</ele></trkpt>
   <trkpt lon="6.050110" lat="45.075928"><ele>1225.5</ele></trkpt>
   <trkpt lon="6.049760" lat="45.076026"><ele>1223.75</ele></trkpt>
   <trkpt lon="6.049516" lat="45.076109"><ele>1224.75</ele></trkpt>
   <trkpt lon="6.049300" lat="45.076195"><ele>1227.0</ele></trkpt>
   <trkpt lon="6.049084" lat="45.076300"><ele>1230.75</ele></trkpt>
   <trkpt lon="6.048975" lat="45.076346"><ele>1232.75</ele></trkpt>
   <trkpt lon="6.048882" lat="45.076372"><ele>1233.75</ele></trkpt>
   <trkpt lon="6.048801" lat="45.076382"><ele>1234.5</ele></trkpt>
   <trkpt lon="6.048695" lat="45.076382"><ele>1234.5</ele></trkpt>
   <trkpt lon="6.048606" lat="45.076374"><ele>1234.0</ele></trkpt>
   <trkpt lon="6.048365" lat="45.076329"><ele>1232.75</ele></trkpt>
   <trkpt lon="6.048166" lat="45.076292"><ele>1231.25</ele></trkpt>
   <trkpt lon="6.048076" lat="45.076284"><ele>1231.0</ele></trkpt>
   <trkpt lon="6.047954" lat="45.076297"><ele>1231.25</ele></trkpt>
   <trkpt lon="6.047654" lat="45.076403"><ele>1235.0</ele></trkpt>
   <trkpt lon="6.047350" lat="45.076495"><ele>1237.75</ele></trkpt>
   <trkpt lon="6.047290" lat="45.076545"><ele>1240.25</ele></trkpt>
   <trkpt lon="6.047279" lat="45.076574"><ele>1242.0</ele></trkpt>
   <trkpt lon="6.047279" lat="45.076603"><ele>1243.75</ele></trkpt>
   <trkpt lon="6.047300" lat="45.076629"><ele>1245.5</ele></trkpt>
   <trkpt lon="6.047330" lat="45.076651"><ele>1247.5</ele></trkpt>
   <trkpt lon="6.047378" lat="45.076668"><ele>1249.25</ele></trkpt>
   <trkpt lon="6.047432" lat="45.076669"><ele>1250.0</ele></trkpt>
   <trkpt lon="6.047492" lat="45.076654"><ele>1250.0</ele></trkpt>
   <trkpt lon="6.047700" lat="45.076559"><ele>1246.5</ele></trkpt>
   <trkpt lon="6.047832" lat="45.076507"><ele>1244.25</ele></trkpt>
   <trkpt lon="6.047892" lat="45.076492"><ele>1243.75</ele></trkpt>
   <trkpt lon="6.047952" lat="45.076486"><ele>1243.75</ele></trkpt>
   <trkpt lon="6.048035" lat="45.076488"><ele>1244.5</ele></trkpt>
   <trkpt lon="6.048125" lat="45.076502"><ele>1245.25</ele></trkpt>
   <trkpt lon="6.048322" lat="45.076564"><ele>1248.25</ele></trkpt>
   <trkpt lon="6.048563" lat="45.076674"><ele>1253.75</ele></trkpt>
   <trkpt lon="6.048659" lat="45.076701"><ele>1255.0</ele></trkpt>
   <trkpt lon="6.048774" lat="45.076720"><ele>1255.75</ele></trkpt>
   <trkpt lon="6.048906" lat="45.076727"><ele>1256.0</ele></trkpt>
   <trkpt lon="6.049353" lat="45.076717"><ele>1260.25</ele></trkpt>
   <trkpt lon="6.049470" lat="45.076711"><ele>1262.25</ele></trkpt>
   <trkpt lon="6.049553" lat="45.076699"><ele>1263.5</ele></trkpt>
   <trkpt lon="6.049641" lat="45.076677"><ele>1264.5</ele></trkpt>
   <trkpt lon="6.049917" lat="45.076573"><ele>1264.25</ele></trkpt>
   <trkpt lon="6.050024" lat="45.076540"><ele>1264.25</ele></trkpt>
   <trkpt lon="6.050166" lat="45.076520"><ele>1265.5</ele></trkpt>
   <trkpt lon="6.050613" lat="45.076494"><ele>1273.5</ele></trkpt>
   <trkpt lon="6.050706" lat="45.076472"><ele>1274.5</ele></trkpt>
   <trkpt lon="6.050813" lat="45.076438"><ele>1275.0</ele></trkpt>
   <trkpt lon="6.050938" lat="45.076385"><ele>1275.75</ele></trkpt>
   <trkpt lon="6.051049" lat="45.076328"><ele>1276.25</ele></trkpt>
   <trkpt lon="6.051233" lat="45.076214"><ele>1277.25</ele></trkpt>
   <trkpt lon="6.051444" lat="45.076070"><ele>1279.5</ele></trkpt>
   <trkpt lon="6.051550" lat="45.075984"><ele>1280.75</ele></trkpt>
   <trkpt lon="6.051611" lat="45.075917"><ele>1281.0</ele></trkpt>
   <trkpt lon="6.051783" lat="45.075682"><ele>1281.75</ele></trkpt>
   <trkpt lon="6.052104" lat="45.075191"><ele>1284.5</ele></trkpt>
   <trkpt lon="6.052169" lat="45.075071"><ele>1284.75</ele></trkpt>
   <trkpt lon="6.052183" lat="45.075030"><ele>1284.5</ele></trkpt>
   <trkpt lon="6.052213" lat="45.074857"><ele>1281.75</ele></trkpt>
   <trkpt lon="6.052233" lat="45.074815"><ele>1281.75</ele></trkpt>
   <trkpt lon="6.052296" lat="45.074779"><ele>1284.5</ele></trkpt>
   <trkpt lon="6.052343" lat="45.074766"><ele>1287.0</ele></trkpt>
   <trkpt lon="6.052388" lat="45.074764"><ele>1289.5</ele></trkpt>
   <trkpt lon="6.052444" lat="45.074776"><ele>1293.25</ele></trkpt>
   <trkpt lon="6.052478" lat="45.074794"><ele>1295.75</ele></trkpt>
   <trkpt lon="6.052498" lat="45.074817"><ele>1297.5</ele></trkpt>
   <trkpt lon="6.052513" lat="45.074855"><ele>1299.5</ele></trkpt>
   <trkpt lon="6.052506" lat="45.074889"><ele>1300.0</ele></trkpt>
   <trkpt lon="6.052482" lat="45.074933"><ele>1299.75</ele></trkpt>
   <trkpt lon="6.052427" lat="45.074995"><ele>1298.25</ele></trkpt>
   <trkpt lon="6.052342" lat="45.075062"><ele>1295.0</ele></trkpt>
   <trkpt lon="6.052261" lat="45.075156"><ele>1292.75</ele></trkpt>
   <trkpt lon="6.052224" lat="45.075234"><ele>1292.75</ele></trkpt>
   <trkpt lon="6.052096" lat="45.075543"><ele>1293.75</ele></trkpt>
   <trkpt lon="6.051988" lat="45.075759"><ele>1294.0</ele></trkpt>
   <trkpt lon="6.051956" lat="45.075859"><ele>1295.25</ele></trkpt>
   <trkpt lon="6.051913" lat="45.076130"><ele>1301.25</ele></trkpt>
   <trkpt lon="6.051880" lat="45.076260"><ele>1304.0</ele></trkpt>
   <trkpt lon="6.051758" lat="45.076621"><ele>1312.25</ele></trkpt>
   <trkpt lon="6.051721" lat="45.076695"><ele>1314.0</ele></trkpt>
   <trkpt lon="6.051652" lat="45.076787"><ele>1315.75</ele></trkpt>
   <trkpt lon="6.051626" lat="45.076819"><ele>1316.25</ele></trkpt>
   <trkpt lon="6.051552" lat="45.076883"><ele>1317.25</ele></trkpt>
   <trkpt lon="6.051425" lat="45.076971"><ele>1318.25</ele></trkpt>
   <trkpt lon="6.051197" lat="45.077110"><ele>1320.75</ele></trkpt>
   <trkpt lon="6.050866" lat="45.077250"><ele>1322.0</ele></trkpt>
   <trkpt lon="6.050731" lat="45.077330"><ele>1323.75</ele></trkpt>
   <trkpt lon="6.050333" lat="45.077598"><ele>1330.75</ele></trkpt>
   <trkpt lon="6.050112" lat="45.077728"><ele>1333.5</ele></trkpt>
   <trkpt lon="6.049626" lat="45.077988"><ele>1340.25</ele></trkpt>
   <trkpt lon="6.049477" lat="45.078048"><ele>1342.0</ele></trkpt>
   <trkpt lon="6.049415" lat="45.078063"><ele>1342.25</ele></trkpt>
   <trkpt lon="6.049362" lat="45.078067"><ele>1342.5</ele></trkpt>
   <trkpt lon="6.049300" lat="45.078063"><ele>1342.25</ele></trkpt>
   <trkpt lon="6.049154" lat="45.078021"><ele>1339.75</ele></trkpt>
   <trkpt lon="6.048983" lat="45.077953"><ele>1337.0</ele></trkpt>
   <trkpt lon="6.048911" lat="45.077939"><ele>1336.75</ele></trkpt>
   <trkpt lon="6.048751" lat="45.077935"><ele>1338.5</ele></trkpt>
   <trkpt lon="6.048537" lat="45.077947"><ele>1342.75</ele></trkpt>
   <trkpt lon="6.048443" lat="45.077943"><ele>1344.25</ele></trkpt>
   <trkpt lon="6.048339" lat="45.077927"><ele>1345.0</ele></trkpt>
   <trkpt lon="6.048216" lat="45.077898"><ele>1344.75</ele></trkpt>
   <trkpt lon="6.047968" lat="45.077811"><ele>1341.0</ele></trkpt>
   <trkpt lon="6.047899" lat="45.077805"><ele>1341.0</ele></trkpt>
   <trkpt lon="6.047852" lat="45.077813"><ele>1342.0</ele></trkpt>
   <trkpt lon="6.047807" lat="45.077850"><ele>1345.25</ele></trkpt>
   <trkpt lon="6.047797" lat="45.077875"><ele>1347.5</ele></trkpt>
   <trkpt lon="6.047800" lat="45.077902"><ele>1349.5</ele></trkpt>
   <trkpt lon="6.047814" lat="45.077929"><ele>1351.5</ele></trkpt>
   <trkpt lon="6.047868" lat="45.077971"><ele>1354.25</ele></trkpt>
   <trkpt lon="6.047921" lat="45.077987"><ele>1355.0</ele></trkpt>
   <trkpt lon="6.048178" lat="45.078023"><ele>1354.75</ele></trkpt>
   <trkpt lon="6.048301" lat="45.078047"><ele>1354.75</ele></trkpt>
   <trkpt lon="6.048508" lat="45.078109"><ele>1355.0</ele></trkpt>
   <trkpt lon="6.048677" lat="45.078167"><ele>1355.75</ele></trkpt>
   <trkpt lon="6.048837" lat="45.078238"><ele>1357.75</ele></trkpt>
   <trkpt lon="6.049118" lat="45.078379"><ele>1363.5</ele></trkpt>
   <trkpt lon="6.049198" lat="45.078415"><ele>1365.5</ele></trkpt>
   <trkpt lon="6.049260" lat="45.078430"><ele>1366.5</ele></trkpt>
   <trkpt lon="6.049434" lat="45.078439"><ele>1367.0</ele></trkpt>
   <trkpt lon="6.049654" lat="45.078436"><ele>1369.0</ele></trkpt>
   <trkpt lon="6.049809" lat="45.078427"><ele>1370.0</ele></trkpt>
   <trkpt lon="6.050043" lat="45.078404"><ele>1372.0</ele></trkpt>
   <trkpt lon="6.050142" lat="45.078385"><ele>1372.5</ele></trkpt>
   <trkpt lon="6.050369" lat="45.078320"><ele>1373.0</ele></trkpt>
   <trkpt lon="6.051706" lat="45.077833"><ele>1377.75</ele></trkpt>
   <trkpt lon="6.051817" lat="45.077801"><ele>1379.0</ele></trkpt>
   <trkpt lon="6.052124" lat="45.077739"><ele>1383.25</ele></trkpt>
   <trkpt lon="6.052236" lat="45.077708"><ele>1384.75</ele></trkpt>
   <trkpt lon="6.052357" lat="45.077660"><ele>1385.0</ele></trkpt>
   <trkpt lon="6.052518" lat="45.077581"><ele>1385.0</ele></trkpt>
   <trkpt lon="6.052730" lat="45.077466"><ele>1385.5</ele></trkpt>
   <trkpt lon="6.052852" lat="45.077379"><ele>1385.5</ele></trkpt>
   <trkpt lon="6.053123" lat="45.077115"><ele>1384.25</ele></trkpt>
   <trkpt lon="6.053171" lat="45.077082"><ele>1384.5</ele></trkpt>
   <trkpt lon="6.053219" lat="45.077063"><ele>1385.25</ele></trkpt>
   <trkpt lon="6.053271" lat="45.077058"><ele>1386.5</ele></trkpt>
   <trkpt lon="6.053327" lat="45.077061"><ele>1387.75</ele></trkpt>
   <trkpt lon="6.053381" lat="45.077072"><ele>1387.5</ele></trkpt>
   <trkpt lon="6.053428" lat="45.077088"><ele>1387.25</ele></trkpt>
   <trkpt lon="6.053468" lat="45.077113"><ele>1387.25</ele></trkpt>
   <trkpt lon="6.053520" lat="45.077166"><ele>1387.25</ele></trkpt>
   <trkpt lon="6.053546" lat="45.077232"><ele>1388.0</ele></trkpt>
   <trkpt lon="6.053593" lat="45.077510"><ele>1392.25</ele></trkpt>
   <trkpt lon="6.053621" lat="45.077604"><ele>1394.25</ele></trkpt>
   <trkpt lon="6.053654" lat="45.077669"><ele>1395.0</ele></trkpt>
   <trkpt lon="6.053708" lat="45.077745"><ele>1395.5</ele></trkpt>
   <trkpt lon="6.053836" lat="45.077891"><ele>1397.25</ele></trkpt>
   <trkpt lon="6.054085" lat="45.078180"><ele>1398.5</ele></trkpt>
   <trkpt lon="6.054663" lat="45.079173"><ele>1411.75</ele></trkpt>
   <trkpt lon="6.054698" lat="45.079301"><ele>1411.5</ele></trkpt>
   <trkpt lon="6.054699" lat="45.079362"><ele>1412.0</ele></trkpt>
   <trkpt lon="6.054689" lat="45.079427"><ele>1412.75</ele></trkpt>
   <trkpt lon="6.054633" lat="45.079592"><ele>1415.25</ele></trkpt>
   <trkpt lon="6.054622" lat="45.079653"><ele>1416.0</ele></trkpt>
   <trkpt lon="6.054628" lat="45.079740"><ele>1416.5</ele></trkpt>
   <trkpt lon="6.054692" lat="45.080026"><ele>1419.0</ele></trkpt>
   <trkpt lon="6.054793" lat="45.080401"><ele>1425.75</ele></trkpt>
   <trkpt lon="6.054838" lat="45.080541"><ele>1429.0</ele></trkpt>
   <trkpt lon="6.054878" lat="45.080619"><ele>1431.0</ele></trkpt>
   <trkpt lon="6.054936" lat="45.080683"><ele>1432.75</ele></trkpt>
   <trkpt lon="6.055013" lat="45.080735"><ele>1434.0</ele></trkpt>
   <trkpt lon="6.055090" lat="45.080773"><ele>1435.25</ele></trkpt>
   <trkpt lon="6.055177" lat="45.080805"><ele>1436.25</ele></trkpt>
   <trkpt lon="6.055243" lat="45.080819"><ele>1436.5</ele></trkpt>
   <trkpt lon="6.055316" lat="45.080822"><ele>1437.25</ele></trkpt>
   <trkpt lon="6.055378" lat="45.080814"><ele>1438.25</ele></trkpt>
   <trkpt lon="6.055440" lat="45.080794"><ele>1439.0</ele></trkpt>
   <trkpt lon="6.055503" lat="45.080762"><ele>1439.5</ele></trkpt>
   <trkpt lon="6.055542" lat="45.080727"><ele>1439.25</ele></trkpt>
   <trkpt lon="6.055572" lat="45.080682"><ele>1439.0</ele></trkpt>
   <trkpt lon="6.055628" lat="45.080561"><ele>1437.75</ele></trkpt>
   <trkpt lon="6.055687" lat="45.080398"><ele>1435.5</ele></trkpt>
   <trkpt lon="6.055742" lat="45.080310"><ele>1434.75</ele></trkpt>
   <trkpt lon="6.055810" lat="45.080242"><ele>1434.25</ele></trkpt>
   <trkpt lon="6.055880" lat="45.080197"><ele>1434.0</ele></trkpt>
   <trkpt lon="6.055971" lat="45.080162"><ele>1434.5</ele></trkpt>
   <trkpt lon="6.056069" lat="45.080136"><ele>1435.0</ele></trkpt>
   <trkpt lon="6.056262" lat="45.080100"><ele>1435.5</ele></trkpt>
   <trkpt lon="6.056498" lat="45.080065"><ele>1434.75</ele></trkpt>
   <trkpt lon="6.056610" lat="45.080057"><ele>1434.5</ele></trkpt>
   <trkpt lon="6.056709" lat="45.080056"><ele>1434.0</ele></trkpt>
   <trkpt lon="6.056801" lat="45.080066"><ele>1433.75</ele></trkpt>
   <trkpt lon="6.056911" lat="45.080088"><ele>1433.75</ele></trkpt>
   <trkpt lon="6.056995" lat="45.080120"><ele>1434.5</ele></trkpt>
   <trkpt lon="6.057549" lat="45.080363"><ele>1439.25</ele></trkpt>
   <trkpt lon="6.058267" lat="45.080628"><ele>1443.75</ele></trkpt>
   <trkpt lon="6.058561" lat="45.080744"><ele>1445.0</ele></trkpt>
   <trkpt lon="6.058729" lat="45.080831"><ele>1446.5</ele></trkpt>
   <trkpt lon="6.058785" lat="45.080875"><ele>1447.75</ele></trkpt>
   <trkpt lon="6.058815" lat="45.080899"><ele>1448.25</ele></trkpt>
   <trkpt lon="6.058995" lat="45.081029"><ele>1451.75</ele></trkpt>
   <trkpt lon="6.059087" lat="45.081080"><ele>1453.25</ele></trkpt>
   <trkpt lon="6.059213" lat="45.081130"><ele>1454.0</ele></trkpt>
   <trkpt lon="6.059506" lat="45.081221"><ele>1455.0</ele></trkpt>
   <trkpt lon="6.059649" lat="45.081268"><ele>1456.25</ele></trkpt>
   <trkpt lon="6.059741" lat="45.081300"><ele>1457.25</ele></trkpt>
   <trkpt lon="6.059903" lat="45.081398"><ele>1460.0</ele></trkpt>
   <trkpt lon="6.060054" lat="45.081496"><ele>1463.25</ele></trkpt>
   <trkpt lon="6.060128" lat="45.081526"><ele>1464.0</ele></trkpt>
   <trkpt lon="6.060451" lat="45.081625"><ele>1466.5</ele></trkpt>
   <trkpt lon="6.060754" lat="45.081718"><ele>1469.0</ele></trkpt>
   <trkpt lon="6.061050" lat="45.081800"><ele>1470.75</ele></trkpt>
   <trkpt lon="6.061340" lat="45.081880"><ele>1471.5</ele></trkpt>
   <trkpt lon="6.061789" lat="45.081989"><ele>1472.5</ele></trkpt>
   <trkpt lon="6.062189" lat="45.082123"><ele>1474.5</ele></trkpt>
   <trkpt lon="6.062269" lat="45.082165"><ele>1476.25</ele></trkpt>
   <trkpt lon="6.062317" lat="45.082213"><ele>1478.75</ele></trkpt>
   <trkpt lon="6.062325" lat="45.082241"><ele>1480.5</ele></trkpt>
   <trkpt lon="6.062321" lat="45.082268"><ele>1482.25</ele></trkpt>
   <trkpt lon="6.062303" lat="45.082299"><ele>1484.25</ele></trkpt>
   <trkpt lon="6.062276" lat="45.082324"><ele>1486.0</ele></trkpt>
   <trkpt lon="6.062242" lat="45.082341"><ele>1487.5</ele></trkpt>
   <trkpt lon="6.062171" lat="45.082348"><ele>1488.75</ele></trkpt>
   <trkpt lon="6.062123" lat="45.082337"><ele>1489.0</ele></trkpt>
   <trkpt lon="6.062054" lat="45.082305"><ele>1488.0</ele></trkpt>
   <trkpt lon="6.061821" lat="45.082168"><ele>1482.75</ele></trkpt>
   <trkpt lon="6.061738" lat="45.082128"><ele>1481.5</ele></trkpt>
   <trkpt lon="6.061623" lat="45.082097"><ele>1481.25</ele></trkpt>
   <trkpt lon="6.061424" lat="45.082087"><ele>1482.75</ele></trkpt>
   <trkpt lon="6.060474" lat="45.082157"><ele>1491.0</ele></trkpt>
   <trkpt lon="6.059946" lat="45.082186"><ele>1494.25</ele></trkpt>
   <trkpt lon="6.059822" lat="45.082194"><ele>1495.25</ele></trkpt>
   <trkpt lon="6.059714" lat="45.082200"><ele>1495.75</ele></trkpt>
   <trkpt lon="6.059600" lat="45.082206"><ele>1496.5</ele></trkpt>
   <trkpt lon="6.058985" lat="45.082215"><ele>1498.5</ele></trkpt>
   <trkpt lon="6.058715" lat="45.082227"><ele>1499.75</ele></trkpt>
   <trkpt lon="6.058675" lat="45.082227"><ele>1499.75</ele></trkpt>
   <trkpt lon="6.058327" lat="45.082232"><ele>1500.25</ele></trkpt>
   <trkpt lon="6.058173" lat="45.082239"><ele>1499.75</ele></trkpt>
   <trkpt lon="6.058001" lat="45.082274"><ele>1500.0</ele></trkpt>
   <trkpt lon="6.057933" lat="45.082294"><ele>1500.25</ele></trkpt>
   <trkpt lon="6.057914" lat="45.082300"><ele>1500.25</ele></trkpt>
   <trkpt lon="6.057834" lat="45.082339"><ele>1500.75</ele></trkpt>
   <trkpt lon="6.057758" lat="45.082395"><ele>1501.5</ele></trkpt>
   <trkpt lon="6.057700" lat="45.082452"><ele>1502.25</ele></trkpt>
   <trkpt lon="6.057658" lat="45.082510"><ele>1503.25</ele></trkpt>
   <trkpt lon="6.057619" lat="45.082590"><ele>1504.25</ele></trkpt>
   <trkpt lon="6.057596" lat="45.082737"><ele>1506.25</ele></trkpt>
   <trkpt lon="6.057594" lat="45.082977"><ele>1509.25</ele></trkpt>
   <trkpt lon="6.057593" lat="45.083079"><ele>1510.5</ele></trkpt>
   <trkpt lon="6.057580" lat="45.083188"><ele>1511.5</ele></trkpt>
   <trkpt lon="6.057485" lat="45.083536"><ele>1513.0</ele></trkpt>
   <trkpt lon="6.057473" lat="45.083581"><ele>1513.25</ele></trkpt>
   <trkpt lon="6.057481" lat="45.083632"><ele>1513.75</ele></trkpt>
   <trkpt lon="6.057504" lat="45.083659"><ele>1514.5</ele></trkpt>
   <trkpt lon="6.057561" lat="45.083686"><ele>1515.75</ele></trkpt>
   <trkpt lon="6.057609" lat="45.083688"><ele>1516.75</ele></trkpt>
   <trkpt lon="6.057652" lat="45.083680"><ele>1517.25</ele></trkpt>
   <trkpt lon="6.057684" lat="45.083668"><ele>1517.75</ele></trkpt>
   <trkpt lon="6.057719" lat="45.083640"><ele>1518.25</ele></trkpt>
   <trkpt lon="6.057874" lat="45.083424"><ele>1518.5</ele></trkpt>
   <trkpt lon="6.057938" lat="45.083356"><ele>1519.0</ele></trkpt>
   <trkpt lon="6.058060" lat="45.083276"><ele>1520.0</ele></trkpt>
   <trkpt lon="6.058182" lat="45.083214"><ele>1521.25</ele></trkpt>
   <trkpt lon="6.058299" lat="45.083158"><ele>1522.5</ele></trkpt>
   <trkpt lon="6.058613" lat="45.083060"><ele>1525.0</ele></trkpt>
   <trkpt lon="6.058833" lat="45.083019"><ele>1526.5</ele></trkpt>
   <trkpt lon="6.058883" lat="45.083013"><ele>1526.75</ele></trkpt>
   <trkpt lon="6.059008" lat="45.083008"><ele>1527.5</ele></trkpt>
   <trkpt lon="6.059319" lat="45.083010"><ele>1529.5</ele></trkpt>
   <trkpt lon="6.059694" lat="45.083025"><ele>1531.75</ele></trkpt>
   <trkpt lon="6.059893" lat="45.083044"><ele>1533.0</ele></trkpt>
   <trkpt lon="6.060066" lat="45.083070"><ele>1534.5</ele></trkpt>
   <trkpt lon="6.060730" lat="45.083195"><ele>1541.0</ele></trkpt>
   <trkpt lon="6.061933" lat="45.083457"><ele>1554.0</ele></trkpt>
   <trkpt lon="6.062150" lat="45.083484"><ele>1554.75</ele></trkpt>
   <trkpt lon="6.062395" lat="45.083488"><ele>1554.0</ele></trkpt>
   <trkpt lon="6.062525" lat="45.083490"><ele>1553.75</ele></trkpt>
   <trkpt lon="6.062563" lat="45.083502"><ele>1554.25</ele></trkpt>
   <trkpt lon="6.062606" lat="45.083525"><ele>1555.5</ele></trkpt>
   <trkpt lon="6.062636" lat="45.083570"><ele>1558.0</ele></trkpt>
   <trkpt lon="6.062621" lat="45.083621"><ele>1561.0</ele></trkpt>
   <trkpt lon="6.062600" lat="45.083642"><ele>1562.25</ele></trkpt>
   <trkpt lon="6.062572" lat="45.083654"><ele>1562.75</ele></trkpt>
   <trkpt lon="6.062508" lat="45.083662"><ele>1563.5</ele></trkpt>
   <trkpt lon="6.062229" lat="45.083614"><ele>1561.0</ele></trkpt>
   <trkpt lon="6.062100" lat="45.083600"><ele>1560.75</ele></trkpt>
   <trkpt lon="6.061656" lat="45.083586"><ele>1560.5</ele></trkpt>
   <trkpt lon="6.061460" lat="45.083608"><ele>1561.75</ele></trkpt>
   <trkpt lon="6.061334" lat="45.083644"><ele>1563.0</ele></trkpt>
   <trkpt lon="6.061013" lat="45.083770"><ele>1566.25</ele></trkpt>
   <trkpt lon="6.060698" lat="45.083909"><ele>1569.0</ele></trkpt>
   <trkpt lon="6.060586" lat="45.083964"><ele>1569.5</ele></trkpt>
   <trkpt lon="6.060489" lat="45.084027"><ele>1569.75</ele></trkpt>
   <trkpt lon="6.060367" lat="45.084142"><ele>1570.75</ele></trkpt>
   <trkpt lon="6.060297" lat="45.084245"><ele>1571.75</ele></trkpt>
   <trkpt lon="6.060243" lat="45.084354"><ele>1572.5</ele></trkpt>
   <trkpt lon="6.060184" lat="45.084559"><ele>1575.0</ele></trkpt>
   <trkpt lon="6.060120" lat="45.084766"><ele>1577.25</ele></trkpt>
   <trkpt lon="6.060095" lat="45.084927"><ele>1579.5</ele></trkpt>
   <trkpt lon="6.060030" lat="45.085150"><ele>1583.25</ele></trkpt>
   <trkpt lon="6.059977" lat="45.085283"><ele>1585.5</ele></trkpt>
   <trkpt lon="6.059937" lat="45.085359"><ele>1587.0</ele></trkpt>
   <trkpt lon="6.059821" lat="45.085540"><ele>1589.5</ele></trkpt>
   <trkpt lon="6.059737" lat="45.085651"><ele>1591.0</ele></trkpt>
   <trkpt lon="6.059627" lat="45.085779"><ele>1592.25</ele></trkpt>
   <trkpt lon="6.059444" lat="45.085957"><ele>1593.5</ele></trkpt>
   <trkpt lon="6.059159" lat="45.086211"><ele>1594.0</ele></trkpt>
   <trkpt lon="6.058920" lat="45.086439"><ele>1594.75</ele></trkpt>
   <trkpt lon="6.058746" lat="45.086623"><ele>1597.5</ele></trkpt>
   <trkpt lon="6.058554" lat="45.086854"><ele>1601.0</ele></trkpt>
   <trkpt lon="6.058506" lat="45.086919"><ele>1602.0</ele></trkpt>
   <trkpt lon="6.058383" lat="45.087088"><ele>1604.5</ele></trkpt>
   <trkpt lon="6.058258" lat="45.087282"><ele>1607.75</ele></trkpt>
   <trkpt lon="6.058137" lat="45.087452"><ele>1610.75</ele></trkpt>
   <trkpt lon="6.058082" lat="45.087506"><ele>1611.25</ele></trkpt>
   <trkpt lon="6.057974" lat="45.087598"><ele>1612.75</ele></trkpt>
   <trkpt lon="6.057829" lat="45.087687"><ele>1613.5</ele></trkpt>
   <trkpt lon="6.057761" lat="45.087740"><ele>1614.0</ele></trkpt>
   <trkpt lon="6.057383" lat="45.087976"><ele>1616.75</ele></trkpt>
   <trkpt lon="6.057039" lat="45.088178"><ele>1620.5</ele></trkpt>
   <trkpt lon="6.056868" lat="45.088267"><ele>1622.5</ele></trkpt>
   <trkpt lon="6.056719" lat="45.088324"><ele>1623.75</ele></trkpt>
   <trkpt lon="6.056653" lat="45.088338"><ele>1624.0</ele></trkpt>
   <trkpt lon="6.056542" lat="45.088350"><ele>1625.0</ele></trkpt>
   <trkpt lon="6.056496" lat="45.088351"><ele>1625.5</ele></trkpt>
   <trkpt lon="6.056388" lat="45.088336"><ele>1626.0</ele></trkpt>
   <trkpt lon="6.056323" lat="45.088319"><ele>1626.25</ele></trkpt>
   <trkpt lon="6.056249" lat="45.088289"><ele>1626.75</ele></trkpt>
   <trkpt lon="6.056129" lat="45.088225"><ele>1627.0</ele></trkpt>
   <trkpt lon="6.055982" lat="45.088125"><ele>1627.75</ele></trkpt>
   <trkpt lon="6.055953" lat="45.088113"><ele>1628.0</ele></trkpt>
   <trkpt lon="6.055925" lat="45.088108"><ele>1628.5</ele></trkpt>
   <trkpt lon="6.055872" lat="45.088116"><ele>1629.5</ele></trkpt>
   <trkpt lon="6.055832" lat="45.088138"><ele>1630.5</ele></trkpt>
   <trkpt lon="6.055820" lat="45.088157"><ele>1631.0</ele></trkpt>
   <trkpt lon="6.055820" lat="45.088183"><ele>1631.5</ele></trkpt>
   <trkpt lon="6.055829" lat="45.088201"><ele>1631.5</ele></trkpt>
   <trkpt lon="6.055987" lat="45.088361"><ele>1631.75</ele></trkpt>
   <trkpt lon="6.056156" lat="45.088605"><ele>1634.0</ele></trkpt>
   <trkpt lon="6.056291" lat="45.088825"><ele>1637.75</ele></trkpt>
   <trkpt lon="6.056345" lat="45.088899"><ele>1638.75</ele></trkpt>
   <trkpt lon="6.056426" lat="45.088964"><ele>1639.25</ele></trkpt>
   <trkpt lon="6.056479" lat="45.088993"><ele>1639.75</ele></trkpt>
   <trkpt lon="6.056542" lat="45.089018"><ele>1640.0</ele></trkpt>
   <trkpt lon="6.056650" lat="45.089048"><ele>1640.25</ele></trkpt>
   <trkpt lon="6.056916" lat="45.089103"><ele>1642.25</ele></trkpt>
   <trkpt lon="6.057091" lat="45.089128"><ele>1643.25</ele></trkpt>
   <trkpt lon="6.057555" lat="45.089155"><ele>1646.75</ele></trkpt>
   <trkpt lon="6.057911" lat="45.089166"><ele>1649.25</ele></trkpt>
   <trkpt lon="6.058077" lat="45.089160"><ele>1651.0</ele></trkpt>
   <trkpt lon="6.058258" lat="45.089146"><ele>1652.5</ele></trkpt>
   <trkpt lon="6.058471" lat="45.089114"><ele>1654.0</ele></trkpt>
   <trkpt lon="6.059875" lat="45.088853"><ele>1663.75</ele></trkpt>
   <trkpt lon="6.060006" lat="45.088818"><ele>1664.5</ele></trkpt>
   <trkpt lon="6.060339" lat="45.088681"><ele>1666.25</ele></trkpt>
   <trkpt lon="6.060388" lat="45.088673"><ele>1667.0</ele></trkpt>
   <trkpt lon="6.060429" lat="45.088674"><ele>1667.5</ele></trkpt>
   <trkpt lon="6.060457" lat="45.088685"><ele>1668.25</ele></trkpt>
   <trkpt lon="6.060465" lat="45.088695"><ele>1668.5</ele></trkpt>
   <trkpt lon="6.060481" lat="45.088731"><ele>1669.75</ele></trkpt>
   <trkpt lon="6.060477" lat="45.088754"><ele>1670.25</ele></trkpt>
   <trkpt lon="6.060458" lat="45.088781"><ele>1670.5</ele></trkpt>
   <trkpt lon="6.060241" lat="45.088926"><ele>1670.25</ele></trkpt>
   <trkpt lon="6.059920" lat="45.089285"><ele>1674.75</ele></trkpt>
   <trkpt lon="6.059739" lat="45.089485"><ele>1677.25</ele></trkpt>
   <trkpt lon="6.059543" lat="45.089667"><ele>1679.75</ele></trkpt>
   <trkpt lon="6.059482" lat="45.089724"><ele>1680.5</ele></trkpt>
   <trkpt lon="6.059129" lat="45.089986"><ele>1684.0</ele></trkpt>
   <trkpt lon="6.058346" lat="45.090522"><ele>1693.0</ele></trkpt>
   <trkpt lon="6.058228" lat="45.090600"><ele>1694.25</ele></trkpt>
   <trkpt lon="6.058101" lat="45.090681"><ele>1695.75</ele></trkpt>
   <trkpt lon="6.057942" lat="45.090769"><ele>1697.25</ele></trkpt>
   <trkpt lon="6.057173" lat="45.091165"><ele>1705.5</ele></trkpt>
   <trkpt lon="6.057042" lat="45.091222"><ele>1706.25</ele></trkpt>
   <trkpt lon="6.056611" lat="45.091351"><ele>1708.75</ele></trkpt>
   <trkpt lon="6.056599" lat="45.091354"><ele>1708.75</ele></trkpt>
   <trkpt lon="6.056484" lat="45.091385"><ele>1710.5</ele></trkpt>
   <trkpt lon="6.056404" lat="45.091400"><ele>1711.25</ele></trkpt>
   <trkpt lon="6.056304" lat="45.091407"><ele>1712.0</ele></trkpt>
   <trkpt lon="6.056040" lat="45.091408"><ele>1713.0</ele></trkpt>
   <trkpt lon="6.055763" lat="45.091390"><ele>1713.25</ele></trkpt>
   <trkpt lon="6.055493" lat="45.091353"><ele>1713.25</ele></trkpt>
   <trkpt lon="6.055432" lat="45.091357"><ele>1713.75</ele></trkpt>
   <trkpt lon="6.055380" lat="45.091370"><ele>1714.5</ele></trkpt>
   <trkpt lon="6.055356" lat="45.091392"><ele>1715.5</ele></trkpt>
   <trkpt lon="6.055342" lat="45.091428"><ele>1717.0</ele></trkpt>
   <trkpt lon="6.055350" lat="45.091474"><ele>1718.75</ele></trkpt>
   <trkpt lon="6.055387" lat="45.091518"><ele>1720.25</ele></trkpt>
   <trkpt lon="6.055444" lat="45.091551"><ele>1721.0</ele></trkpt>
   <trkpt lon="6.055533" lat="45.091570"><ele>1721.25</ele></trkpt>
   <trkpt lon="6.055815" lat="45.091576"><ele>1721.0</ele></trkpt>
   <trkpt lon="6.055968" lat="45.091593"><ele>1721.25</ele></trkpt>
   <trkpt lon="6.056152" lat="45.091630"><ele>1722.25</ele></trkpt>
   <trkpt lon="6.056855" lat="45.091801"><ele>1727.5</ele></trkpt>
   <trkpt lon="6.057088" lat="45.091832"><ele>1728.75</ele></trkpt>
   <trkpt lon="6.057213" lat="45.091840"><ele>1729.0</ele></trkpt>
   <trkpt lon="6.057384" lat="45.091835"><ele>1730.25</ele></trkpt>
   <trkpt lon="6.058874" lat="45.091742"><ele>1740.5</ele></trkpt>
   <trkpt lon="6.059205" lat="45.091685"><ele>1742.0</ele></trkpt>
   <trkpt lon="6.059441" lat="45.091636"><ele>1743.75</ele></trkpt>
   <trkpt lon="6.060416" lat="45.091438"><ele>1748.75</ele></trkpt>
   <trkpt lon="6.061033" lat="45.091302"><ele>1755.0</ele></trkpt>
   <trkpt lon="6.061108" lat="45.091285"><ele>1755.75</ele></trkpt>
   <trkpt lon="6.061209" lat="45.091251"><ele>1756.25</ele></trkpt>
   <trkpt lon="6.061302" lat="45.091209"><ele>1756.5</ele></trkpt>
   <trkpt lon="6.061344" lat="45.091220"><ele>1757.25</ele></trkpt>
   <trkpt lon="6.061377" lat="45.091226"><ele>1758.0</ele></trkpt>
   <trkpt lon="6.061427" lat="45.091215"><ele>1758.25</ele></trkpt>
   <trkpt lon="6.061842" lat="45.091054"><ele>1760.0</ele></trkpt>
   <trkpt lon="6.061976" lat="45.091012"><ele>1760.75</ele></trkpt>
   <trkpt lon="6.062325" lat="45.090929"><ele>1763.75</ele></trkpt>
   <trkpt lon="6.062603" lat="45.090862"><ele>1766.0</ele></trkpt>
   <trkpt lon="6.062868" lat="45.090801"><ele>1768.5</ele></trkpt>
   <trkpt lon="6.063124" lat="45.090754"><ele>1770.75</ele></trkpt>
   <trkpt lon="6.063358" lat="45.090736"><ele>1772.25</ele></trkpt>
   <trkpt lon="6.063619" lat="45.090725"><ele>1774.0</ele></trkpt>
   <trkpt lon="6.063728" lat="45.090713"><ele>1774.5</ele></trkpt>
   <trkpt lon="6.063820" lat="45.090693"><ele>1774.75</ele></trkpt>
   <trkpt lon="6.063959" lat="45.090642"><ele>1774.5</ele></trkpt>
   <trkpt lon="6.064057" lat="45.090604"><ele>1773.75</ele></trkpt>
   <trkpt lon="6.064167" lat="45.090564"><ele>1773.0</ele></trkpt>
   <trkpt lon="6.064332" lat="45.090519"><ele>1773.0</ele></trkpt>
   <trkpt lon="6.064530" lat="45.090491"><ele>1773.25</ele></trkpt>
   <trkpt lon="6.064809" lat="45.090458"><ele>1774.0</ele></trkpt>
   <trkpt lon="6.064875" lat="45.090450"><ele>1774.0</ele></trkpt>
   <trkpt lon="6.065119" lat="45.090427"><ele>1775.25</ele></trkpt>
   <trkpt lon="6.065210" lat="45.090435"><ele>1776.0</ele></trkpt>
   <trkpt lon="6.065306" lat="45.090454"><ele>1777.25</ele></trkpt>
   <trkpt lon="6.065365" lat="45.090480"><ele>1778.25</ele></trkpt>
   <trkpt lon="6.065395" lat="45.090503"><ele>1778.5</ele></trkpt>
   <trkpt lon="6.065432" lat="45.090548"><ele>1779.25</ele></trkpt>
   <trkpt lon="6.065470" lat="45.090623"><ele>1780.25</ele></trkpt>
   <trkpt lon="6.065491" lat="45.090693"><ele>1781.0</ele></trkpt>
   <trkpt lon="6.065502" lat="45.090786"><ele>1782.25</ele></trkpt>
   <trkpt lon="6.065497" lat="45.090840"><ele>1783.0</ele></trkpt>
   <trkpt lon="6.065443" lat="45.090923"><ele>1784.0</ele></trkpt>
   <trkpt lon="6.065396" lat="45.090956"><ele>1784.25</ele></trkpt>
   <trkpt lon="6.065343" lat="45.090977"><ele>1783.75</ele></trkpt>
   <trkpt lon="6.065155" lat="45.091008"><ele>1783.0</ele></trkpt>
   <trkpt lon="6.065070" lat="45.091010"><ele>1782.75</ele></trkpt>
   <trkpt lon="6.064898" lat="45.091002"><ele>1782.25</ele></trkpt>
   <trkpt lon="6.064752" lat="45.091010"><ele>1782.0</ele></trkpt>
   <trkpt lon="6.064493" lat="45.091056"><ele>1783.0</ele></trkpt>
   <trkpt lon="6.064429" lat="45.091073"><ele>1783.25</ele></trkpt>
   <trkpt lon="6.064350" lat="45.091094"><ele>1783.25</ele></trkpt>
   <trkpt lon="6.064079" lat="45.091188"><ele>1784.5</ele></trkpt>
   <trkpt lon="6.063924" lat="45.091258"><ele>1785.5</ele></trkpt>
   <trkpt lon="6.063619" lat="45.091480"><ele>1788.75</ele></trkpt>
   <trkpt lon="6.063496" lat="45.091572"><ele>1790.25</ele></trkpt>
   <trkpt lon="6.063365" lat="45.091649"><ele>1790.75</ele></trkpt>
   <trkpt lon="6.063039" lat="45.091809"><ele>1790.75</ele></trkpt>
   <trkpt lon="6.062768" lat="45.091940"><ele>1790.75</ele></trkpt>
   <trkpt lon="6.062558" lat="45.092050"><ele>1792.0</ele></trkpt>
   <trkpt lon="6.062448" lat="45.092113"><ele>1792.75</ele></trkpt>
   <trkpt lon="6.062327" lat="45.092203"><ele>1794.0</ele></trkpt>
   <trkpt lon="6.062248" lat="45.092265"><ele>1795.25</ele></trkpt>
   <trkpt lon="6.061954" lat="45.092487"><ele>1798.5</ele></trkpt>
   <trkpt lon="6.061869" lat="45.092542"><ele>1799.5</ele></trkpt>
   <trkpt lon="6.061724" lat="45.092606"><ele>1800.0</ele></trkpt>
   <trkpt lon="6.061534" lat="45.092651"><ele>1799.5</ele></trkpt>
   <trkpt lon="6.061318" lat="45.092690"><ele>1799.0</ele></trkpt>
   <trkpt lon="6.061257" lat="45.092708"><ele>1799.0</ele></trkpt>
   <trkpt lon="6.061212" lat="45.092732"><ele>1799.5</ele></trkpt>
   <trkpt lon="6.061200" lat="45.092753"><ele>1800.0</ele></trkpt>
   <trkpt lon="6.061203" lat="45.092783"><ele>1801.0</ele></trkpt>
   <trkpt lon="6.061224" lat="45.092808"><ele>1802.25</ele></trkpt>
   <trkpt lon="6.061255" lat="45.092824"><ele>1803.25</ele></trkpt>
   <trkpt lon="6.061302" lat="45.092833"><ele>1804.0</ele></trkpt>
   <trkpt lon="6.061339" lat="45.092831"><ele>1804.5</ele></trkpt>
   <trkpt lon="6.061538" lat="45.092769"><ele>1803.75</ele></trkpt>
   <trkpt lon="6.061653" lat="45.092745"><ele>1803.75</ele></trkpt>
   <trkpt lon="6.061777" lat="45.092728"><ele>1804.5</ele></trkpt>
   <trkpt lon="6.062418" lat="45.092669"><ele>1809.0</ele></trkpt>
   <trkpt lon="6.063003" lat="45.092615"><ele>1812.25</ele></trkpt>
   <trkpt lon="6.063486" lat="45.092593"><ele>1814.0</ele></trkpt>
   <trkpt lon="6.063654" lat="45.092596"><ele>1814.75</ele></trkpt>
   <trkpt lon="6.064280" lat="45.092650"><ele>1818.0</ele></trkpt>
   <trkpt lon="6.064406" lat="45.092663"><ele>1818.5</ele></trkpt>
   <trkpt lon="6.064780" lat="45.092701"><ele>1819.5</ele></trkpt>
   <trkpt lon="6.064944" lat="45.092723"><ele>1819.75</ele></trkpt>
   <trkpt lon="6.065320" lat="45.092797"><ele>1821.25</ele></trkpt>
   <trkpt lon="6.065835" lat="45.092907"><ele>1824.25</ele></trkpt>
   <trkpt lon="6.065940" lat="45.092923"><ele>1824.75</ele></trkpt>
   <trkpt lon="6.066189" lat="45.092945"><ele>1825.5</ele></trkpt>
   <trkpt lon="6.066642" lat="45.092965"><ele>1826.25</ele></trkpt>
   <trkpt lon="6.066765" lat="45.092983"><ele>1826.25</ele></trkpt>
   <trkpt lon="6.066856" lat="45.093008"><ele>1826.5</ele></trkpt>
   <trkpt lon="6.067034" lat="45.093063"><ele>1826.75</ele></trkpt>
   <trkpt lon="6.067308" lat="45.093202"><ele>1827.75</ele></trkpt>
   <trkpt lon="6.067371" lat="45.093237"><ele>1828.0</ele></trkpt>
   <trkpt lon="6.067502" lat="45.093324"><ele>1828.75</ele></trkpt>
   <trkpt lon="6.067554" lat="45.093291"><ele>1828.0</ele></trkpt>
   <trkpt lon="6.067801" lat="45.093245"><ele>1826.75</ele></trkpt>
   <trkpt lon="6.068199" lat="45.093094"><ele>1825.25</ele></trkpt>
   <trkpt lon="6.068277" lat="45.093067"><ele>1825.0</ele></trkpt>
   <trkpt lon="6.068320" lat="45.093054"><ele>1824.75</ele></trkpt>
   <trkpt lon="6.068309" lat="45.093025"><ele>1824.5</ele></trkpt>
   <trkpt lon="6.068310" lat="45.092994"><ele>1824.25</ele></trkpt>
   <trkpt lon="6.068323" lat="45.092965"><ele>1824.0</ele></trkpt>
   <trkpt lon="6.068348" lat="45.092939"><ele>1823.75</ele></trkpt>
   <trkpt lon="6.068381" lat="45.092920"><ele>1823.5</ele></trkpt>
   <trkpt lon="6.068421" lat="45.092908"><ele>1823.5</ele></trkpt>
   <trkpt lon="6.068498" lat="45.092907"><ele>1823.5</ele></trkpt>
   <trkpt lon="6.068733" lat="45.092894"><ele>1823.75</ele></trkpt>
   <trkpt lon="6.069438" lat="45.092571"><ele>1822.5</ele></trkpt>
   <trkpt lon="6.069663" lat="45.092485"><ele>1822.5</ele></trkpt>
   <trkpt lon="6.069879" lat="45.092438"><ele>1822.5</ele></trkpt>
   <trkpt lon="6.069982" lat="45.092425"><ele>1822.25</ele></trkpt>
  </trkseg>
 </trk>
</gpx>
