<?xml version="1.0" encoding="UTF-8"?>
<!-- track-length = 26802 filtered ascend = 1265 plain-ascend = 1202 cost=42891 energy=.4kwh time=3h 48m 8s -->
<gpx 
 xmlns="http://www.topografix.com/GPX/1/1" 
 xmlns:xsi="http://www.w3.org/2001/XMLSchema-instance" 
 xsi:schemaLocation="http://www.topografix.com/GPX/1/1 http://www.topografix.com/GPX/1/1/gpx.xsd" 
 creator="BRouter-1.7.10" version="1.1">
 <metadata>
  <name>Freiburg - Feldberg</name>
  <desc>Sample track for the browser demo. Routed with BRouter over OpenStreetMap data (ODbL), elevation from SRTM.</desc>
  <copyright author="OpenStreetMap contributors">
   <license>https://opendatacommons.org/licenses/odbl/1-0/</license>
  </copyright>
 </metadata>
 <trk>
  <name>Freiburg - Feldberg</name>
  <trkseg>
   <trkpt lon="7.852035" lat="47.995967"><ele>273.75</ele></trkpt>
   <trkpt lon="7.851720" lat="47.995624"><ele>273.75</ele></trkpt>
   <trkpt lon="7.851537" lat="47.995425"><ele>273.5</ele></trkpt>
   <trkpt lon="7.851345" lat="47.995260"><ele>273.0</ele></trkpt>
   <trkpt lon="7.851158" lat="47.995099"><ele>273.0</ele></trkpt>
   <trkpt lon="7.851386" lat="47.994991"><ele>273.0</ele></trkpt>
   <trkpt lon="7.851991" lat="47.994814"><ele>274.0</ele></trkpt>
   <trkpt lon="7.852424" lat="47.994720"><ele>274.0</ele></trkpt>
   <trkpt lon="7.852573" lat="47.994694"><ele>274.0</ele></trkpt>
   <trkpt lon="7.852865" lat="47.994658"><ele>274.0</ele></trkpt>
   <trkpt lon="7.853030" lat="47.994647"><ele>274.0</ele></trkpt>
   <trkpt lon="7.853404" lat="47.994617"><ele>274.25</ele></trkpt>
   <trkpt lon="7.853908" lat="47.994550"><ele>275.0</ele></trkpt>
   <trkpt lon="7.853903" lat="47.994534"><ele>275.0</ele></trkpt>
   <trkpt lon="7.853838" lat="47.994307"><ele>275.25</ele></trkpt>
   <trkpt lon="7.853807" lat="47.994095"><ele>275.5</ele></trkpt>
   <trkpt lon="7.853807" lat="47.994033"><ele>275.5</ele></trkpt>
   <trkpt lon="7.853854" lat="47.993734"><ele>275.75</ele></trkpt>
   <trkpt lon="7.853853" lat="47.993712"><ele>275.75</ele></trkpt>
   <trkpt lon="7.853837" lat="47.993558"><ele>276.0</ele></trkpt>
   <trkpt lon="7.853824" lat="47.993547"><ele>275.75</ele></trkpt>
   <trkpt lon="7.853977" lat="47.993402"><ele>277.0</ele></trkpt>
   <trkpt lon="7.854050" lat="47.993306"><ele>277.5</ele></trkpt>
   <trkpt lon="7.854105" lat="47.993201"><ele>277.75</ele></trkpt>
   <trkpt lon="7.854149" lat="47.993029"><ele>277.75</ele></trkpt>
   <trkpt lon="7.854105" lat="47.993018"><ele>277.75</ele></trkpt>
   <trkpt lon="7.853947" lat="47.992960"><ele>277.0</ele></trkpt>
   <trkpt lon="7.853991" lat="47.992756"><ele>277.25</ele></trkpt>
   <trkpt lon="7.853984" lat="47.992680"><ele>277.25</ele></trkpt>
   <trkpt lon="7.854034" lat="47.992652"><ele>277.5</ele></trkpt>
   <trkpt lon="7.854077" lat="47.992619"><ele>277.5</ele></trkpt>
   <trkpt lon="7.854111" lat="47.992594"><ele>277.75</ele></trkpt>
   <trkpt lon="7.854117" lat="47.992587"><ele>277.75</ele></trkpt>
   <trkpt lon="7.854240" lat="47.992434"><ele>277.75</ele></trkpt>
   <trkpt lon="7.854265" lat="47.992420"><ele>277.5</ele></trkpt>
   <trkpt lon="7.854279" lat="47.992412"><ele>277.5</ele></trkpt>
   <trkpt lon="7.854356" lat="47.992378"><ele>277.5</ele></trkpt>
   <trkpt lon="7.854444" lat="47.992348"><ele>277.25</ele></trkpt>
   <trkpt lon="7.854588" lat="47.992300"><ele>278.0</ele></trkpt>
   <trkpt lon="7.854762" lat="47.992220"><ele>278.0</ele></trkpt>
   <trkpt lon="7.854934" lat="47.992179"><ele>278.25</ele></trkpt>
   <trkpt lon="7.854961" lat="47.992166"><ele>278.25</ele></trkpt>
   <trkpt lon="7.854969" lat="47.992143"><ele>278.25</ele></trkpt>
   <trkpt lon="7.854976" lat="47.992061"><ele>277.75</ele></trkpt>
   <trkpt lon="7.855003" lat="47.991900"><ele>276.75</ele></trkpt>
   <trkpt lon="7.855018" lat="47.991795"><ele>276.25</ele></trkpt>
   <trkpt lon="7.855037" lat="47.991746"><ele>276.25</ele></trkpt>
   <trkpt lon="7.855156" lat="47.991755"><ele>276.25</ele></trkpt>
   <trkpt lon="7.855839" lat="47.991803"><ele>277.25</ele></trkpt>
   <trkpt lon="7.856105" lat="47.991807"><ele>277.5</ele></trkpt>
   <trkpt lon="7.856792" lat="47.991771"><ele>278.0</ele></trkpt>
   <trkpt lon="7.856852" lat="47.991770"><ele>278.0</ele></trkpt>
   <trkpt lon="7.857291" lat="47.991759"><ele>278.25</ele></trkpt>
   <trkpt lon="7.857324" lat="47.991758"><ele>278.25</ele></trkpt>
   <trkpt lon="7.857538" lat="47.991752"><ele>278.5</ele></trkpt>
   <trkpt lon="7.857527" lat="47.991568"><ele>278.0</ele></trkpt>
   <trkpt lon="7.857484" lat="47.991049"><ele>278.0</ele></trkpt>
   <trkpt lon="7.857504" lat="47.991008"><ele>278.0</ele></trkpt>
   <trkpt lon="7.857584" lat="47.990983"><ele>278.0</ele></trkpt>
   <trkpt lon="7.858079" lat="47.990956"><ele>278.25</ele></trkpt>
   <trkpt lon="7.858151" lat="47.990952"><ele>278.5</ele></trkpt>
   <trkpt lon="7.858777" lat="47.990906"><ele>279.25</ele></trkpt>
   <trkpt lon="7.859327" lat="47.990876"><ele>279.0</ele></trkpt>
   <trkpt lon="7.859893" lat="47.990869"><ele>279.5</ele></trkpt>
   <trkpt lon="7.860433" lat="47.990877"><ele>280.0</ele></trkpt>
   <trkpt lon="7.860970" lat="47.990903"><ele>280.0</ele></trkpt>
   <trkpt lon="7.861503" lat="47.990959"><ele>280.0</ele></trkpt>
   <trkpt lon="7.862031" lat="47.991028"><ele>280.0</ele></trkpt>
   <trkpt lon="7.862242" lat="47.991053"><ele>280.0</ele></trkpt>
   <trkpt lon="7.862239" lat="47.991011"><ele>280.0</ele></trkpt>
   <trkpt lon="7.862235" lat="47.990992"><ele>280.0</ele></trkpt>
   <trkpt lon="7.862210" lat="47.990626"><ele>280.0</ele></trkpt>
   <trkpt lon="7.862209" lat="47.990615"><ele>280.0</ele></trkpt>
   <trkpt lon="7.862204" lat="47.990550"><ele>280.0</ele></trkpt>
   <trkpt lon="7.862407" lat="47.990542"><ele>280.0</ele></trkpt>
   <trkpt lon="7.862686" lat="47.990547"><ele>280.0</ele></trkpt>
   <trkpt lon="7.863089" lat="47.990601"><ele>280.75</ele></trkpt>
   <trkpt lon="7.863701" lat="47.990695"><ele>280.25</ele></trkpt>
   <trkpt lon="7.863979" lat="47.990725"><ele>280.5</ele></trkpt>
   <trkpt lon="7.864576" lat="47.990795"><ele>281.0</ele></trkpt>
   <trkpt lon="7.864970" lat="47.990837"><ele>281.0</ele></trkpt>
   <trkpt lon="7.865073" lat="47.990844"><ele>281.0</ele></trkpt>
   <trkpt lon="7.865241" lat="47.990854"><ele>281.0</ele></trkpt>
   <trkpt lon="7.865528" lat="47.990864"><ele>281.75</ele></trkpt>
   <trkpt lon="7.866431" lat="47.990891"><ele>282.0</ele></trkpt>
   <trkpt lon="7.866543" lat="47.990894"><ele>282.25</ele></trkpt>
   <trkpt lon="7.867176" lat="47.990910"><ele>282.5</ele></trkpt>
   <trkpt lon="7.867278" lat="47.990908"><ele>282.5</ele></trkpt>
   <trkpt lon="7.867509" lat="47.990899"><ele>282.75</ele></trkpt>
   <trkpt lon="7.868207" lat="47.990853"><ele>283.5</ele></trkpt>
   <trkpt lon="7.868802" lat="47.990826"><ele>284.0</ele></trkpt>
   <trkpt lon="7.869736" lat="47.990792"><ele>284.0</ele></trkpt>
   <trkpt lon="7.870156" lat="47.990789"><ele>283.75</ele></trkpt>
   <trkpt lon="7.870299" lat="47.990782"><ele>284.0</ele></trkpt>
   <trkpt lon="7.870724" lat="47.990764"><ele>284.0</ele></trkpt>
   <trkpt lon="7.870843" lat="47.990742"><ele>284.25</ele></trkpt>
   <trkpt lon="7.871061" lat="47.990775"><ele>284.0</ele></trkpt>
   <trkpt lon="7.872310" lat="47.990706"><ele>284.5</ele></trkpt>
   <trkpt lon="7.873677" lat="47.990629"><ele>286.0</ele></trkpt>
   <trkpt lon="7.874234" lat="47.990596"><ele>287.0</ele></trkpt>
   <trkpt lon="7.874261" lat="47.990596"><ele>286.75</ele></trkpt>
   <trkpt lon="7.874390" lat="47.990592"><ele>287.0</ele></trkpt>
   <trkpt lon="7.874459" lat="47.990600"><ele>287.0</ele></trkpt>
   <trkpt lon="7.874658" lat="47.990637"><ele>287.0</ele></trkpt>
   <trkpt lon="7.874678" lat="47.990639"><ele>287.0</ele></trkpt>
   <trkpt lon="7.874777" lat="47.990636"><ele>287.25</ele></trkpt>
   <trkpt lon="7.875114" lat="47.990636"><ele>289.25</ele></trkpt>
   <trkpt lon="7.875867" lat="47.990618"><ele>290.0</ele></trkpt>
   <trkpt lon="7.876704" lat="47.990646"><ele>290.0</ele></trkpt>
   <trkpt lon="7.877179" lat="47.990686"><ele>290.5</ele></trkpt>
   <trkpt lon="7.877387" lat="47.990693"><ele>290.75</ele></trkpt>
   <trkpt lon="7.877471" lat="47.990706"><ele>290.75</ele></trkpt>
   <trkpt lon="7.877605" lat="47.990746"><ele>290.5</ele></trkpt>
   <trkpt lon="7.877831" lat="47.990831"><ele>290.0</ele></trkpt>
   <trkpt lon="7.878212" lat="47.990935"><ele>291.0</ele></trkpt>
   <trkpt lon="7.878414" lat="47.991015"><ele>291.75</ele></trkpt>
   <trkpt lon="7.879385" lat="47.991495"><ele>295.0</ele></trkpt>
   <trkpt lon="7.879506" lat="47.991541"><ele>295.0</ele></trkpt>
   <trkpt lon="7.879673" lat="47.991582"><ele>295.0</ele></trkpt>
   <trkpt lon="7.879974" lat="47.991627"><ele>295.0</ele></trkpt>
   <trkpt lon="7.880183" lat="47.991627"><ele>295.0</ele></trkpt>
   <trkpt lon="7.880403" lat="47.991643"><ele>295.0</ele></trkpt>
   <trkpt lon="7.880810" lat="47.991639"><ele>295.0</ele></trkpt>
   <trkpt lon="7.881556" lat="47.991586"><ele>295.0</ele></trkpt>
   <trkpt lon="7.881797" lat="47.991528"><ele>295.0</ele></trkpt>
   <trkpt lon="7.882202" lat="47.991483"><ele>295.0</ele></trkpt>
   <trkpt lon="7.884494" lat="47.991349"><ele>297.25</ele></trkpt>
   <trkpt lon="7.885913" lat="47.991234"><ele>298.5</ele></trkpt>
   <trkpt lon="7.886952" lat="47.991118"><ele>299.0</ele></trkpt>
   <trkpt lon="7.887933" lat="47.990979"><ele>300.0</ele></trkpt>
   <trkpt lon="7.888777" lat="47.990846"><ele>300.75</ele></trkpt>
   <trkpt lon="7.890223" lat="47.990584"><ele>302.0</ele></trkpt>
   <trkpt lon="7.890490" lat="47.990547"><ele>302.0</ele></trkpt>
   <trkpt lon="7.890592" lat="47.990538"><ele>302.0</ele></trkpt>
   <trkpt lon="7.890827" lat="47.990495"><ele>302.0</ele></trkpt>
   <trkpt lon="7.890931" lat="47.990474"><ele>302.5</ele></trkpt>
   <trkpt lon="7.891231" lat="47.990392"><ele>303.5</ele></trkpt>
   <trkpt lon="7.892459" lat="47.990145"><ele>305.0</ele></trkpt>
   <trkpt lon="7.893100" lat="47.989998"><ele>305.0</ele></trkpt>
   <trkpt lon="7.893430" lat="47.989929"><ele>305.25</ele></trkpt>
   <trkpt lon="7.893748" lat="47.989889"><ele>305.25</ele></trkpt>
   <trkpt lon="7.893976" lat="47.989846"><ele>305.5</ele></trkpt>
   <trkpt lon="7.894101" lat="47.989813"><ele>305.5</ele></trkpt>
   <trkpt lon="7.894203" lat="47.989767"><ele>305.75</ele></trkpt>
   <trkpt lon="7.894303" lat="47.989708"><ele>306.0</ele></trkpt>
   <trkpt lon="7.894376" lat="47.989627"><ele>306.5</ele></trkpt>
   <trkpt lon="7.894426" lat="47.989601"><ele>306.75</ele></trkpt>
   <trkpt lon="7.895385" lat="47.989303"><ele>309.0</ele></trkpt>
   <trkpt lon="7.895657" lat="47.989186"><ele>309.25</ele></trkpt>
   <trkpt lon="7.895998" lat="47.989029"><ele>310.0</ele></trkpt>
   <trkpt lon="7.896609" lat="47.988690"><ele>311.75</ele></trkpt>
   <trkpt lon="7.897852" lat="47.987980"><ele>314.25</ele></trkpt>
   <trkpt lon="7.898157" lat="47.987727"><ele>315.0</ele></trkpt>
   <trkpt lon="7.898299" lat="47.987718"><ele>315.0</ele></trkpt>
   <trkpt lon="7.898428" lat="47.987728"><ele>315.0</ele></trkpt>
   <trkpt lon="7.898518" lat="47.987684"><ele>315.0</ele></trkpt>
   <trkpt lon="7.898593" lat="47.987616"><ele>315.0</ele></trkpt>
   <trkpt lon="7.898709" lat="47.987508"><ele>315.0</ele></trkpt>
   <trkpt lon="7.898880" lat="47.987347"><ele>315.0</ele></trkpt>
   <trkpt lon="7.899066" lat="47.987114"><ele>315.0</ele></trkpt>
   <trkpt lon="7.900072" lat="47.985712"><ele>315.0</ele></trkpt>
   <trkpt lon="7.900154" lat="47.985609"><ele>315.0</ele></trkpt>
   <trkpt lon="7.900363" lat="47.985388"><ele>314.75</ele></trkpt>
   <trkpt lon="7.900636" lat="47.985121"><ele>315.0</ele></trkpt>
   <trkpt lon="7.901120" lat="47.984734"><ele>315.0</ele></trkpt>
   <trkpt lon="7.901296" lat="47.984607"><ele>315.0</ele></trkpt>
   <trkpt lon="7.902553" lat="47.983763"><ele>315.0</ele></trkpt>
   <trkpt lon="7.902790" lat="47.983616"><ele>314.75</ele></trkpt>
   <trkpt lon="7.903974" lat="47.982846"><ele>317.0</ele></trkpt>
   <trkpt lon="7.904247" lat="47.982678"><ele>317.0</ele></trkpt>
   <trkpt lon="7.904489" lat="47.982546"><ele>317.0</ele></trkpt>
   <trkpt lon="7.904905" lat="47.982335"><ele>317.75</ele></trkpt>
   <trkpt lon="7.905399" lat="47.982111"><ele>318.25</ele></trkpt>
   <trkpt lon="7.905639" lat="47.981981"><ele>318.75</ele></trkpt>
   <trkpt lon="7.906121" lat="47.981814"><ele>319.0</ele></trkpt>
   <trkpt lon="7.906805" lat="47.981570"><ele>319.0</ele></trkpt>
   <trkpt lon="7.908294" lat="47.981040"><ele>320.25</ele></trkpt>
   <trkpt lon="7.908843" lat="47.980832"><ele>321.0</ele></trkpt>
   <trkpt lon="7.909875" lat="47.980462"><ele>322.0</ele></trkpt>
   <trkpt lon="7.910816" lat="47.980147"><ele>322.25</ele></trkpt>
   <trkpt lon="7.911134" lat="47.980051"><ele>323.0</ele></trkpt>
   <trkpt lon="7.911567" lat="47.979881"><ele>324.25</ele></trkpt>
   <trkpt lon="7.911737" lat="47.979802"><ele>324.75</ele></trkpt>
   <trkpt lon="7.912095" lat="47.979680"><ele>325.0</ele></trkpt>
   <trkpt lon="7.912573" lat="47.979603"><ele>325.0</ele></trkpt>
   <trkpt lon="7.912880" lat="47.979565"><ele>325.0</ele></trkpt>
   <trkpt lon="7.913818" lat="47.979427"><ele>326.0</ele></trkpt>
   <trkpt lon="7.913899" lat="47.979393"><ele>326.0</ele></trkpt>
   <trkpt lon="7.913978" lat="47.979320"><ele>326.25</ele></trkpt>
   <trkpt lon="7.914245" lat="47.979040"><ele>327.0</ele></trkpt>
   <trkpt lon="7.914408" lat="47.978876"><ele>327.0</ele></trkpt>
   <trkpt lon="7.914808" lat="47.978895"><ele>327.0</ele></trkpt>
   <trkpt lon="7.914932" lat="47.978697"><ele>327.0</ele></trkpt>
   <trkpt lon="7.915016" lat="47.978454"><ele>327.5</ele></trkpt>
   <trkpt lon="7.915261" lat="47.977993"><ele>328.75</ele></trkpt>
   <trkpt lon="7.915416" lat="47.977899"><ele>329.0</ele></trkpt>
   <trkpt lon="7.915750" lat="47.977743"><ele>329.0</ele></trkpt>
   <trkpt lon="7.916066" lat="47.977518"><ele>329.0</ele></trkpt>
   <trkpt lon="7.916285" lat="47.977273"><ele>329.75</ele></trkpt>
   <trkpt lon="7.916513" lat="47.976908"><ele>331.5</ele></trkpt>
   <trkpt lon="7.916742" lat="47.976711"><ele>332.0</ele></trkpt>
   <trkpt lon="7.916978" lat="47.976584"><ele>332.0</ele></trkpt>
   <trkpt lon="7.917707" lat="47.976288"><ele>332.5</ele></trkpt>
   <trkpt lon="7.918361" lat="47.976078"><ele>335.0</ele></trkpt>
   <trkpt lon="7.918536" lat="47.976004"><ele>335.25</ele></trkpt>
   <trkpt lon="7.918724" lat="47.975911"><ele>335.5</ele></trkpt>
   <trkpt lon="7.918882" lat="47.975800"><ele>335.75</ele></trkpt>
   <trkpt lon="7.918912" lat="47.975672"><ele>336.0</ele></trkpt>
   <trkpt lon="7.919202" lat="47.975559"><ele>337.0</ele></trkpt>
   <trkpt lon="7.919405" lat="47.975448"><ele>337.25</ele></trkpt>
   <trkpt lon="7.919499" lat="47.975362"><ele>337.75</ele></trkpt>
   <trkpt lon="7.919585" lat="47.975230"><ele>338.0</ele></trkpt>
   <trkpt lon="7.919675" lat="47.975051"><ele>338.0</ele></trkpt>
   <trkpt lon="7.919736" lat="47.974953"><ele>338.0</ele></trkpt>
   <trkpt lon="7.919777" lat="47.974894"><ele>338.0</ele></trkpt>
   <trkpt lon="7.919816" lat="47.974871"><ele>338.0</ele></trkpt>
   <trkpt lon="7.919896" lat="47.974846"><ele>338.25</ele></trkpt>
   <trkpt lon="7.920794" lat="47.974654"><ele>339.5</ele></trkpt>
   <trkpt lon="7.921694" lat="47.974442"><ele>341.0</ele></trkpt>
   <trkpt lon="7.922410" lat="47.974234"><ele>342.5</ele></trkpt>
   <trkpt lon="7.923118" lat="47.974004"><ele>344.0</ele></trkpt>
   <trkpt lon="7.923297" lat="47.973954"><ele>344.0</ele></trkpt>
   <trkpt lon="7.923618" lat="47.973894"><ele>344.75</ele></trkpt>
   <trkpt lon="7.923523" lat="47.973790"><ele>344.25</ele></trkpt>
   <trkpt lon="7.923410" lat="47.973663"><ele>344.0</ele></trkpt>
   <trkpt lon="7.923396" lat="47.973631"><ele>344.0</ele></trkpt>
   <trkpt lon="7.923536" lat="47.973588"><ele>344.0</ele></trkpt>
   <trkpt lon="7.923642" lat="47.973540"><ele>344.0</ele></trkpt>
   <trkpt lon="7.923750" lat="47.973471"><ele>344.5</ele></trkpt>
   <trkpt lon="7.923870" lat="47.973419"><ele>344.75</ele></trkpt>
   <trkpt lon="7.923855" lat="47.973379"><ele>344.75</ele></trkpt>
   <trkpt lon="7.923827" lat="47.973313"><ele>344.5</ele></trkpt>
   <trkpt lon="7.923778" lat="47.973238"><ele>344.25</ele></trkpt>
   <trkpt lon="7.924001" lat="47.973157"><ele>344.5</ele></trkpt>
   <trkpt lon="7.924282" lat="47.973031"><ele>345.5</ele></trkpt>
   <trkpt lon="7.924449" lat="47.972923"><ele>346.25</ele></trkpt>
   <trkpt lon="7.925048" lat="47.972475"><ele>347.0</ele></trkpt>
   <trkpt lon="7.925399" lat="47.972237"><ele>348.0</ele></trkpt>
   <trkpt lon="7.925547" lat="47.972115"><ele>347.75</ele></trkpt>
   <trkpt lon="7.925546" lat="47.972065"><ele>347.75</ele></trkpt>
   <trkpt lon="7.925573" lat="47.972012"><ele>348.0</ele></trkpt>
   <trkpt lon="7.925611" lat="47.971982"><ele>348.0</ele></trkpt>
   <trkpt lon="7.925942" lat="47.971906"><ele>349.25</ele></trkpt>
   <trkpt lon="7.926132" lat="47.971846"><ele>350.0</ele></trkpt>
   <trkpt lon="7.926371" lat="47.971750"><ele>350.0</ele></trkpt>
   <trkpt lon="7.926604" lat="47.971662"><ele>350.0</ele></trkpt>
   <trkpt lon="7.926986" lat="47.971540"><ele>350.5</ele></trkpt>
   <trkpt lon="7.927326" lat="47.971428"><ele>351.0</ele></trkpt>
   <trkpt lon="7.928201" lat="47.971183"><ele>352.25</ele></trkpt>
   <trkpt lon="7.928349" lat="47.971148"><ele>352.75</ele></trkpt>
   <trkpt lon="7.928826" lat="47.971041"><ele>353.0</ele></trkpt>
   <trkpt lon="7.929602" lat="47.970762"><ele>354.0</ele></trkpt>
   <trkpt lon="7.930144" lat="47.970584"><ele>355.0</ele></trkpt>
   <trkpt lon="7.933519" lat="47.969407"><ele>360.5</ele></trkpt>
   <trkpt lon="7.937430" lat="47.968054"><ele>366.0</ele></trkpt>
   <trkpt lon="7.940285" lat="47.967058"><ele>369.5</ele></trkpt>
   <trkpt lon="7.941206" lat="47.966765"><ele>370.75</ele></trkpt>
   <trkpt lon="7.942289" lat="47.966449"><ele>371.75</ele></trkpt>
   <trkpt lon="7.943647" lat="47.966102"><ele>373.0</ele></trkpt>
   <trkpt lon="7.943971" lat="47.965995"><ele>373.25</ele></trkpt>
   <trkpt lon="7.944195" lat="47.965897"><ele>373.75</ele></trkpt>
   <trkpt lon="7.944419" lat="47.965781"><ele>374.0</ele></trkpt>
   <trkpt lon="7.944802" lat="47.965549"><ele>375.0</ele></trkpt>
   <trkpt lon="7.944937" lat="47.965481"><ele>375.0</ele></trkpt>
   <trkpt lon="7.945082" lat="47.965441"><ele>375.0</ele></trkpt>
   <trkpt lon="7.945324" lat="47.965530"><ele>375.0</ele></trkpt>
   <trkpt lon="7.945421" lat="47.965547"><ele>375.0</ele></trkpt>
   <trkpt lon="7.945592" lat="47.965556"><ele>375.0</ele></trkpt>
   <trkpt lon="7.945935" lat="47.965588"><ele>375.0</ele></trkpt>
   <trkpt lon="7.946163" lat="47.965600"><ele>375.0</ele></trkpt>
   <trkpt lon="7.946318" lat="47.965589"><ele>375.0</ele></trkpt>
   <trkpt lon="7.946438" lat="47.965565"><ele>375.0</ele></trkpt>
   <trkpt lon="7.946583" lat="47.965514"><ele>375.5</ele></trkpt>
   <trkpt lon="7.946674" lat="47.965451"><ele>376.0</ele></trkpt>
   <trkpt lon="7.946724" lat="47.965380"><ele>376.0</ele></trkpt>
   <trkpt lon="7.946740" lat="47.965307"><ele>376.0</ele></trkpt>
   <trkpt lon="7.946714" lat="47.965204"><ele>376.25</ele></trkpt>
   <trkpt lon="7.946689" lat="47.965150"><ele>376.25</ele></trkpt>
   <trkpt lon="7.946716" lat="47.965065"><ele>376.75</ele></trkpt>
   <trkpt lon="7.946845" lat="47.964870"><ele>377.0</ele></trkpt>
   <trkpt lon="7.946986" lat="47.964714"><ele>377.0</ele></trkpt>
   <trkpt lon="7.947147" lat="47.964555"><ele>377.5</ele></trkpt>
   <trkpt lon="7.947208" lat="47.964526"><ele>377.5</ele></trkpt>
   <trkpt lon="7.947265" lat="47.964515"><ele>377.5</ele></trkpt>
   <trkpt lon="7.947618" lat="47.964502"><ele>377.75</ele></trkpt>
   <trkpt lon="7.947766" lat="47.964483"><ele>377.75</ele></trkpt>
   <trkpt lon="7.948203" lat="47.964374"><ele>378.25</ele></trkpt>
   <trkpt lon="7.948560" lat="47.964225"><ele>378.75</ele></trkpt>
   <trkpt lon="7.948642" lat="47.964190"><ele>378.75</ele></trkpt>
   <trkpt lon="7.948776" lat="47.964136"><ele>379.0</ele></trkpt>
   <trkpt lon="7.948950" lat="47.964044"><ele>379.0</ele></trkpt>
   <trkpt lon="7.949154" lat="47.963903"><ele>379.75</ele></trkpt>
   <trkpt lon="7.949387" lat="47.963711"><ele>379.5</ele></trkpt>
   <trkpt lon="7.949547" lat="47.963597"><ele>380.0</ele></trkpt>
   <trkpt lon="7.949678" lat="47.963613"><ele>379.75</ele></trkpt>
   <trkpt lon="7.949810" lat="47.963549"><ele>380.0</ele></trkpt>
   <trkpt lon="7.949994" lat="47.963489"><ele>380.25</ele></trkpt>
   <trkpt lon="7.950238" lat="47.963443"><ele>380.5</ele></trkpt>
   <trkpt lon="7.950975" lat="47.963374"><ele>380.75</ele></trkpt>
   <trkpt lon="7.951239" lat="47.963348"><ele>381.0</ele></trkpt>
   <trkpt lon="7.951613" lat="47.963357"><ele>381.5</ele></trkpt>
   <trkpt lon="7.951957" lat="47.963401"><ele>381.75</ele></trkpt>
   <trkpt lon="7.952092" lat="47.963414"><ele>381.75</ele></trkpt>
   <trkpt lon="7.952163" lat="47.963420"><ele>381.75</ele></trkpt>
   <trkpt lon="7.952218" lat="47.963426"><ele>381.75</ele></trkpt>
   <trkpt lon="7.952385" lat="47.963439"><ele>382.25</ele></trkpt>
   <trkpt lon="7.952689" lat="47.963479"><ele>382.75</ele></trkpt>
   <trkpt lon="7.952852" lat="47.963494"><ele>383.25</ele></trkpt>
   <trkpt lon="7.952846" lat="47.963214"><ele>383.5</ele></trkpt>
   <trkpt lon="7.952844" lat="47.963169"><ele>383.5</ele></trkpt>
   <trkpt lon="7.952830" lat="47.962777"><ele>384.0</ele></trkpt>
   <trkpt lon="7.952826" lat="47.962633"><ele>384.0</ele></trkpt>
   <trkpt lon="7.952720" lat="47.962127"><ele>384.75</ele></trkpt>
   <trkpt lon="7.952703" lat="47.962058"><ele>384.5</ele></trkpt>
   <trkpt lon="7.952724" lat="47.961845"><ele>385.0</ele></trkpt>
   <trkpt lon="7.952769" lat="47.961776"><ele>385.5</ele></trkpt>
   <trkpt lon="7.952875" lat="47.961696"><ele>385.75</ele></trkpt>
   <trkpt lon="7.953343" lat="47.961450"><ele>386.0</ele></trkpt>
   <trkpt lon="7.953739" lat="47.961284"><ele>387.0</ele></trkpt>
   <trkpt lon="7.953963" lat="47.961185"><ele>387.0</ele></trkpt>
   <trkpt lon="7.954138" lat="47.961099"><ele>387.0</ele></trkpt>
   <trkpt lon="7.954367" lat="47.960919"><ele>388.25</ele></trkpt>
   <trkpt lon="7.954451" lat="47.960811"><ele>389.0</ele></trkpt>
   <trkpt lon="7.954498" lat="47.960723"><ele>389.0</ele></trkpt>
   <trkpt lon="7.954561" lat="47.960607"><ele>389.0</ele></trkpt>
   <trkpt lon="7.954671" lat="47.960203"><ele>388.75</ele></trkpt>
   <trkpt lon="7.954700" lat="47.960011"><ele>388.75</ele></trkpt>
   <trkpt lon="7.954700" lat="47.959867"><ele>389.0</ele></trkpt>
   <trkpt lon="7.954675" lat="47.959642"><ele>389.25</ele></trkpt>
   <trkpt lon="7.954660" lat="47.959517"><ele>389.5</ele></trkpt>
   <trkpt lon="7.954652" lat="47.959465"><ele>389.75</ele></trkpt>
   <trkpt lon="7.954635" lat="47.959378"><ele>390.0</ele></trkpt>
   <trkpt lon="7.954717" lat="47.959357"><ele>390.25</ele></trkpt>
   <trkpt lon="7.954643" lat="47.959066"><ele>391.25</ele></trkpt>
   <trkpt lon="7.954465" lat="47.958185"><ele>393.0</ele></trkpt>
   <trkpt lon="7.954371" lat="47.957661"><ele>393.25</ele></trkpt>
   <trkpt lon="7.954323" lat="47.957474"><ele>394.0</ele></trkpt>
   <trkpt lon="7.954270" lat="47.957315"><ele>394.5</ele></trkpt>
   <trkpt lon="7.954201" lat="47.957154"><ele>395.0</ele></trkpt>
   <trkpt lon="7.953822" lat="47.956310"><ele>397.0</ele></trkpt>
   <trkpt lon="7.953163" lat="47.954822"><ele>399.25</ele></trkpt>
   <trkpt lon="7.953054" lat="47.954649"><ele>400.0</ele></trkpt>
   <trkpt lon="7.952917" lat="47.954515"><ele>400.0</ele></trkpt>
   <trkpt lon="7.952884" lat="47.954431"><ele>400.0</ele></trkpt>
   <trkpt lon="7.952878" lat="47.954331"><ele>400.25</ele></trkpt>
   <trkpt lon="7.952893" lat="47.954240"><ele>400.5</ele></trkpt>
   <trkpt lon="7.953038" lat="47.953815"><ele>401.25</ele></trkpt>
   <trkpt lon="7.953107" lat="47.953574"><ele>402.25</ele></trkpt>
   <trkpt lon="7.953165" lat="47.953292"><ele>403.0</ele></trkpt>
   <trkpt lon="7.953180" lat="47.953150"><ele>403.5</ele></trkpt>
   <trkpt lon="7.953167" lat="47.952794"><ele>404.0</ele></trkpt>
   <trkpt lon="7.953127" lat="47.952457"><ele>404.0</ele></trkpt>
   <trkpt lon="7.953029" lat="47.952016"><ele>405.5</ele></trkpt>
   <trkpt lon="7.952668" lat="47.950964"><ele>407.0</ele></trkpt>
   <trkpt lon="7.952484" lat="47.950368"><ele>408.5</ele></trkpt>
   <trkpt lon="7.952448" lat="47.950118"><ele>409.25</ele></trkpt>
   <trkpt lon="7.952425" lat="47.949865"><ele>409.75</ele></trkpt>
   <trkpt lon="7.952425" lat="47.949655"><ele>410.0</ele></trkpt>
   <trkpt lon="7.952454" lat="47.949105"><ele>412.0</ele></trkpt>
   <trkpt lon="7.952500" lat="47.948815"><ele>412.25</ele></trkpt>
   <trkpt lon="7.952556" lat="47.948716"><ele>412.5</ele></trkpt>
   <trkpt lon="7.952582" lat="47.948639"><ele>412.75</ele></trkpt>
   <trkpt lon="7.952586" lat="47.948559"><ele>413.0</ele></trkpt>
   <trkpt lon="7.952560" lat="47.948371"><ele>413.75</ele></trkpt>
   <trkpt lon="7.952580" lat="47.948213"><ele>414.0</ele></trkpt>
   <trkpt lon="7.952593" lat="47.948119"><ele>414.0</ele></trkpt>
   <trkpt lon="7.952660" lat="47.947794"><ele>414.75</ele></trkpt>
   <trkpt lon="7.952839" lat="47.946936"><ele>417.0</ele></trkpt>
   <trkpt lon="7.952953" lat="47.946481"><ele>417.75</ele></trkpt>
   <trkpt lon="7.953163" lat="47.945706"><ele>419.5</ele></trkpt>
   <trkpt lon="7.953276" lat="47.945351"><ele>420.0</ele></trkpt>
   <trkpt lon="7.953510" lat="47.944693"><ele>421.0</ele></trkpt>
   <trkpt lon="7.953657" lat="47.944384"><ele>422.0</ele></trkpt>
   <trkpt lon="7.953821" lat="47.944063"><ele>423.0</ele></trkpt>
   <trkpt lon="7.953952" lat="47.943888"><ele>424.0</ele></trkpt>
   <trkpt lon="7.954169" lat="47.943503"><ele>425.0</ele></trkpt>
   <trkpt lon="7.954505" lat="47.942710"><ele>428.0</ele></trkpt>
   <trkpt lon="7.954623" lat="47.942303"><ele>428.25</ele></trkpt>
   <trkpt lon="7.954718" lat="47.941740"><ele>429.75</ele></trkpt>
   <trkpt lon="7.954711" lat="47.941226"><ele>430.75</ele></trkpt>
   <trkpt lon="7.954679" lat="47.940988"><ele>430.75</ele></trkpt>
   <trkpt lon="7.954602" lat="47.940749"><ele>430.75</ele></trkpt>
   <trkpt lon="7.954484" lat="47.940467"><ele>431.0</ele></trkpt>
   <trkpt lon="7.954315" lat="47.940168"><ele>431.0</ele></trkpt>
   <trkpt lon="7.954212" lat="47.940024"><ele>431.0</ele></trkpt>
   <trkpt lon="7.954095" lat="47.939826"><ele>431.5</ele></trkpt>
   <trkpt lon="7.953773" lat="47.939403"><ele>432.0</ele></trkpt>
   <trkpt lon="7.953729" lat="47.939347"><ele>432.25</ele></trkpt>
   <trkpt lon="7.953508" lat="47.939114"><ele>433.0</ele></trkpt>
   <trkpt lon="7.953319" lat="47.938971"><ele>433.5</ele></trkpt>
   <trkpt lon="7.953210" lat="47.938868"><ele>434.0</ele></trkpt>
   <trkpt lon="7.953161" lat="47.938777"><ele>434.25</ele></trkpt>
   <trkpt lon="7.953131" lat="47.938659"><ele>434.75</ele></trkpt>
   <trkpt lon="7.953138" lat="47.938449"><ele>435.0</ele></trkpt>
   <trkpt lon="7.953210" lat="47.938055"><ele>436.0</ele></trkpt>
   <trkpt lon="7.953259" lat="47.937650"><ele>437.25</ele></trkpt>
   <trkpt lon="7.953243" lat="47.937526"><ele>437.75</ele></trkpt>
   <trkpt lon="7.953222" lat="47.937470"><ele>438.0</ele></trkpt>
   <trkpt lon="7.953180" lat="47.937418"><ele>438.25</ele></trkpt>
   <trkpt lon="7.953164" lat="47.936955"><ele>439.75</ele></trkpt>
   <trkpt lon="7.953190" lat="47.936813"><ele>440.25</ele></trkpt>
   <trkpt lon="7.953256" lat="47.936584"><ele>441.25</ele></trkpt>
   <trkpt lon="7.953382" lat="47.936244"><ele>442.5</ele></trkpt>
   <trkpt lon="7.953514" lat="47.935608"><ele>444.75</ele></trkpt>
   <trkpt lon="7.953529" lat="47.935557"><ele>444.75</ele></trkpt>
   <trkpt lon="7.953553" lat="47.935534"><ele>445.0</ele></trkpt>
   <trkpt lon="7.953584" lat="47.935519"><ele>445.0</ele></trkpt>
   <trkpt lon="7.953632" lat="47.935509"><ele>445.0</ele></trkpt>
   <trkpt lon="7.953690" lat="47.935508"><ele>445.25</ele></trkpt>
   <trkpt lon="7.953809" lat="47.935525"><ele>445.75</ele></trkpt>
   <trkpt lon="7.954133" lat="47.935603"><ele>445.75</ele></trkpt>
   <trkpt lon="7.954379" lat="47.935628"><ele>446.5</ele></trkpt>
   <trkpt lon="7.954596" lat="47.935627"><ele>446.5</ele></trkpt>
   <trkpt lon="7.954746" lat="47.935618"><ele>446.75</ele></trkpt>
   <trkpt lon="7.954891" lat="47.935597"><ele>446.75</ele></trkpt>
   <trkpt lon="7.955086" lat="47.935543"><ele>447.0</ele></trkpt>
   <trkpt lon="7.955689" lat="47.935353"><ele>448.75</ele></trkpt>
   <trkpt lon="7.955780" lat="47.935343"><ele>448.75</ele></trkpt>
   <trkpt lon="7.956004" lat="47.935286"><ele>449.5</ele></trkpt>
   <trkpt lon="7.956288" lat="47.935320"><ele>449.0</ele></trkpt>
   <trkpt lon="7.957083" lat="47.935513"><ele>447.25</ele></trkpt>
   <trkpt lon="7.957325" lat="47.935548"><ele>447.0</ele></trkpt>
   <trkpt lon="7.957600" lat="47.935569"><ele>447.25</ele></trkpt>
   <trkpt lon="7.958005" lat="47.935579"><ele>447.75</ele></trkpt>
   <trkpt lon="7.958276" lat="47.935563"><ele>447.75</ele></trkpt>
   <trkpt lon="7.958574" lat="47.935512"><ele>448.75</ele></trkpt>
   <trkpt lon="7.958949" lat="47.935431"><ele>449.0</ele></trkpt>
   <trkpt lon="7.959318" lat="47.935312"><ele>449.75</ele></trkpt>
   <trkpt lon="7.959651" lat="47.935173"><ele>450.75</ele></trkpt>
   <trkpt lon="7.960091" lat="47.934972"><ele>452.0</ele></trkpt>
   <trkpt lon="7.960260" lat="47.934880"><ele>452.25</ele></trkpt>
   <trkpt lon="7.960401" lat="47.934835"><ele>452.5</ele></trkpt>
   <trkpt lon="7.960571" lat="47.934808"><ele>452.5</ele></trkpt>
   <trkpt lon="7.960949" lat="47.934715"><ele>454.0</ele></trkpt>
   <trkpt lon="7.961641" lat="47.934607"><ele>455.25</ele></trkpt>
   <trkpt lon="7.962485" lat="47.934558"><ele>457.25</ele></trkpt>
   <trkpt lon="7.962834" lat="47.934526"><ele>458.0</ele></trkpt>
   <trkpt lon="7.963156" lat="47.934462"><ele>459.0</ele></trkpt>
   <trkpt lon="7.963365" lat="47.934397"><ele>459.0</ele></trkpt>
   <trkpt lon="7.963514" lat="47.934342"><ele>459.5</ele></trkpt>
   <trkpt lon="7.963632" lat="47.934337"><ele>460.0</ele></trkpt>
   <trkpt lon="7.963876" lat="47.934200"><ele>460.75</ele></trkpt>
   <trkpt lon="7.964276" lat="47.933938"><ele>462.25</ele></trkpt>
   <trkpt lon="7.964690" lat="47.933704"><ele>465.5</ele></trkpt>
   <trkpt lon="7.965165" lat="47.933491"><ele>468.0</ele></trkpt>
   <trkpt lon="7.965282" lat="47.933448"><ele>468.5</ele></trkpt>
   <trkpt lon="7.965473" lat="47.933376"><ele>468.75</ele></trkpt>
   <trkpt lon="7.965769" lat="47.933285"><ele>469.0</ele></trkpt>
   <trkpt lon="7.966100" lat="47.933213"><ele>469.0</ele></trkpt>
   <trkpt lon="7.966305" lat="47.933196"><ele>469.0</ele></trkpt>
   <trkpt lon="7.966632" lat="47.933207"><ele>469.75</ele></trkpt>
   <trkpt lon="7.967021" lat="47.933243"><ele>470.0</ele></trkpt>
   <trkpt lon="7.967317" lat="47.933273"><ele>471.0</ele></trkpt>
   <trkpt lon="7.967504" lat="47.933282"><ele>471.75</ele></trkpt>
   <trkpt lon="7.967711" lat="47.933271"><ele>472.5</ele></trkpt>
   <trkpt lon="7.967882" lat="47.933253"><ele>474.0</ele></trkpt>
   <trkpt lon="7.968073" lat="47.933213"><ele>475.5</ele></trkpt>
   <trkpt lon="7.968377" lat="47.933127"><ele>476.25</ele></trkpt>
   <trkpt lon="7.968993" lat="47.932871"><ele>479.25</ele></trkpt>
   <trkpt lon="7.970971" lat="47.932025"><ele>485.0</ele></trkpt>
   <trkpt lon="7.971109" lat="47.931951"><ele>485.0</ele></trkpt>
   <trkpt lon="7.971585" lat="47.931614"><ele>486.0</ele></trkpt>
   <trkpt lon="7.972049" lat="47.931267"><ele>486.5</ele></trkpt>
   <trkpt lon="7.972297" lat="47.931097"><ele>487.0</ele></trkpt>
   <trkpt lon="7.972555" lat="47.930897"><ele>490.25</ele></trkpt>
   <trkpt lon="7.972706" lat="47.930749"><ele>492.0</ele></trkpt>
   <trkpt lon="7.972942" lat="47.930403"><ele>492.25</ele></trkpt>
   <trkpt lon="7.973042" lat="47.930283"><ele>491.75</ele></trkpt>
   <trkpt lon="7.973114" lat="47.930209"><ele>493.0</ele></trkpt>
   <trkpt lon="7.973238" lat="47.930087"><ele>494.0</ele></trkpt>
   <trkpt lon="7.973383" lat="47.929965"><ele>494.25</ele></trkpt>
   <trkpt lon="7.973629" lat="47.929784"><ele>495.25</ele></trkpt>
   <trkpt lon="7.973794" lat="47.929687"><ele>495.5</ele></trkpt>
   <trkpt lon="7.974009" lat="47.929584"><ele>495.75</ele></trkpt>
   <trkpt lon="7.974313" lat="47.929469"><ele>496.25</ele></trkpt>
   <trkpt lon="7.974981" lat="47.929170"><ele>499.0</ele></trkpt>
   <trkpt lon="7.975368" lat="47.928954"><ele>500.75</ele></trkpt>
   <trkpt lon="7.975795" lat="47.928784"><ele>505.0</ele></trkpt>
   <trkpt lon="7.976267" lat="47.928626"><ele>508.5</ele></trkpt>
   <trkpt lon="7.976490" lat="47.928537"><ele>509.25</ele></trkpt>
   <trkpt lon="7.976643" lat="47.928444"><ele>509.25</ele></trkpt>
   <trkpt lon="7.976841" lat="47.928306"><ele>509.75</ele></trkpt>
   <trkpt lon="7.977033" lat="47.928188"><ele>510.25</ele></trkpt>
   <trkpt lon="7.977277" lat="47.928058"><ele>510.0</ele></trkpt>
   <trkpt lon="7.977581" lat="47.927959"><ele>510.25</ele></trkpt>
   <trkpt lon="7.978119" lat="47.927842"><ele>510.75</ele></trkpt>
   <trkpt lon="7.978288" lat="47.927783"><ele>510.0</ele></trkpt>
   <trkpt lon="7.978517" lat="47.927682"><ele>512.75</ele></trkpt>
   <trkpt lon="7.979051" lat="47.927346"><ele>517.75</ele></trkpt>
   <trkpt lon="7.979387" lat="47.927172"><ele>519.0</ele></trkpt>
   <trkpt lon="7.979816" lat="47.927038"><ele>520.25</ele></trkpt>
   <trkpt lon="7.980214" lat="47.926969"><ele>520.5</ele></trkpt>
   <trkpt lon="7.980576" lat="47.926879"><ele>521.25</ele></trkpt>
   <trkpt lon="7.980950" lat="47.926707"><ele>525.0</ele></trkpt>
   <trkpt lon="7.981330" lat="47.926500"><ele>527.75</ele></trkpt>
   <trkpt lon="7.982351" lat="47.926116"><ele>531.25</ele></trkpt>
   <trkpt lon="7.982652" lat="47.925978"><ele>533.75</ele></trkpt>
   <trkpt lon="7.982949" lat="47.925823"><ele>534.75</ele></trkpt>
   <trkpt lon="7.983738" lat="47.925358"><ele>540.5</ele></trkpt>
   <trkpt lon="7.984854" lat="47.924663"><ele>548.0</ele></trkpt>
   <trkpt lon="7.985223" lat="47.924446"><ele>549.0</ele></trkpt>
   <trkpt lon="7.985423" lat="47.924285"><ele>549.5</ele></trkpt>
   <trkpt lon="7.985498" lat="47.924209"><ele>549.75</ele></trkpt>
   <trkpt lon="7.985539" lat="47.924162"><ele>549.75</ele></trkpt>
   <trkpt lon="7.985583" lat="47.924101"><ele>550.0</ele></trkpt>
   <trkpt lon="7.985661" lat="47.923945"><ele>550.0</ele></trkpt>
   <trkpt lon="7.985735" lat="47.923791"><ele>550.0</ele></trkpt>
   <trkpt lon="7.985830" lat="47.923585"><ele>550.25</ele></trkpt>
   <trkpt lon="7.985953" lat="47.923431"><ele>551.25</ele></trkpt>
   <trkpt lon="7.986136" lat="47.923252"><ele>552.25</ele></trkpt>
   <trkpt lon="7.986524" lat="47.922924"><ele>557.75</ele></trkpt>
   <trkpt lon="7.986900" lat="47.922627"><ele>561.75</ele></trkpt>
   <trkpt lon="7.986991" lat="47.922561"><ele>562.5</ele></trkpt>
   <trkpt lon="7.987794" lat="47.921964"><ele>567.5</ele></trkpt>
   <trkpt lon="7.987999" lat="47.921786"><ele>569.25</ele></trkpt>
   <trkpt lon="7.988203" lat="47.921595"><ele>570.25</ele></trkpt>
   <trkpt lon="7.988379" lat="47.921417"><ele>570.25</ele></trkpt>
   <trkpt lon="7.988927" lat="47.920830"><ele>576.0</ele></trkpt>
   <trkpt lon="7.988995" lat="47.920728"><ele>577.0</ele></trkpt>
   <trkpt lon="7.989202" lat="47.920440"><ele>579.0</ele></trkpt>
   <trkpt lon="7.990348" lat="47.919023"><ele>581.75</ele></trkpt>
   <trkpt lon="7.990729" lat="47.918563"><ele>584.0</ele></trkpt>
   <trkpt lon="7.990917" lat="47.918373"><ele>584.0</ele></trkpt>
   <trkpt lon="7.991088" lat="47.918230"><ele>584.0</ele></trkpt>
   <trkpt lon="7.991425" lat="47.917969"><ele>585.0</ele></trkpt>
   <trkpt lon="7.992022" lat="47.917414"><ele>588.75</ele></trkpt>
   <trkpt lon="7.992490" lat="47.916969"><ele>590.75</ele></trkpt>
   <trkpt lon="7.992952" lat="47.916616"><ele>593.25</ele></trkpt>
   <trkpt lon="7.993270" lat="47.916415"><ele>593.75</ele></trkpt>
   <trkpt lon="7.993408" lat="47.916337"><ele>594.5</ele></trkpt>
   <trkpt lon="7.993480" lat="47.916297"><ele>595.0</ele></trkpt>
   <trkpt lon="7.994171" lat="47.915937"><ele>598.5</ele></trkpt>
   <trkpt lon="7.994533" lat="47.915713"><ele>601.75</ele></trkpt>
   <trkpt lon="7.994795" lat="47.915500"><ele>601.75</ele></trkpt>
   <trkpt lon="7.995306" lat="47.915023"><ele>605.25</ele></trkpt>
   <trkpt lon="7.995515" lat="47.914850"><ele>607.0</ele></trkpt>
   <trkpt lon="7.995834" lat="47.914643"><ele>608.75</ele></trkpt>
   <trkpt lon="7.995923" lat="47.914576"><ele>609.25</ele></trkpt>
   <trkpt lon="7.995963" lat="47.914512"><ele>609.5</ele></trkpt>
   <trkpt lon="7.995973" lat="47.914476"><ele>609.75</ele></trkpt>
   <trkpt lon="7.995966" lat="47.914439"><ele>610.0</ele></trkpt>
   <trkpt lon="7.995948" lat="47.914409"><ele>610.5</ele></trkpt>
   <trkpt lon="7.995905" lat="47.914381"><ele>611.5</ele></trkpt>
   <trkpt lon="7.996026" lat="47.914276"><ele>611.75</ele></trkpt>
   <trkpt lon="7.996066" lat="47.914244"><ele>611.5</ele></trkpt>
   <trkpt lon="7.996159" lat="47.914167"><ele>611.5</ele></trkpt>
   <trkpt lon="7.996381" lat="47.913946"><ele>611.5</ele></trkpt>
   <trkpt lon="7.996665" lat="47.913639"><ele>612.5</ele></trkpt>
   <trkpt lon="7.996894" lat="47.913445"><ele>614.25</ele></trkpt>
   <trkpt lon="7.997175" lat="47.913229"><ele>616.0</ele></trkpt>
   <trkpt lon="7.997360" lat="47.913112"><ele>616.5</ele></trkpt>
   <trkpt lon="7.997676" lat="47.912907"><ele>617.25</ele></trkpt>
   <trkpt lon="7.998213" lat="47.912597"><ele>617.5</ele></trkpt>
   <trkpt lon="7.998452" lat="47.912433"><ele>618.5</ele></trkpt>
   <trkpt lon="7.998575" lat="47.912338"><ele>619.25</ele></trkpt>
   <trkpt lon="7.998657" lat="47.912255"><ele>620.0</ele></trkpt>
   <trkpt lon="7.998763" lat="47.912129"><ele>621.75</ele></trkpt>
   <trkpt lon="7.998793" lat="47.912089"><ele>622.5</ele></trkpt>
   <trkpt lon="7.998947" lat="47.911931"><ele>625.0</ele></trkpt>
   <trkpt lon="7.999175" lat="47.911801"><ele>626.5</ele></trkpt>
   <trkpt lon="7.999584" lat="47.911644"><ele>629.0</ele></trkpt>
   <trkpt lon="7.999795" lat="47.911508"><ele>630.0</ele></trkpt>
   <trkpt lon="7.999991" lat="47.911302"><ele>630.5</ele></trkpt>
   <trkpt lon="8.000391" lat="47.911070"><ele>630.5</ele></trkpt>
   <trkpt lon="8.000771" lat="47.910850"><ele>632.0</ele></trkpt>
   <trkpt lon="8.001531" lat="47.910384"><ele>640.25</ele></trkpt>
   <trkpt lon="8.002247" lat="47.910084"><ele>640.25</ele></trkpt>
   <trkpt lon="8.002541" lat="47.910015"><ele>640.0</ele></trkpt>
   <trkpt lon="8.002861" lat="47.909964"><ele>640.5</ele></trkpt>
   <trkpt lon="8.003096" lat="47.909902"><ele>640.75</ele></trkpt>
   <trkpt lon="8.003366" lat="47.909775"><ele>641.25</ele></trkpt>
   <trkpt lon="8.003744" lat="47.909511"><ele>647.5</ele></trkpt>
   <trkpt lon="8.003869" lat="47.909441"><ele>648.0</ele></trkpt>
   <trkpt lon="8.004212" lat="47.909249"><ele>649.25</ele></trkpt>
   <trkpt lon="8.005154" lat="47.908819"><ele>658.5</ele></trkpt>
   <trkpt lon="8.005275" lat="47.908774"><ele>658.75</ele></trkpt>
   <trkpt lon="8.005820" lat="47.908526"><ele>660.0</ele></trkpt>
   <trkpt lon="8.006045" lat="47.908417"><ele>661.25</ele></trkpt>
   <trkpt lon="8.006287" lat="47.908259"><ele>664.25</ele></trkpt>
   <trkpt lon="8.006513" lat="47.908068"><ele>667.25</ele></trkpt>
   <trkpt lon="8.006608" lat="47.907965"><ele>668.25</ele></trkpt>
   <trkpt lon="8.007016" lat="47.907432"><ele>672.0</ele></trkpt>
   <trkpt lon="8.007114" lat="47.907323"><ele>673.75</ele></trkpt>
   <trkpt lon="8.007243" lat="47.907212"><ele>675.0</ele></trkpt>
   <trkpt lon="8.007557" lat="47.907038"><ele>677.0</ele></trkpt>
   <trkpt lon="8.007746" lat="47.906962"><ele>677.75</ele></trkpt>
   <trkpt lon="8.007892" lat="47.906905"><ele>679.0</ele></trkpt>
   <trkpt lon="8.008030" lat="47.906863"><ele>680.0</ele></trkpt>
   <trkpt lon="8.008200" lat="47.906831"><ele>680.25</ele></trkpt>
   <trkpt lon="8.008249" lat="47.906826"><ele>680.25</ele></trkpt>
   <trkpt lon="8.008349" lat="47.906820"><ele>680.25</ele></trkpt>
   <trkpt lon="8.008566" lat="47.906829"><ele>680.75</ele></trkpt>
   <trkpt lon="8.008675" lat="47.906838"><ele>681.5</ele></trkpt>
   <trkpt lon="8.008932" lat="47.906861"><ele>684.0</ele></trkpt>
   <trkpt lon="8.009354" lat="47.906927"><ele>683.5</ele></trkpt>
   <trkpt lon="8.009511" lat="47.906946"><ele>682.75</ele></trkpt>
   <trkpt lon="8.009633" lat="47.906949"><ele>682.75</ele></trkpt>
   <trkpt lon="8.009759" lat="47.906943"><ele>683.25</ele></trkpt>
   <trkpt lon="8.009935" lat="47.906906"><ele>686.25</ele></trkpt>
   <trkpt lon="8.010157" lat="47.906848"><ele>691.0</ele></trkpt>
   <trkpt lon="8.010486" lat="47.906739"><ele>697.25</ele></trkpt>
   <trkpt lon="8.010748" lat="47.906618"><ele>699.25</ele></trkpt>
   <trkpt lon="8.010897" lat="47.906488"><ele>702.0</ele></trkpt>
   <trkpt lon="8.011138" lat="47.906064"><ele>709.5</ele></trkpt>
   <trkpt lon="8.011410" lat="47.905728"><ele>712.5</ele></trkpt>
   <trkpt lon="8.011672" lat="47.905425"><ele>716.25</ele></trkpt>
   <trkpt lon="8.011905" lat="47.905111"><ele>720.5</ele></trkpt>
   <trkpt lon="8.012040" lat="47.904999"><ele>721.25</ele></trkpt>
   <trkpt lon="8.012604" lat="47.904603"><ele>725.5</ele></trkpt>
   <trkpt lon="8.013022" lat="47.904392"><ele>728.0</ele></trkpt>
   <trkpt lon="8.013154" lat="47.904334"><ele>728.75</ele></trkpt>
   <trkpt lon="8.013236" lat="47.904296"><ele>729.0</ele></trkpt>
   <trkpt lon="8.013339" lat="47.904234"><ele>729.75</ele></trkpt>
   <trkpt lon="8.013411" lat="47.904181"><ele>730.5</ele></trkpt>
   <trkpt lon="8.013474" lat="47.904116"><ele>731.25</ele></trkpt>
   <trkpt lon="8.013531" lat="47.904027"><ele>732.5</ele></trkpt>
   <trkpt lon="8.013892" lat="47.903143"><ele>739.5</ele></trkpt>
   <trkpt lon="8.013926" lat="47.903029"><ele>741.0</ele></trkpt>
   <trkpt lon="8.013934" lat="47.902890"><ele>743.0</ele></trkpt>
   <trkpt lon="8.013900" lat="47.902781"><ele>744.0</ele></trkpt>
   <trkpt lon="8.013663" lat="47.902380"><ele>749.5</ele></trkpt>
   <trkpt lon="8.013590" lat="47.902197"><ele>752.75</ele></trkpt>
   <trkpt lon="8.013581" lat="47.902049"><ele>754.25</ele></trkpt>
   <trkpt lon="8.013604" lat="47.901956"><ele>755.0</ele></trkpt>
   <trkpt lon="8.013612" lat="47.901881"><ele>755.5</ele></trkpt>
   <trkpt lon="8.013619" lat="47.901805"><ele>756.5</ele></trkpt>
   <trkpt lon="8.013609" lat="47.901719"><ele>757.25</ele></trkpt>
   <trkpt lon="8.013555" lat="47.901489"><ele>761.75</ele></trkpt>
   <trkpt lon="8.013499" lat="47.901277"><ele>766.25</ele></trkpt>
   <trkpt lon="8.013516" lat="47.900961"><ele>771.75</ele></trkpt>
   <trkpt lon="8.013495" lat="47.900703"><ele>777.25</ele></trkpt>
   <trkpt lon="8.013389" lat="47.900435"><ele>783.25</ele></trkpt>
   <trkpt lon="8.013293" lat="47.900287"><ele>786.25</ele></trkpt>
   <trkpt lon="8.013159" lat="47.900170"><ele>786.75</ele></trkpt>
   <trkpt lon="8.012897" lat="47.900019"><ele>785.25</ele></trkpt>
   <trkpt lon="8.012828" lat="47.899924"><ele>788.25</ele></trkpt>
   <trkpt lon="8.012817" lat="47.899829"><ele>793.0</ele></trkpt>
   <trkpt lon="8.012853" lat="47.899794"><ele>796.0</ele></trkpt>
   <trkpt lon="8.012982" lat="47.899758"><ele>801.0</ele></trkpt>
   <trkpt lon="8.013175" lat="47.899784"><ele>804.75</ele></trkpt>
   <trkpt lon="8.013352" lat="47.899887"><ele>805.5</ele></trkpt>
   <trkpt lon="8.013762" lat="47.900317"><ele>804.0</ele></trkpt>
   <trkpt lon="8.013941" lat="47.900451"><ele>805.0</ele></trkpt>
   <trkpt lon="8.014194" lat="47.900606"><ele>810.0</ele></trkpt>
   <trkpt lon="8.014325" lat="47.900729"><ele>810.75</ele></trkpt>
   <trkpt lon="8.014481" lat="47.900976"><ele>807.5</ele></trkpt>
   <trkpt lon="8.014630" lat="47.901129"><ele>808.0</ele></trkpt>
   <trkpt lon="8.014866" lat="47.901330"><ele>811.0</ele></trkpt>
   <trkpt lon="8.014986" lat="47.901492"><ele>811.25</ele></trkpt>
   <trkpt lon="8.015078" lat="47.901680"><ele>809.75</ele></trkpt>
   <trkpt lon="8.015222" lat="47.902048"><ele>804.5</ele></trkpt>
   <trkpt lon="8.015262" lat="47.902174"><ele>802.5</ele></trkpt>
   <trkpt lon="8.015320" lat="47.902283"><ele>801.5</ele></trkpt>
   <trkpt lon="8.015412" lat="47.902351"><ele>803.0</ele></trkpt>
   <trkpt lon="8.015566" lat="47.902357"><ele>809.25</ele></trkpt>
   <trkpt lon="8.015596" lat="47.902297"><ele>812.0</ele></trkpt>
   <trkpt lon="8.015597" lat="47.902235"><ele>813.75</ele></trkpt>
   <trkpt lon="8.015566" lat="47.902163"><ele>815.0</ele></trkpt>
   <trkpt lon="8.015476" lat="47.902048"><ele>815.0</ele></trkpt>
   <trkpt lon="8.015390" lat="47.901870"><ele>817.5</ele></trkpt>
   <trkpt lon="8.015334" lat="47.901392"><ele>832.5</ele></trkpt>
   <trkpt lon="8.015283" lat="47.901215"><ele>835.25</ele></trkpt>
   <trkpt lon="8.015183" lat="47.901033"><ele>836.5</ele></trkpt>
   <trkpt lon="8.015035" lat="47.900662"><ele>843.0</ele></trkpt>
   <trkpt lon="8.014896" lat="47.900351"><ele>850.0</ele></trkpt>
   <trkpt lon="8.014205" lat="47.899364"><ele>852.75</ele></trkpt>
   <trkpt lon="8.013694" lat="47.898722"><ele>860.0</ele></trkpt>
   <trkpt lon="8.013505" lat="47.898448"><ele>865.0</ele></trkpt>
   <trkpt lon="8.013348" lat="47.898160"><ele>869.25</ele></trkpt>
   <trkpt lon="8.013196" lat="47.897451"><ele>877.75</ele></trkpt>
   <trkpt lon="8.013183" lat="47.897216"><ele>881.25</ele></trkpt>
   <trkpt lon="8.013064" lat="47.896832"><ele>885.25</ele></trkpt>
   <trkpt lon="8.012903" lat="47.896542"><ele>885.75</ele></trkpt>
   <trkpt lon="8.012756" lat="47.896222"><ele>886.5</ele></trkpt>
   <trkpt lon="8.012646" lat="47.895636"><ele>887.5</ele></trkpt>
   <trkpt lon="8.012773" lat="47.895338"><ele>893.75</ele></trkpt>
   <trkpt lon="8.013079" lat="47.894964"><ele>905.0</ele></trkpt>
   <trkpt lon="8.013211" lat="47.894585"><ele>909.25</ele></trkpt>
   <trkpt lon="8.013345" lat="47.894297"><ele>911.75</ele></trkpt>
   <trkpt lon="8.013473" lat="47.894169"><ele>917.0</ele></trkpt>
   <trkpt lon="8.013566" lat="47.894006"><ele>920.0</ele></trkpt>
   <trkpt lon="8.013651" lat="47.893675"><ele>920.0</ele></trkpt>
   <trkpt lon="8.013823" lat="47.893401"><ele>925.75</ele></trkpt>
   <trkpt lon="8.013921" lat="47.893198"><ele>928.25</ele></trkpt>
   <trkpt lon="8.013979" lat="47.892959"><ele>929.25</ele></trkpt>
   <trkpt lon="8.014178" lat="47.892458"><ele>936.25</ele></trkpt>
   <trkpt lon="8.014431" lat="47.891915"><ele>945.25</ele></trkpt>
   <trkpt lon="8.014545" lat="47.891727"><ele>948.75</ele></trkpt>
   <trkpt lon="8.014680" lat="47.891415"><ele>951.25</ele></trkpt>
   <trkpt lon="8.014942" lat="47.891140"><ele>956.75</ele></trkpt>
   <trkpt lon="8.015116" lat="47.890845"><ele>959.75</ele></trkpt>
   <trkpt lon="8.015179" lat="47.890659"><ele>960.0</ele></trkpt>
   <trkpt lon="8.015258" lat="47.890539"><ele>961.25</ele></trkpt>
   <trkpt lon="8.015390" lat="47.890423"><ele>964.75</ele></trkpt>
   <trkpt lon="8.015437" lat="47.890370"><ele>965.5</ele></trkpt>
   <trkpt lon="8.015447" lat="47.890288"><ele>964.75</ele></trkpt>
   <trkpt lon="8.015427" lat="47.890246"><ele>964.5</ele></trkpt>
   <trkpt lon="8.015387" lat="47.890193"><ele>964.75</ele></trkpt>
   <trkpt lon="8.015343" lat="47.890170"><ele>964.5</ele></trkpt>
   <trkpt lon="8.015266" lat="47.890146"><ele>964.25</ele></trkpt>
   <trkpt lon="8.015214" lat="47.890140"><ele>964.5</ele></trkpt>
   <trkpt lon="8.015068" lat="47.890147"><ele>964.75</ele></trkpt>
   <trkpt lon="8.014741" lat="47.890291"><ele>962.0</ele></trkpt>
   <trkpt lon="8.014300" lat="47.890399"><ele>964.75</ele></trkpt>
   <trkpt lon="8.014142" lat="47.890419"><ele>966.0</ele></trkpt>
   <trkpt lon="8.014013" lat="47.890400"><ele>968.5</ele></trkpt>
   <trkpt lon="8.013538" lat="47.890277"><ele>978.25</ele></trkpt>
   <trkpt lon="8.013120" lat="47.890283"><ele>977.75</ele></trkpt>
   <trkpt lon="8.012641" lat="47.890276"><ele>977.5</ele></trkpt>
   <trkpt lon="8.012263" lat="47.890143"><ele>982.0</ele></trkpt>
   <trkpt lon="8.011370" lat="47.889685"><ele>992.75</ele></trkpt>
   <trkpt lon="8.010722" lat="47.889561"><ele>993.75</ele></trkpt>
   <trkpt lon="8.009660" lat="47.889113"><ele>1003.25</ele></trkpt>
   <trkpt lon="8.009282" lat="47.888862"><ele>1007.75</ele></trkpt>
   <trkpt lon="8.008785" lat="47.888634"><ele>1010.75</ele></trkpt>
   <trkpt lon="8.008494" lat="47.888397"><ele>1018.25</ele></trkpt>
   <trkpt lon="8.008060" lat="47.888083"><ele>1021.25</ele></trkpt>
   <trkpt lon="8.007839" lat="47.887887"><ele>1025.0</ele></trkpt>
   <trkpt lon="8.007552" lat="47.887690"><ele>1029.0</ele></trkpt>
   <trkpt lon="8.006919" lat="47.887292"><ele>1035.25</ele></trkpt>
   <trkpt lon="8.006630" lat="47.887179"><ele>1034.0</ele></trkpt>
   <trkpt lon="8.006289" lat="47.887113"><ele>1031.75</ele></trkpt>
   <trkpt lon="8.006094" lat="47.887018"><ele>1032.75</ele></trkpt>
   <trkpt lon="8.005966" lat="47.886928"><ele>1034.25</ele></trkpt>
   <trkpt lon="8.005893" lat="47.886821"><ele>1036.75</ele></trkpt>
   <trkpt lon="8.005827" lat="47.886653"><ele>1041.25</ele></trkpt>
   <trkpt lon="8.005845" lat="47.886301"><ele>1052.0</ele></trkpt>
   <trkpt lon="8.005795" lat="47.886150"><ele>1055.75</ele></trkpt>
   <trkpt lon="8.005708" lat="47.886019"><ele>1058.5</ele></trkpt>
   <trkpt lon="8.005592" lat="47.885922"><ele>1059.0</ele></trkpt>
   <trkpt lon="8.005423" lat="47.885747"><ele>1060.75</ele></trkpt>
   <trkpt lon="8.005229" lat="47.885448"><ele>1065.5</ele></trkpt>
   <trkpt lon="8.005054" lat="47.885197"><ele>1068.75</ele></trkpt>
   <trkpt lon="8.004740" lat="47.884971"><ele>1068.5</ele></trkpt>
   <trkpt lon="8.004525" lat="47.884873"><ele>1066.75</ele></trkpt>
   <trkpt lon="8.004455" lat="47.884802"><ele>1067.0</ele></trkpt>
   <trkpt lon="8.004445" lat="47.884721"><ele>1068.0</ele></trkpt>
   <trkpt lon="8.004469" lat="47.884671"><ele>1068.5</ele></trkpt>
   <trkpt lon="8.004502" lat="47.884642"><ele>1069.25</ele></trkpt>
   <trkpt lon="8.004563" lat="47.884620"><ele>1070.5</ele></trkpt>
   <trkpt lon="8.004623" lat="47.884612"><ele>1071.5</ele></trkpt>
   <trkpt lon="8.004853" lat="47.884647"><ele>1075.0</ele></trkpt>
   <trkpt lon="8.005101" lat="47.884707"><ele>1078.5</ele></trkpt>
   <trkpt lon="8.005468" lat="47.884831"><ele>1084.75</ele></trkpt>
   <trkpt lon="8.005670" lat="47.884928"><ele>1088.0</ele></trkpt>
   <trkpt lon="8.005818" lat="47.885027"><ele>1089.75</ele></trkpt>
   <trkpt lon="8.006259" lat="47.885423"><ele>1094.0</ele></trkpt>
   <trkpt lon="8.006632" lat="47.885678"><ele>1098.75</ele></trkpt>
   <trkpt lon="8.006925" lat="47.885816"><ele>1101.0</ele></trkpt>
   <trkpt lon="8.007517" lat="47.886209"><ele>1095.75</ele></trkpt>
   <trkpt lon="8.007861" lat="47.886349"><ele>1098.25</ele></trkpt>
   <trkpt lon="8.008231" lat="47.886484"><ele>1100.25</ele></trkpt>
   <trkpt lon="8.008573" lat="47.886690"><ele>1093.75</ele></trkpt>
   <trkpt lon="8.008759" lat="47.886754"><ele>1091.5</ele></trkpt>
   <trkpt lon="8.008933" lat="47.886770"><ele>1092.25</ele></trkpt>
   <trkpt lon="8.009279" lat="47.886748"><ele>1097.75</ele></trkpt>
   <trkpt lon="8.009480" lat="47.886749"><ele>1101.5</ele></trkpt>
   <trkpt lon="8.009602" lat="47.886764"><ele>1103.25</ele></trkpt>
   <trkpt lon="8.009747" lat="47.886805"><ele>1104.5</ele></trkpt>
   <trkpt lon="8.010142" lat="47.887029"><ele>1102.75</ele></trkpt>
   <trkpt lon="8.010285" lat="47.887081"><ele>1103.0</ele></trkpt>
   <trkpt lon="8.010409" lat="47.887094"><ele>1104.5</ele></trkpt>
   <trkpt lon="8.010663" lat="47.887140"><ele>1106.25</ele></trkpt>
   <trkpt lon="8.010961" lat="47.887208"><ele>1108.25</ele></trkpt>
   <trkpt lon="8.011428" lat="47.887372"><ele>1114.75</ele></trkpt>
   <trkpt lon="8.011964" lat="47.887642"><ele>1117.5</ele></trkpt>
   <trkpt lon="8.012165" lat="47.887694"><ele>1117.75</ele></trkpt>
   <trkpt lon="8.011934" lat="47.887178"><ele>1136.75</ele></trkpt>
   <trkpt lon="8.011474" lat="47.886833"><ele>1136.0</ele></trkpt>
   <trkpt lon="8.011127" lat="47.886695"><ele>1132.0</ele></trkpt>
   <trkpt lon="8.011032" lat="47.886437"><ele>1139.5</ele></trkpt>
   <trkpt lon="8.010898" lat="47.886215"><ele>1145.0</ele></trkpt>
   <trkpt lon="8.010651" lat="47.886013"><ele>1153.25</ele></trkpt>
   <trkpt lon="8.010334" lat="47.885879"><ele>1161.0</ele></trkpt>
   <trkpt lon="8.009670" lat="47.885743"><ele>1164.0</ele></trkpt>
   <trkpt lon="8.009116" lat="47.885417"><ele>1177.25</ele></trkpt>
   <trkpt lon="8.008131" lat="47.884640"><ele>1194.75</ele></trkpt>
   <trkpt lon="8.007760" lat="47.884227"><ele>1196.0</ele></trkpt>
   <trkpt lon="8.007723" lat="47.884032"><ele>1204.0</ele></trkpt>
   <trkpt lon="8.007694" lat="47.883671"><ele>1216.25</ele></trkpt>
   <trkpt lon="8.007619" lat="47.883470"><ele>1214.25</ele></trkpt>
   <trkpt lon="8.007459" lat="47.882970"><ele>1217.75</ele></trkpt>
   <trkpt lon="8.007361" lat="47.882612"><ele>1221.75</ele></trkpt>
   <trkpt lon="8.007420" lat="47.882348"><ele>1224.5</ele></trkpt>
   <trkpt lon="8.007509" lat="47.882123"><ele>1227.75</ele></trkpt>
   <trkpt lon="8.007714" lat="47.881461"><ele>1236.5</ele></trkpt>
   <trkpt lon="8.007842" lat="47.881112"><ele>1246.75</ele></trkpt>
   <trkpt lon="8.007858" lat="47.880859"><ele>1248.75</ele></trkpt>
   <trkpt lon="8.007802" lat="47.880551"><ele>1244.75</ele></trkpt>
   <trkpt lon="8.007858" lat="47.880186"><ele>1244.5</ele></trkpt>
   <trkpt lon="8.007862" lat="47.879929"><ele>1246.5</ele></trkpt>
   <trkpt lon="8.007776" lat="47.879776"><ele>1249.0</ele></trkpt>
   <trkpt lon="8.007745" lat="47.879647"><ele>1251.0</ele></trkpt>
   <trkpt lon="8.007514" lat="47.879539"><ele>1253.25</ele></trkpt>
   <trkpt lon="8.007492" lat="47.879489"><ele>1253.5</ele></trkpt>
   <trkpt lon="8.007752" lat="47.879215"><ele>1255.5</ele></trkpt>
   <trkpt lon="8.007730" lat="47.879164"><ele>1256.0</ele></trkpt>
   <trkpt lon="8.007687" lat="47.879121"><ele>1256.75</ele></trkpt>
   <trkpt lon="8.007585" lat="47.879053"><ele>1257.5</ele></trkpt>
   <trkpt lon="8.007547" lat="47.878985"><ele>1258.0</ele></trkpt>
   <trkpt lon="8.007476" lat="47.878810"><ele>1258.75</ele></trkpt>
   <trkpt lon="8.007478" lat="47.878743"><ele>1259.25</ele></trkpt>
   <trkpt lon="8.007515" lat="47.878659"><ele>1259.75</ele></trkpt>
   <trkpt lon="8.007656" lat="47.878461"><ele>1260.75</ele></trkpt>
   <trkpt lon="8.007691" lat="47.878377"><ele>1261.5</ele></trkpt>
   <trkpt lon="8.007686" lat="47.878315"><ele>1262.25</ele></trkpt>
   <trkpt lon="8.007645" lat="47.878268"><ele>1262.75</ele></trkpt>
   <trkpt lon="8.007596" lat="47.878247"><ele>1262.75</ele></trkpt>
   <trkpt lon="8.007526" lat="47.878241"><ele>1262.25</ele></trkpt>
   <trkpt lon="8.007168" lat="47.878298"><ele>1260.25</ele></trkpt>
   <trkpt lon="8.006767" lat="47.878382"><ele>1261.25</ele></trkpt>
   <trkpt lon="8.006700" lat="47.878393"><ele>1261.5</ele></trkpt>
   <trkpt lon="8.006272" lat="47.878877"><ele>1250.25</ele></trkpt>
   <trkpt lon="8.006224" lat="47.878912"><ele>1249.25</ele></trkpt>
   <trkpt lon="8.006158" lat="47.878932"><ele>1248.75</ele></trkpt>
   <trkpt lon="8.006032" lat="47.878933"><ele>1249.25</ele></trkpt>
   <trkpt lon="8.005628" lat="47.878819"><ele>1258.25</ele></trkpt>
   <trkpt lon="8.005439" lat="47.878818"><ele>1262.25</ele></trkpt>
   <trkpt lon="8.005096" lat="47.878948"><ele>1265.25</ele></trkpt>
   <trkpt lon="8.004857" lat="47.879083"><ele>1264.0</ele></trkpt>
   <trkpt lon="8.004374" lat="47.879306"><ele>1255.25</ele></trkpt>
   <trkpt lon="8.003622" lat="47.879587"><ele>1238.25</ele></trkpt>
   <trkpt lon="8.003253" lat="47.879817"><ele>1231.25</ele></trkpt>
   <trkpt lon="8.002515" lat="47.880112"><ele>1242.75</ele></trkpt>
   <trkpt lon="8.002414" lat="47.880191"><ele>1242.0</ele></trkpt>
   <trkpt lon="8.002301" lat="47.880331"><ele>1239.0</ele></trkpt>
   <trkpt lon="8.002035" lat="47.880484"><ele>1239.75</ele></trkpt>
   <trkpt lon="8.001964" lat="47.880656"><ele>1234.75</ele></trkpt>
   <trkpt lon="8.001876" lat="47.880720"><ele>1234.5</ele></trkpt>
   <trkpt lon="8.001408" lat="47.880835"><ele>1240.5</ele></trkpt>
   <trkpt lon="8.001035" lat="47.880913"><ele>1248.0</ele></trkpt>
   <trkpt lon="8.000808" lat="47.880933"><ele>1253.25</ele></trkpt>
   <trkpt lon="8.000517" lat="47.880946"><ele>1260.25</ele></trkpt>
   <trkpt lon="8.000303" lat="47.880917"><ele>1266.25</ele></trkpt>
   <trkpt lon="7.999959" lat="47.880808"><ele>1276.5</ele></trkpt>
   <trkpt lon="7.999605" lat="47.880684"><ele>1286.75</ele></trkpt>
   <trkpt lon="7.999522" lat="47.880665"><ele>1288.25</ele></trkpt>
   <trkpt lon="7.999357" lat="47.880749"><ele>1287.75</ele></trkpt>
   <trkpt lon="7.999176" lat="47.880861"><ele>1287.0</ele></trkpt>
   <trkpt lon="7.999011" lat="47.880938"><ele>1287.75</ele></trkpt>
   <trkpt lon="7.998728" lat="47.881006"><ele>1291.25</ele></trkpt>
   <trkpt lon="7.997873" lat="47.881088"><ele>1306.5</ele></trkpt>
   <trkpt lon="7.997411" lat="47.881092"><ele>1319.0</ele></trkpt>
   <trkpt lon="7.996707" lat="47.881066"><ele>1331.75</ele></trkpt>
   <trkpt lon="7.996020" lat="47.880991"><ele>1338.0</ele></trkpt>
   <trkpt lon="7.995607" lat="47.880913"><ele>1342.5</ele></trkpt>
   <trkpt lon="7.995337" lat="47.880848"><ele>1345.25</ele></trkpt>
   <trkpt lon="7.995080" lat="47.880762"><ele>1348.25</ele></trkpt>
   <trkpt lon="7.994905" lat="47.880682"><ele>1350.0</ele></trkpt>
   <trkpt lon="7.994734" lat="47.880580"><ele>1351.5</ele></trkpt>
   <trkpt lon="7.994638" lat="47.880500"><ele>1352.0</ele></trkpt>
   <trkpt lon="7.994561" lat="47.880386"><ele>1352.75</ele></trkpt>
   <trkpt lon="7.994527" lat="47.880235"><ele>1354.0</ele></trkpt>
   <trkpt lon="7.994511" lat="47.880049"><ele>1356.0</ele></trkpt>
   <trkpt lon="7.994523" lat="47.879855"><ele>1356.75</ele></trkpt>
   <trkpt lon="7.994577" lat="47.879519"><ele>1357.75</ele></trkpt>
   <trkpt lon="7.994616" lat="47.879444"><ele>1358.25</ele></trkpt>
   <trkpt lon="7.994691" lat="47.879346"><ele>1359.5</ele></trkpt>
   <trkpt lon="7.994976" lat="47.879161"><ele>1363.5</ele></trkpt>
   <trkpt lon="7.995144" lat="47.879065"><ele>1364.75</ele></trkpt>
   <trkpt lon="7.995293" lat="47.879015"><ele>1366.0</ele></trkpt>
   <trkpt lon="7.995870" lat="47.878904"><ele>1369.0</ele></trkpt>
   <trkpt lon="7.996015" lat="47.878853"><ele>1369.25</ele></trkpt>
   <trkpt lon="7.996204" lat="47.878757"><ele>1369.0</ele></trkpt>
   <trkpt lon="7.996328" lat="47.878678"><ele>1369.0</ele></trkpt>
   <trkpt lon="7.996413" lat="47.878600"><ele>1368.75</ele></trkpt>
   <trkpt lon="7.996609" lat="47.878330"><ele>1364.5</ele></trkpt>
   <trkpt lon="7.996780" lat="47.878121"><ele>1362.0</ele></trkpt>
   <trkpt lon="7.996932" lat="47.877913"><ele>1360.75</ele></trkpt>
   <trkpt lon="7.997022" lat="47.877778"><ele>1359.75</ele></trkpt>
   <trkpt lon="7.997109" lat="47.877600"><ele>1358.0</ele></trkpt>
   <trkpt lon="7.997148" lat="47.877495"><ele>1357.25</ele></trkpt>
   <trkpt lon="7.997171" lat="47.877363"><ele>1357.0</ele></trkpt>
   <trkpt lon="7.997167" lat="47.877192"><ele>1356.25</ele></trkpt>
   <trkpt lon="7.997181" lat="47.876876"><ele>1358.0</ele></trkpt>
   <trkpt lon="7.997169" lat="47.876789"><ele>1358.5</ele></trkpt>
   <trkpt lon="7.997114" lat="47.876661"><ele>1358.25</ele></trkpt>
   <trkpt lon="7.996987" lat="47.876486"><ele>1358.0</ele></trkpt>
   <trkpt lon="7.996844" lat="47.876268"><ele>1358.75</ele></trkpt>
   <trkpt lon="7.996773" lat="47.876110"><ele>1360.25</ele></trkpt>
   <trkpt lon="7.996730" lat="47.875991"><ele>1362.5</ele></trkpt>
   <trkpt lon="7.996696" lat="47.875841"><ele>1366.25</ele></trkpt>
   <trkpt lon="7.996640" lat="47.875465"><ele>1372.0</ele></trkpt>
   <trkpt lon="7.996552" lat="47.875195"><ele>1375.0</ele></trkpt>
   <trkpt lon="7.996540" lat="47.875048"><ele>1376.5</ele></trkpt>
   <trkpt lon="7.996529" lat="47.874699"><ele>1379.5</ele></trkpt>
   <trkpt lon="7.996513" lat="47.874537"><ele>1380.75</ele></trkpt>
   <trkpt lon="7.996515" lat="47.874165"><ele>1382.75</ele></trkpt>
   <trkpt lon="7.996556" lat="47.873982"><ele>1383.5</ele></trkpt>
   <trkpt lon="7.996628" lat="47.873766"><ele>1384.0</ele></trkpt>
   <trkpt lon="7.996781" lat="47.873442"><ele>1384.0</ele></trkpt>
   <trkpt lon="7.996910" lat="47.873234"><ele>1383.5</ele></trkpt>
   <trkpt lon="7.997203" lat="47.872860"><ele>1381.25</ele></trkpt>
   <trkpt lon="7.997371" lat="47.872678"><ele>1379.75</ele></trkpt>
   <trkpt lon="7.997540" lat="47.872523"><ele>1378.75</ele></trkpt>
   <trkpt lon="7.997689" lat="47.872325"><ele>1377.75</ele></trkpt>
   <trkpt lon="7.997760" lat="47.872189"><ele>1376.25</ele></trkpt>
   <trkpt lon="7.997807" lat="47.872011"><ele>1374.25</ele></trkpt>
   <trkpt lon="7.997875" lat="47.872151"><ele>1377.25</ele></trkpt>
   <trkpt lon="7.997885" lat="47.872217"><ele>1378.25</ele></trkpt>
   <trkpt lon="7.997992" lat="47.872254"><ele>1380.5</ele></trkpt>
   <trkpt lon="7.998049" lat="47.872273"><ele>1381.5</ele></trkpt>
   <trkpt lon="7.998098" lat="47.872272"><ele>1382.25</ele></trkpt>
   <trkpt lon="7.998341" lat="47.872205"><ele>1384.75</ele></trkpt>
   <trkpt lon="7.998497" lat="47.872180"><ele>1386.75</ele></trkpt>
   <trkpt lon="7.998807" lat="47.872159"><ele>1393.75</ele></trkpt>
   <trkpt lon="7.998958" lat="47.872143"><ele>1398.75</ele></trkpt>
   <trkpt lon="7.999170" lat="47.872110"><ele>1407.0</ele></trkpt>
   <trkpt lon="7.999263" lat="47.872111"><ele>1410.0</ele></trkpt>
   <trkpt lon="7.999569" lat="47.872128"><ele>1418.25</ele></trkpt>
   <trkpt lon="7.999625" lat="47.872118"><ele>1419.0</ele></trkpt>
   <trkpt lon="7.999792" lat="47.872038"><ele>1420.75</ele></trkpt>
   <trkpt lon="8.000151" lat="47.871741"><ele>1421.5</ele></trkpt>
   <trkpt lon="8.000289" lat="47.871664"><ele>1422.0</ele></trkpt>
   <trkpt lon="8.000428" lat="47.871618"><ele>1422.0</ele></trkpt>
   <trkpt lon="8.000585" lat="47.871579"><ele>1422.75</ele></trkpt>
   <trkpt lon="8.000710" lat="47.871588"><ele>1424.25</ele></trkpt>
   <trkpt lon="8.001577" lat="47.871715"><ele>1437.25</ele></trkpt>
   <trkpt lon="8.002381" lat="47.871810"><ele>1448.25</ele></trkpt>
   <trkpt lon="8.002452" lat="47.871819"><ele>1449.0</ele></trkpt>
   <trkpt lon="8.002295" lat="47.872079"><ele>1456.0</ele></trkpt>
   <trkpt lon="8.002188" lat="47.872360"><ele>1461.0</ele></trkpt>
   <trkpt lon="8.002017" lat="47.872571"><ele>1462.5</ele></trkpt>
   <trkpt lon="8.002033" lat="47.872595"><ele>1463.0</ele></trkpt>
   <trkpt lon="8.002104" lat="47.872622"><ele>1464.25</ele></trkpt>
   <trkpt lon="8.002441" lat="47.872598"><ele>1467.75</ele></trkpt>
   <trkpt lon="8.002741" lat="47.872588"><ele>1470.0</ele></trkpt>
   <trkpt lon="8.002830" lat="47.872591"><ele>1475.5</ele></trkpt>
  </trkseg>
 </trk>
</gpx>
