<?xml version="1.0" encoding="UTF-8"?>
<gpx version="1.1" creator="Bikepacking-Planer seed script" xmlns="http://www.topografix.com/GPX/1/1">
  <trk>
    <name>Across Germany — Flensburg to Oberstdorf</name>
    <trkseg>
      <trkpt lat="54.780000" lon="9.430000"><ele>80</ele></trkpt>
      <trkpt lat="54.773500" lon="9.432940"><ele>86</ele></trkpt>
      <trkpt lat="54.766969" lon="9.435865"><ele>89</ele></trkpt>
      <trkpt lat="54.760433" lon="9.438801"><ele>90</ele></trkpt>
      <trkpt lat="54.753889" lon="9.441763"><ele>94</ele></trkpt>
      <trkpt lat="54.747375" lon="9.444633"><ele>105</ele></trkpt>
      <trkpt lat="54.740901" lon="9.447481"><ele>122</ele></trkpt>
      <trkpt lat="54.734374" lon="9.450455"><ele>141</ele></trkpt>
      <trkpt lat="54.727823" lon="9.453476"><ele>155</ele></trkpt>
      <trkpt lat="54.721280" lon="9.456397"><ele>168</ele></trkpt>
      <trkpt lat="54.714622" lon="9.459286"><ele>182</ele></trkpt>
      <trkpt lat="54.707974" lon="9.462360"><ele>203</ele></trkpt>
      <trkpt lat="54.701369" lon="9.465347"><ele>228</ele></trkpt>
      <trkpt lat="54.694670" lon="9.468505"><ele>251</ele></trkpt>
      <trkpt lat="54.688068" lon="9.471686"><ele>270</ele></trkpt>
      <trkpt lat="54.681295" lon="9.474794"><ele>285</ele></trkpt>
      <trkpt lat="54.674457" lon="9.477946"><ele>301</ele></trkpt>
      <trkpt lat="54.667970" lon="9.481093"><ele>322</ele></trkpt>
      <trkpt lat="54.661263" lon="9.484150"><ele>345</ele></trkpt>
      <trkpt lat="54.654490" lon="9.487463"><ele>364</ele></trkpt>
      <trkpt lat="54.647771" lon="9.490158"><ele>376</ele></trkpt>
      <trkpt lat="54.641020" lon="9.493102"><ele>384</ele></trkpt>
      <trkpt lat="54.634350" lon="9.495839"><ele>392</ele></trkpt>
      <trkpt lat="54.627946" lon="9.499124"><ele>404</ele></trkpt>
      <trkpt lat="54.621188" lon="9.502223"><ele>416</ele></trkpt>
      <trkpt lat="54.614368" lon="9.505623"><ele>423</ele></trkpt>
      <trkpt lat="54.607973" lon="9.508536"><ele>422</ele></trkpt>
      <trkpt lat="54.601241" lon="9.511849"><ele>416</ele></trkpt>
      <trkpt lat="54.594278" lon="9.514759"><ele>412</ele></trkpt>
      <trkpt lat="54.587496" lon="9.517649"><ele>410</ele></trkpt>
      <trkpt lat="54.580463" lon="9.520692"><ele>408</ele></trkpt>
      <trkpt lat="54.573435" lon="9.523411"><ele>400</ele></trkpt>
      <trkpt lat="54.566751" lon="9.526561"><ele>384</ele></trkpt>
      <trkpt lat="54.559731" lon="9.529346"><ele>366</ele></trkpt>
      <trkpt lat="54.553442" lon="9.532864"><ele>349</ele></trkpt>
      <trkpt lat="54.547062" lon="9.536391"><ele>337</ele></trkpt>
      <trkpt lat="54.540236" lon="9.539926"><ele>324</ele></trkpt>
      <trkpt lat="54.533306" lon="9.543428"><ele>305</ele></trkpt>
      <trkpt lat="54.526219" lon="9.547037"><ele>281</ele></trkpt>
      <trkpt lat="54.519139" lon="9.550186"><ele>257</ele></trkpt>
      <trkpt lat="54.511886" lon="9.553164"><ele>236</ele></trkpt>
      <trkpt lat="54.504600" lon="9.556506"><ele>221</ele></trkpt>
      <trkpt lat="54.497819" lon="9.559517"><ele>205</ele></trkpt>
      <trkpt lat="54.490852" lon="9.563106"><ele>186</ele></trkpt>
      <trkpt lat="54.484301" lon="9.566357"><ele>164</ele></trkpt>
      <trkpt lat="54.477669" lon="9.569495"><ele>142</ele></trkpt>
      <trkpt lat="54.470292" lon="9.571939"><ele>128</ele></trkpt>
      <trkpt lat="54.463261" lon="9.574393"><ele>119</ele></trkpt>
      <trkpt lat="54.456255" lon="9.578044"><ele>111</ele></trkpt>
      <trkpt lat="54.450213" lon="9.581164"><ele>100</ele></trkpt>
      <trkpt lat="54.443320" lon="9.584912"><ele>88</ele></trkpt>
      <trkpt lat="54.437072" lon="9.588425"><ele>79</ele></trkpt>
      <trkpt lat="54.430973" lon="9.591082"><ele>77</ele></trkpt>
      <trkpt lat="54.424990" lon="9.593373"><ele>82</ele></trkpt>
      <trkpt lat="54.417915" lon="9.596620"><ele>87</ele></trkpt>
      <trkpt lat="54.412022" lon="9.600356"><ele>90</ele></trkpt>
      <trkpt lat="54.405310" lon="9.602894"><ele>91</ele></trkpt>
      <trkpt lat="54.399457" lon="9.606905"><ele>97</ele></trkpt>
      <trkpt lat="54.393124" lon="9.609765"><ele>110</ele></trkpt>
      <trkpt lat="54.386125" lon="9.613688"><ele>128</ele></trkpt>
      <trkpt lat="54.379815" lon="9.616789"><ele>145</ele></trkpt>
      <trkpt lat="54.372496" lon="9.620476"><ele>159</ele></trkpt>
      <trkpt lat="54.366154" lon="9.623001"><ele>171</ele></trkpt>
      <trkpt lat="54.359462" lon="9.625784"><ele>187</ele></trkpt>
      <trkpt lat="54.351892" lon="9.627984"><ele>209</ele></trkpt>
      <trkpt lat="54.344729" lon="9.631700"><ele>235</ele></trkpt>
      <trkpt lat="54.338664" lon="9.635825"><ele>257</ele></trkpt>
      <trkpt lat="54.331908" lon="9.638796"><ele>274</ele></trkpt>
      <trkpt lat="54.325514" lon="9.640832"><ele>289</ele></trkpt>
      <trkpt lat="54.317842" lon="9.643704"><ele>306</ele></trkpt>
      <trkpt lat="54.311589" lon="9.647279"><ele>328</ele></trkpt>
      <trkpt lat="54.303845" lon="9.649289"><ele>351</ele></trkpt>
      <trkpt lat="54.296516" lon="9.652670"><ele>368</ele></trkpt>
      <trkpt lat="54.290790" lon="9.656073"><ele>378</ele></trkpt>
      <trkpt lat="54.282999" lon="9.660236"><ele>386</ele></trkpt>
      <trkpt lat="54.277167" lon="9.663615"><ele>395</ele></trkpt>
      <trkpt lat="54.270520" lon="9.666636"><ele>408</ele></trkpt>
      <trkpt lat="54.262609" lon="9.669268"><ele>419</ele></trkpt>
      <trkpt lat="54.256757" lon="9.671219"><ele>423</ele></trkpt>
      <trkpt lat="54.249460" lon="9.675594"><ele>420</ele></trkpt>
      <trkpt lat="54.241558" lon="9.678835"><ele>415</ele></trkpt>
      <trkpt lat="54.234709" lon="9.682749"><ele>411</ele></trkpt>
      <trkpt lat="54.229069" lon="9.686424"><ele>410</ele></trkpt>
      <trkpt lat="54.221292" lon="9.689930"><ele>406</ele></trkpt>
      <trkpt lat="54.215282" lon="9.693249"><ele>396</ele></trkpt>
      <trkpt lat="54.207229" lon="9.695878"><ele>379</ele></trkpt>
      <trkpt lat="54.201495" lon="9.698714"><ele>361</ele></trkpt>
      <trkpt lat="54.193845" lon="9.701660"><ele>346</ele></trkpt>
      <trkpt lat="54.188020" lon="9.703771"><ele>333</ele></trkpt>
      <trkpt lat="54.182587" lon="9.707637"><ele>319</ele></trkpt>
      <trkpt lat="54.175136" lon="9.712088"><ele>299</ele></trkpt>
      <trkpt lat="54.168676" lon="9.714118"><ele>274</ele></trkpt>
      <trkpt lat="54.162410" lon="9.716379"><ele>250</ele></trkpt>
      <trkpt lat="54.155313" lon="9.718458"><ele>232</ele></trkpt>
      <trkpt lat="54.147372" lon="9.720672"><ele>217</ele></trkpt>
      <trkpt lat="54.141993" lon="9.722991"><ele>201</ele></trkpt>
      <trkpt lat="54.135003" lon="9.725731"><ele>180</ele></trkpt>
      <trkpt lat="54.128822" lon="9.729307"><ele>157</ele></trkpt>
      <trkpt lat="54.122809" lon="9.732949"><ele>138</ele></trkpt>
      <trkpt lat="54.115262" lon="9.736539"><ele>125</ele></trkpt>
      <trkpt lat="54.109172" lon="9.739561"><ele>117</ele></trkpt>
      <trkpt lat="54.102608" lon="9.741198"><ele>108</ele></trkpt>
      <trkpt lat="54.097003" lon="9.743577"><ele>97</ele></trkpt>
      <trkpt lat="54.091037" lon="9.746953"><ele>85</ele></trkpt>
      <trkpt lat="54.084548" lon="9.751657"><ele>77</ele></trkpt>
      <trkpt lat="54.079481" lon="9.756205"><ele>78</ele></trkpt>
      <trkpt lat="54.071201" lon="9.758411"><ele>83</ele></trkpt>
      <trkpt lat="54.064145" lon="9.760955"><ele>88</ele></trkpt>
      <trkpt lat="54.058911" lon="9.764784"><ele>90</ele></trkpt>
      <trkpt lat="54.053870" lon="9.767140"><ele>92</ele></trkpt>
      <trkpt lat="54.047353" lon="9.771428"><ele>99</ele></trkpt>
      <trkpt lat="54.040607" lon="9.774293"><ele>114</ele></trkpt>
      <trkpt lat="54.032726" lon="9.777140"><ele>133</ele></trkpt>
      <trkpt lat="54.024520" lon="9.781484"><ele>149</ele></trkpt>
      <trkpt lat="54.017018" lon="9.784422"><ele>162</ele></trkpt>
      <trkpt lat="54.010644" lon="9.787187"><ele>175</ele></trkpt>
      <trkpt lat="54.002763" lon="9.790627"><ele>193</ele></trkpt>
      <trkpt lat="53.997355" lon="9.794715"><ele>216</ele></trkpt>
      <trkpt lat="53.989714" lon="9.797942"><ele>241</ele></trkpt>
      <trkpt lat="53.984063" lon="9.799681"><ele>262</ele></trkpt>
      <trkpt lat="53.977837" lon="9.801240"><ele>278</ele></trkpt>
      <trkpt lat="53.972665" lon="9.802642"><ele>293</ele></trkpt>
      <trkpt lat="53.964978" lon="9.806232"><ele>312</ele></trkpt>
      <trkpt lat="53.957738" lon="9.810285"><ele>335</ele></trkpt>
      <trkpt lat="53.951040" lon="9.812118"><ele>356</ele></trkpt>
      <trkpt lat="53.946278" lon="9.815383"><ele>371</ele></trkpt>
      <trkpt lat="53.940952" lon="9.818780"><ele>381</ele></trkpt>
      <trkpt lat="53.934649" lon="9.819901"><ele>388</ele></trkpt>
      <trkpt lat="53.926440" lon="9.822072"><ele>399</ele></trkpt>
      <trkpt lat="53.921004" lon="9.824038"><ele>411</ele></trkpt>
      <trkpt lat="53.915225" lon="9.827679"><ele>421</ele></trkpt>
      <trkpt lat="53.906823" lon="9.830602"><ele>423</ele></trkpt>
      <trkpt lat="53.899410" lon="9.831625"><ele>419</ele></trkpt>
      <trkpt lat="53.893064" lon="9.834546"><ele>413</ele></trkpt>
      <trkpt lat="53.885622" lon="9.838804"><ele>411</ele></trkpt>
      <trkpt lat="53.877364" lon="9.843507"><ele>409</ele></trkpt>
      <trkpt lat="53.872781" lon="9.845468"><ele>404</ele></trkpt>
      <trkpt lat="53.866197" lon="9.848534"><ele>392</ele></trkpt>
      <trkpt lat="53.860820" lon="9.853721"><ele>374</ele></trkpt>
      <trkpt lat="53.855350" lon="9.856708"><ele>356</ele></trkpt>
      <trkpt lat="53.850471" lon="9.858134"><ele>342</ele></trkpt>
      <trkpt lat="53.841827" lon="9.861929"><ele>330</ele></trkpt>
      <trkpt lat="53.833911" lon="9.865472"><ele>314</ele></trkpt>
      <trkpt lat="53.828011" lon="9.869075"><ele>293</ele></trkpt>
      <trkpt lat="53.823361" lon="9.871312"><ele>267</ele></trkpt>
      <trkpt lat="53.818498" lon="9.872578"><ele>245</ele></trkpt>
      <trkpt lat="53.810580" lon="9.877238"><ele>227</ele></trkpt>
      <trkpt lat="53.805668" lon="9.878170"><ele>212</ele></trkpt>
      <trkpt lat="53.799200" lon="9.879547"><ele>195</ele></trkpt>
      <trkpt lat="53.794285" lon="9.880788"><ele>174</ele></trkpt>
      <trkpt lat="53.789238" lon="9.882513"><ele>151</ele></trkpt>
      <trkpt lat="53.781675" lon="9.886711"><ele>133</ele></trkpt>
      <trkpt lat="53.774880" lon="9.891807"><ele>122</ele></trkpt>
      <trkpt lat="53.769050" lon="9.897035"><ele>115</ele></trkpt>
      <trkpt lat="53.763322" lon="9.898462"><ele>105</ele></trkpt>
      <trkpt lat="53.754799" lon="9.900670"><ele>93</ele></trkpt>
      <trkpt lat="53.750399" lon="9.902798"><ele>82</ele></trkpt>
      <trkpt lat="53.742730" lon="9.904681"><ele>77</ele></trkpt>
      <trkpt lat="53.736304" lon="9.908241"><ele>79</ele></trkpt>
      <trkpt lat="53.731287" lon="9.913698"><ele>85</ele></trkpt>
      <trkpt lat="53.722595" lon="9.917663"><ele>89</ele></trkpt>
      <trkpt lat="53.715281" lon="9.918822"><ele>90</ele></trkpt>
      <trkpt lat="53.706617" lon="9.922870"><ele>93</ele></trkpt>
      <trkpt lat="53.698874" lon="9.928424"><ele>103</ele></trkpt>
      <trkpt lat="53.692560" lon="9.932054"><ele>119</ele></trkpt>
      <trkpt lat="53.684719" lon="9.935263"><ele>138</ele></trkpt>
      <trkpt lat="53.676232" lon="9.938604"><ele>153</ele></trkpt>
      <trkpt lat="53.669468" lon="9.943271"><ele>166</ele></trkpt>
      <trkpt lat="53.663875" lon="9.945919"><ele>179</ele></trkpt>
      <trkpt lat="53.654888" lon="9.949091"><ele>199</ele></trkpt>
      <trkpt lat="53.650787" lon="9.949845"><ele>223</ele></trkpt>
      <trkpt lat="53.641858" lon="9.954038"><ele>248</ele></trkpt>
      <trkpt lat="53.636899" lon="9.958511"><ele>267</ele></trkpt>
      <trkpt lat="53.628707" lon="9.963625"><ele>282</ele></trkpt>
      <trkpt lat="53.620329" lon="9.968236"><ele>298</ele></trkpt>
      <trkpt lat="53.615536" lon="9.968638"><ele>318</ele></trkpt>
      <trkpt lat="53.610939" lon="9.970498"><ele>341</ele></trkpt>
      <trkpt lat="53.602619" lon="9.972682"><ele>361</ele></trkpt>
      <trkpt lat="53.597083" lon="9.977625"><ele>374</ele></trkpt>
      <trkpt lat="53.592481" lon="9.982330"><ele>383</ele></trkpt>
      <trkpt lat="53.585738" lon="9.984447"><ele>391</ele></trkpt>
      <trkpt lat="53.580870" lon="9.987007"><ele>402</ele></trkpt>
      <trkpt lat="53.572612" lon="9.992761"><ele>414</ele></trkpt>
      <trkpt lat="53.566378" lon="9.994568"><ele>422</ele></trkpt>
      <trkpt lat="53.557826" lon="9.999131"><ele>422</ele></trkpt>
      <trkpt lat="53.550644" lon="10.003393"><ele>417</ele></trkpt>
      <trkpt lat="53.545948" lon="10.006955"><ele>412</ele></trkpt>
      <trkpt lat="53.539634" lon="10.011143"><ele>410</ele></trkpt>
      <trkpt lat="53.535807" lon="10.015777"><ele>408</ele></trkpt>
      <trkpt lat="53.531177" lon="10.021210"><ele>402</ele></trkpt>
      <trkpt lat="53.522521" lon="10.025496"><ele>387</ele></trkpt>
      <trkpt lat="53.514673" lon="10.025663"><ele>369</ele></trkpt>
      <trkpt lat="53.507911" lon="10.026142"><ele>352</ele></trkpt>
      <trkpt lat="53.500430" lon="10.023105"><ele>339</ele></trkpt>
      <trkpt lat="53.493863" lon="10.024466"><ele>326</ele></trkpt>
      <trkpt lat="53.486675" lon="10.023807"><ele>309</ele></trkpt>
      <trkpt lat="53.481472" lon="10.022465"><ele>286</ele></trkpt>
      <trkpt lat="53.477980" lon="10.020451"><ele>261</ele></trkpt>
      <trkpt lat="53.471928" lon="10.017500"><ele>239</ele></trkpt>
      <trkpt lat="53.463657" lon="10.016370"><ele>223</ele></trkpt>
      <trkpt lat="53.455161" lon="10.016727"><ele>208</ele></trkpt>
      <trkpt lat="53.447888" lon="10.014888"><ele>190</ele></trkpt>
      <trkpt lat="53.441422" lon="10.014499"><ele>167</ele></trkpt>
      <trkpt lat="53.435988" lon="10.016194"><ele>146</ele></trkpt>
      <trkpt lat="53.428161" lon="10.017394"><ele>130</ele></trkpt>
      <trkpt lat="53.422483" lon="10.017028"><ele>120</ele></trkpt>
      <trkpt lat="53.419122" lon="10.012927"><ele>112</ele></trkpt>
      <trkpt lat="53.411154" lon="10.010622"><ele>102</ele></trkpt>
      <trkpt lat="53.406222" lon="10.010242"><ele>90</ele></trkpt>
      <trkpt lat="53.400419" lon="10.009114"><ele>80</ele></trkpt>
      <trkpt lat="53.396731" lon="10.008802"><ele>77</ele></trkpt>
      <trkpt lat="53.391840" lon="10.005345"><ele>81</ele></trkpt>
      <trkpt lat="53.388287" lon="10.004072"><ele>86</ele></trkpt>
      <trkpt lat="53.383100" lon="10.005374"><ele>89</ele></trkpt>
      <trkpt lat="53.375211" lon="10.004230"><ele>91</ele></trkpt>
      <trkpt lat="53.369791" lon="9.999820"><ele>95</ele></trkpt>
      <trkpt lat="53.365373" lon="10.001700"><ele>107</ele></trkpt>
      <trkpt lat="53.359094" lon="10.002936"><ele>124</ele></trkpt>
      <trkpt lat="53.350989" lon="9.999392"><ele>142</ele></trkpt>
      <trkpt lat="53.345737" lon="10.000714"><ele>157</ele></trkpt>
      <trkpt lat="53.341520" lon="10.002442"><ele>169</ele></trkpt>
      <trkpt lat="53.334762" lon="9.999645"><ele>184</ele></trkpt>
      <trkpt lat="53.330635" lon="9.995750"><ele>205</ele></trkpt>
      <trkpt lat="53.326014" lon="9.991865"><ele>230</ele></trkpt>
      <trkpt lat="53.319996" lon="9.987412"><ele>254</ele></trkpt>
      <trkpt lat="53.316069" lon="9.986348"><ele>272</ele></trkpt>
      <trkpt lat="53.310775" lon="9.986202"><ele>286</ele></trkpt>
      <trkpt lat="53.301792" lon="9.987600"><ele>303</ele></trkpt>
      <trkpt lat="53.293815" lon="9.983502"><ele>324</ele></trkpt>
      <trkpt lat="53.286146" lon="9.981316"><ele>347</ele></trkpt>
      <trkpt lat="53.276529" lon="9.980893"><ele>365</ele></trkpt>
      <trkpt lat="53.273283" lon="9.978969"><ele>377</ele></trkpt>
      <trkpt lat="53.263734" lon="9.979461"><ele>385</ele></trkpt>
      <trkpt lat="53.256850" lon="9.980293"><ele>394</ele></trkpt>
      <trkpt lat="53.250229" lon="9.976048"><ele>406</ele></trkpt>
      <trkpt lat="53.241038" lon="9.974249"><ele>417</ele></trkpt>
      <trkpt lat="53.231911" lon="9.969662"><ele>423</ele></trkpt>
      <trkpt lat="53.226728" lon="9.970986"><ele>421</ele></trkpt>
      <trkpt lat="53.219731" lon="9.968268"><ele>416</ele></trkpt>
      <trkpt lat="53.212527" lon="9.967163"><ele>411</ele></trkpt>
      <trkpt lat="53.206182" lon="9.968957"><ele>410</ele></trkpt>
      <trkpt lat="53.202590" lon="9.970189"><ele>407</ele></trkpt>
      <trkpt lat="53.195044" lon="9.970358"><ele>398</ele></trkpt>
      <trkpt lat="53.191270" lon="9.971654"><ele>382</ele></trkpt>
      <trkpt lat="53.181688" lon="9.968389"><ele>364</ele></trkpt>
      <trkpt lat="53.176678" lon="9.963966"><ele>348</ele></trkpt>
      <trkpt lat="53.167348" lon="9.964991"><ele>335</ele></trkpt>
      <trkpt lat="53.163331" lon="9.963488"><ele>322</ele></trkpt>
      <trkpt lat="53.158179" lon="9.959954"><ele>303</ele></trkpt>
      <trkpt lat="53.152594" lon="9.956745"><ele>279</ele></trkpt>
      <trkpt lat="53.147226" lon="9.954504"><ele>254</ele></trkpt>
      <trkpt lat="53.141978" lon="9.951075"><ele>234</ele></trkpt>
      <trkpt lat="53.138831" lon="9.949764"><ele>219</ele></trkpt>
      <trkpt lat="53.129637" lon="9.947881"><ele>203</ele></trkpt>
      <trkpt lat="53.119698" lon="9.945873"><ele>184</ele></trkpt>
      <trkpt lat="53.112985" lon="9.942185"><ele>161</ele></trkpt>
      <trkpt lat="53.103236" lon="9.937769"><ele>140</ele></trkpt>
      <trkpt lat="53.096331" lon="9.936323"><ele>126</ele></trkpt>
      <trkpt lat="53.091664" lon="9.934790"><ele>118</ele></trkpt>
      <trkpt lat="53.085595" lon="9.935326"><ele>110</ele></trkpt>
      <trkpt lat="53.075708" lon="9.931324"><ele>99</ele></trkpt>
      <trkpt lat="53.066378" lon="9.927361"><ele>86</ele></trkpt>
      <trkpt lat="53.058479" lon="9.928939"><ele>78</ele></trkpt>
      <trkpt lat="53.053534" lon="9.924704"><ele>77</ele></trkpt>
      <trkpt lat="53.045533" lon="9.920730"><ele>82</ele></trkpt>
      <trkpt lat="53.039303" lon="9.920424"><ele>87</ele></trkpt>
      <trkpt lat="53.031335" lon="9.915380"><ele>90</ele></trkpt>
      <trkpt lat="53.022927" lon="9.914091"><ele>91</ele></trkpt>
      <trkpt lat="53.015957" lon="9.916399"><ele>98</ele></trkpt>
      <trkpt lat="53.006027" lon="9.917232"><ele>111</ele></trkpt>
      <trkpt lat="52.999826" lon="9.917628"><ele>130</ele></trkpt>
      <trkpt lat="52.997245" lon="9.918733"><ele>147</ele></trkpt>
      <trkpt lat="52.990487" lon="9.921238"><ele>160</ele></trkpt>
      <trkpt lat="52.981465" lon="9.922471"><ele>173</ele></trkpt>
      <trkpt lat="52.976283" lon="9.922866"><ele>189</ele></trkpt>
      <trkpt lat="52.973125" lon="9.924686"><ele>212</ele></trkpt>
      <trkpt lat="52.964745" lon="9.922281"><ele>237</ele></trkpt>
      <trkpt lat="52.956913" lon="9.922474"><ele>259</ele></trkpt>
      <trkpt lat="52.947053" lon="9.918168"><ele>276</ele></trkpt>
      <trkpt lat="52.942010" lon="9.916209"><ele>291</ele></trkpt>
      <trkpt lat="52.934378" lon="9.913158"><ele>309</ele></trkpt>
      <trkpt lat="52.928644" lon="9.914530"><ele>331</ele></trkpt>
      <trkpt lat="52.918727" lon="9.909333"><ele>353</ele></trkpt>
      <trkpt lat="52.916155" lon="9.905786"><ele>369</ele></trkpt>
      <trkpt lat="52.906080" lon="9.903153"><ele>379</ele></trkpt>
      <trkpt lat="52.897022" lon="9.903419"><ele>387</ele></trkpt>
      <trkpt lat="52.889689" lon="9.898519"><ele>397</ele></trkpt>
      <trkpt lat="52.885047" lon="9.895529"><ele>409</ele></trkpt>
      <trkpt lat="52.881266" lon="9.897510"><ele>420</ele></trkpt>
      <trkpt lat="52.876828" lon="9.897492"><ele>423</ele></trkpt>
      <trkpt lat="52.866579" lon="9.893593"><ele>420</ele></trkpt>
      <trkpt lat="52.863755" lon="9.890467"><ele>414</ele></trkpt>
      <trkpt lat="52.853769" lon="9.890241"><ele>411</ele></trkpt>
      <trkpt lat="52.847379" lon="9.889865"><ele>410</ele></trkpt>
      <trkpt lat="52.839928" lon="9.887344"><ele>406</ele></trkpt>
      <trkpt lat="52.834325" lon="9.886522"><ele>394</ele></trkpt>
      <trkpt lat="52.824625" lon="9.889078"><ele>377</ele></trkpt>
      <trkpt lat="52.815410" lon="9.884168"><ele>359</ele></trkpt>
      <trkpt lat="52.810124" lon="9.881745"><ele>344</ele></trkpt>
      <trkpt lat="52.801013" lon="9.883771"><ele>332</ele></trkpt>
      <trkpt lat="52.795227" lon="9.884524"><ele>317</ele></trkpt>
      <trkpt lat="52.790214" lon="9.885833"><ele>297</ele></trkpt>
      <trkpt lat="52.784893" lon="9.886553"><ele>272</ele></trkpt>
      <trkpt lat="52.774841" lon="9.886527"><ele>248</ele></trkpt>
      <trkpt lat="52.764919" lon="9.888348"><ele>230</ele></trkpt>
      <trkpt lat="52.760606" lon="9.884228"><ele>215</ele></trkpt>
      <trkpt lat="52.757058" lon="9.884173"><ele>198</ele></trkpt>
      <trkpt lat="52.753076" lon="9.883025"><ele>178</ele></trkpt>
      <trkpt lat="52.743962" lon="9.886019"><ele>155</ele></trkpt>
      <trkpt lat="52.735904" lon="9.887057"><ele>136</ele></trkpt>
      <trkpt lat="52.732027" lon="9.889333"><ele>124</ele></trkpt>
      <trkpt lat="52.729888" lon="9.891386"><ele>116</ele></trkpt>
      <trkpt lat="52.724817" lon="9.889060"><ele>107</ele></trkpt>
      <trkpt lat="52.719124" lon="9.891735"><ele>95</ele></trkpt>
      <trkpt lat="52.715229" lon="9.887052"><ele>83</ele></trkpt>
      <trkpt lat="52.707644" lon="9.887766"><ele>77</ele></trkpt>
      <trkpt lat="52.698068" lon="9.887542"><ele>78</ele></trkpt>
      <trkpt lat="52.688652" lon="9.887675"><ele>84</ele></trkpt>
      <trkpt lat="52.685408" lon="9.887386"><ele>88</ele></trkpt>
      <trkpt lat="52.676163" lon="9.882115"><ele>90</ele></trkpt>
      <trkpt lat="52.674123" lon="9.882387"><ele>92</ele></trkpt>
      <trkpt lat="52.669831" lon="9.884724"><ele>101</ele></trkpt>
      <trkpt lat="52.660343" lon="9.886831"><ele>116</ele></trkpt>
      <trkpt lat="52.656839" lon="9.888769"><ele>135</ele></trkpt>
      <trkpt lat="52.651603" lon="9.889894"><ele>151</ele></trkpt>
      <trkpt lat="52.648157" lon="9.892062"><ele>164</ele></trkpt>
      <trkpt lat="52.641614" lon="9.892190"><ele>177</ele></trkpt>
      <trkpt lat="52.631777" lon="9.894313"><ele>195</ele></trkpt>
      <trkpt lat="52.629138" lon="9.892560"><ele>219</ele></trkpt>
      <trkpt lat="52.619344" lon="9.891495"><ele>244</ele></trkpt>
      <trkpt lat="52.611892" lon="9.888155"><ele>264</ele></trkpt>
      <trkpt lat="52.603299" lon="9.887246"><ele>280</ele></trkpt>
      <trkpt lat="52.593846" lon="9.887264"><ele>295</ele></trkpt>
      <trkpt lat="52.589261" lon="9.887512"><ele>314</ele></trkpt>
      <trkpt lat="52.580854" lon="9.882070"><ele>337</ele></trkpt>
      <trkpt lat="52.577746" lon="9.883150"><ele>358</ele></trkpt>
      <trkpt lat="52.568255" lon="9.885412"><ele>373</ele></trkpt>
      <trkpt lat="52.559307" lon="9.887380"><ele>381</ele></trkpt>
      <trkpt lat="52.549268" lon="9.887935"><ele>389</ele></trkpt>
      <trkpt lat="52.544137" lon="9.884163"><ele>400</ele></trkpt>
      <trkpt lat="52.540145" lon="9.882936"><ele>413</ele></trkpt>
      <trkpt lat="52.534969" lon="9.882424"><ele>421</ele></trkpt>
      <trkpt lat="52.525434" lon="9.885153"><ele>423</ele></trkpt>
      <trkpt lat="52.522348" lon="9.880818"><ele>418</ele></trkpt>
      <trkpt lat="52.517408" lon="9.882812"><ele>413</ele></trkpt>
      <trkpt lat="52.515469" lon="9.878423"><ele>410</ele></trkpt>
      <trkpt lat="52.507606" lon="9.880860"><ele>409</ele></trkpt>
      <trkpt lat="52.503711" lon="9.882278"><ele>403</ele></trkpt>
      <trkpt lat="52.496582" lon="9.883409"><ele>390</ele></trkpt>
      <trkpt lat="52.493389" lon="9.878900"><ele>372</ele></trkpt>
      <trkpt lat="52.488169" lon="9.881023"><ele>354</ele></trkpt>
      <trkpt lat="52.483536" lon="9.877519"><ele>341</ele></trkpt>
      <trkpt lat="52.481403" lon="9.879404"><ele>328</ele></trkpt>
      <trkpt lat="52.476225" lon="9.876769"><ele>312</ele></trkpt>
      <trkpt lat="52.473616" lon="9.879244"><ele>290</ele></trkpt>
      <trkpt lat="52.471849" lon="9.874480"><ele>265</ele></trkpt>
      <trkpt lat="52.463402" lon="9.868874"><ele>242</ele></trkpt>
      <trkpt lat="52.459035" lon="9.866312"><ele>225</ele></trkpt>
      <trkpt lat="52.449111" lon="9.866407"><ele>211</ele></trkpt>
      <trkpt lat="52.446542" lon="9.864977"><ele>193</ele></trkpt>
      <trkpt lat="52.439657" lon="9.859836"><ele>171</ele></trkpt>
      <trkpt lat="52.432258" lon="9.860016"><ele>149</ele></trkpt>
      <trkpt lat="52.427517" lon="9.855011"><ele>132</ele></trkpt>
      <trkpt lat="52.416999" lon="9.854674"><ele>121</ele></trkpt>
      <trkpt lat="52.406123" lon="9.850492"><ele>114</ele></trkpt>
      <trkpt lat="52.400425" lon="9.847265"><ele>104</ele></trkpt>
      <trkpt lat="52.391831" lon="9.846103"><ele>92</ele></trkpt>
      <trkpt lat="52.389054" lon="9.841073"><ele>81</ele></trkpt>
      <trkpt lat="52.384241" lon="9.840894"><ele>77</ele></trkpt>
      <trkpt lat="52.376840" lon="9.836087"><ele>80</ele></trkpt>
      <trkpt lat="52.374078" lon="9.833178"><ele>85</ele></trkpt>
      <trkpt lat="52.371291" lon="9.834158"><ele>89</ele></trkpt>
      <trkpt lat="52.361762" lon="9.832377"><ele>90</ele></trkpt>
      <trkpt lat="52.355717" lon="9.832225"><ele>94</ele></trkpt>
      <trkpt lat="52.346976" lon="9.827848"><ele>104</ele></trkpt>
      <trkpt lat="52.341387" lon="9.828923"><ele>121</ele></trkpt>
      <trkpt lat="52.336721" lon="9.826157"><ele>140</ele></trkpt>
      <trkpt lat="52.329829" lon="9.822093"><ele>155</ele></trkpt>
      <trkpt lat="52.323240" lon="9.824902"><ele>167</ele></trkpt>
      <trkpt lat="52.316172" lon="9.825615"><ele>181</ele></trkpt>
      <trkpt lat="52.305690" lon="9.824437"><ele>201</ele></trkpt>
      <trkpt lat="52.290107" lon="9.822835"><ele>226</ele></trkpt>
      <trkpt lat="52.272566" lon="9.827532"><ele>250</ele></trkpt>
      <trkpt lat="52.257786" lon="9.824139"><ele>269</ele></trkpt>
      <trkpt lat="52.242474" lon="9.821322"><ele>284</ele></trkpt>
      <trkpt lat="52.232140" lon="9.820738"><ele>300</ele></trkpt>
      <trkpt lat="52.217419" lon="9.824943"><ele>321</ele></trkpt>
      <trkpt lat="52.203375" lon="9.830014"><ele>343</ele></trkpt>
      <trkpt lat="52.192286" lon="9.827577"><ele>363</ele></trkpt>
      <trkpt lat="52.183352" lon="9.830253"><ele>376</ele></trkpt>
      <trkpt lat="52.164925" lon="9.830784"><ele>383</ele></trkpt>
      <trkpt lat="52.155328" lon="9.827220"><ele>392</ele></trkpt>
      <trkpt lat="52.142582" lon="9.829694"><ele>404</ele></trkpt>
      <trkpt lat="52.126385" lon="9.829774"><ele>416</ele></trkpt>
      <trkpt lat="52.116613" lon="9.831047"><ele>423</ele></trkpt>
      <trkpt lat="52.102134" lon="9.832359"><ele>422</ele></trkpt>
      <trkpt lat="52.086021" lon="9.830291"><ele>417</ele></trkpt>
      <trkpt lat="52.076554" lon="9.835105"><ele>412</ele></trkpt>
      <trkpt lat="52.064206" lon="9.834891"><ele>410</ele></trkpt>
      <trkpt lat="52.053986" lon="9.839729"><ele>408</ele></trkpt>
      <trkpt lat="52.043871" lon="9.844375"><ele>400</ele></trkpt>
      <trkpt lat="52.028643" lon="9.844998"><ele>385</ele></trkpt>
      <trkpt lat="52.018882" lon="9.843576"><ele>367</ele></trkpt>
      <trkpt lat="52.001778" lon="9.840616"><ele>350</ele></trkpt>
      <trkpt lat="51.990796" lon="9.843571"><ele>337</ele></trkpt>
      <trkpt lat="51.976899" lon="9.846176"><ele>325</ele></trkpt>
      <trkpt lat="51.962633" lon="9.850783"><ele>307</ele></trkpt>
      <trkpt lat="51.950913" lon="9.851331"><ele>283</ele></trkpt>
      <trkpt lat="51.935020" lon="9.854589"><ele>258</ele></trkpt>
      <trkpt lat="51.924530" lon="9.852428"><ele>237</ele></trkpt>
      <trkpt lat="51.908111" lon="9.858021"><ele>221</ele></trkpt>
      <trkpt lat="51.897162" lon="9.854714"><ele>206</ele></trkpt>
      <trkpt lat="51.885694" lon="9.855606"><ele>187</ele></trkpt>
      <trkpt lat="51.875087" lon="9.853606"><ele>165</ele></trkpt>
      <trkpt lat="51.865916" lon="9.858824"><ele>143</ele></trkpt>
      <trkpt lat="51.853650" lon="9.861732"><ele>128</ele></trkpt>
      <trkpt lat="51.844865" lon="9.861317"><ele>119</ele></trkpt>
      <trkpt lat="51.827442" lon="9.861678"><ele>111</ele></trkpt>
      <trkpt lat="51.818131" lon="9.862384"><ele>101</ele></trkpt>
      <trkpt lat="51.804612" lon="9.862053"><ele>88</ele></trkpt>
      <trkpt lat="51.787714" lon="9.858543"><ele>79</ele></trkpt>
      <trkpt lat="51.776916" lon="9.861336"><ele>77</ele></trkpt>
      <trkpt lat="51.759868" lon="9.861288"><ele>81</ele></trkpt>
      <trkpt lat="51.744762" lon="9.861067"><ele>87</ele></trkpt>
      <trkpt lat="51.731983" lon="9.858319"><ele>89</ele></trkpt>
      <trkpt lat="51.715280" lon="9.863228"><ele>91</ele></trkpt>
      <trkpt lat="51.703910" lon="9.863335"><ele>96</ele></trkpt>
      <trkpt lat="51.689696" lon="9.869077"><ele>109</ele></trkpt>
      <trkpt lat="51.673183" lon="9.871284"><ele>127</ele></trkpt>
      <trkpt lat="51.661747" lon="9.876130"><ele>144</ele></trkpt>
      <trkpt lat="51.650200" lon="9.882131"><ele>158</ele></trkpt>
      <trkpt lat="51.639470" lon="9.883896"><ele>170</ele></trkpt>
      <trkpt lat="51.623585" lon="9.886831"><ele>186</ele></trkpt>
      <trkpt lat="51.608956" lon="9.888411"><ele>208</ele></trkpt>
      <trkpt lat="51.591568" lon="9.888293"><ele>233</ele></trkpt>
      <trkpt lat="51.576497" lon="9.889118"><ele>256</ele></trkpt>
      <trkpt lat="51.560633" lon="9.888362"><ele>273</ele></trkpt>
      <trkpt lat="51.544072" lon="9.891240"><ele>288</ele></trkpt>
      <trkpt lat="51.528931" lon="9.892051"><ele>305</ele></trkpt>
      <trkpt lat="51.510706" lon="9.890653"><ele>327</ele></trkpt>
      <trkpt lat="51.494738" lon="9.887776"><ele>349</ele></trkpt>
      <trkpt lat="51.478924" lon="9.886932"><ele>367</ele></trkpt>
      <trkpt lat="51.468708" lon="9.892895"><ele>378</ele></trkpt>
      <trkpt lat="51.455624" lon="9.894972"><ele>386</ele></trkpt>
      <trkpt lat="51.441431" lon="9.892254"><ele>395</ele></trkpt>
      <trkpt lat="51.431963" lon="9.894633"><ele>407</ele></trkpt>
      <trkpt lat="51.414676" lon="9.896297"><ele>418</ele></trkpt>
      <trkpt lat="51.396789" lon="9.900566"><ele>423</ele></trkpt>
      <trkpt lat="51.378991" lon="9.904722"><ele>421</ele></trkpt>
      <trkpt lat="51.364028" lon="9.905956"><ele>415</ele></trkpt>
      <trkpt lat="51.346738" lon="9.911034"><ele>411</ele></trkpt>
      <trkpt lat="51.334803" lon="9.915294"><ele>410</ele></trkpt>
      <trkpt lat="51.323651" lon="9.920987"><ele>407</ele></trkpt>
      <trkpt lat="51.309516" lon="9.922362"><ele>397</ele></trkpt>
      <trkpt lat="51.298814" lon="9.919431"><ele>380</ele></trkpt>
      <trkpt lat="51.286366" lon="9.922468"><ele>362</ele></trkpt>
      <trkpt lat="51.276259" lon="9.926007"><ele>346</ele></trkpt>
      <trkpt lat="51.267614" lon="9.927676"><ele>334</ele></trkpt>
      <trkpt lat="51.249391" lon="9.932713"><ele>320</ele></trkpt>
      <trkpt lat="51.235421" lon="9.937657"><ele>300</ele></trkpt>
      <trkpt lat="51.221745" lon="9.941748"><ele>276</ele></trkpt>
      <trkpt lat="51.204119" lon="9.947646"><ele>252</ele></trkpt>
      <trkpt lat="51.185828" lon="9.944620"><ele>232</ele></trkpt>
      <trkpt lat="51.176588" lon="9.949353"><ele>217</ele></trkpt>
      <trkpt lat="51.164314" lon="9.949435"><ele>202</ele></trkpt>
      <trkpt lat="51.147121" lon="9.949572"><ele>181</ele></trkpt>
      <trkpt lat="51.135947" lon="9.955178"><ele>158</ele></trkpt>
      <trkpt lat="51.123892" lon="9.955395"><ele>138</ele></trkpt>
      <trkpt lat="51.110971" lon="9.958155"><ele>125</ele></trkpt>
      <trkpt lat="51.099340" lon="9.963857"><ele>117</ele></trkpt>
      <trkpt lat="51.089118" lon="9.967447"><ele>109</ele></trkpt>
      <trkpt lat="51.077044" lon="9.968030"><ele>98</ele></trkpt>
      <trkpt lat="51.065677" lon="9.972771"><ele>85</ele></trkpt>
      <trkpt lat="51.049029" lon="9.970589"><ele>78</ele></trkpt>
      <trkpt lat="51.039142" lon="9.969648"><ele>78</ele></trkpt>
      <trkpt lat="51.027749" lon="9.969968"><ele>83</ele></trkpt>
      <trkpt lat="51.016706" lon="9.973420"><ele>88</ele></trkpt>
      <trkpt lat="51.002281" lon="9.973236"><ele>90</ele></trkpt>
      <trkpt lat="50.991675" lon="9.975169"><ele>92</ele></trkpt>
      <trkpt lat="50.978611" lon="9.973937"><ele>99</ele></trkpt>
      <trkpt lat="50.969709" lon="9.979152"><ele>113</ele></trkpt>
      <trkpt lat="50.959171" lon="9.982169"><ele>132</ele></trkpt>
      <trkpt lat="50.948582" lon="9.982973"><ele>149</ele></trkpt>
      <trkpt lat="50.937127" lon="9.988258"><ele>162</ele></trkpt>
      <trkpt lat="50.918997" lon="9.988217"><ele>174</ele></trkpt>
      <trkpt lat="50.906224" lon="9.990430"><ele>192</ele></trkpt>
      <trkpt lat="50.891762" lon="9.990887"><ele>215</ele></trkpt>
      <trkpt lat="50.877265" lon="9.990951"><ele>240</ele></trkpt>
      <trkpt lat="50.859518" lon="9.987503"><ele>261</ele></trkpt>
      <trkpt lat="50.847711" lon="9.984290"><ele>277</ele></trkpt>
      <trkpt lat="50.838893" lon="9.984306"><ele>292</ele></trkpt>
      <trkpt lat="50.821080" lon="9.984847"><ele>311</ele></trkpt>
      <trkpt lat="50.812004" lon="9.983591"><ele>333</ele></trkpt>
      <trkpt lat="50.798237" lon="9.981023"><ele>355</ele></trkpt>
      <trkpt lat="50.783668" lon="9.982723"><ele>371</ele></trkpt>
      <trkpt lat="50.772937" lon="9.986173"><ele>380</ele></trkpt>
      <trkpt lat="50.763901" lon="9.987937"><ele>388</ele></trkpt>
      <trkpt lat="50.749232" lon="9.986474"><ele>398</ele></trkpt>
      <trkpt lat="50.732937" lon="9.986718"><ele>411</ele></trkpt>
      <trkpt lat="50.718864" lon="9.989242"><ele>420</ele></trkpt>
      <trkpt lat="50.708447" lon="9.988788"><ele>423</ele></trkpt>
      <trkpt lat="50.691733" lon="9.984967"><ele>419</ele></trkpt>
      <trkpt lat="50.673403" lon="9.987848"><ele>414</ele></trkpt>
      <trkpt lat="50.663357" lon="9.989606"><ele>411</ele></trkpt>
      <trkpt lat="50.654401" lon="9.992091"><ele>409</ele></trkpt>
      <trkpt lat="50.637903" lon="9.993756"><ele>405</ele></trkpt>
      <trkpt lat="50.620056" lon="9.993809"><ele>393</ele></trkpt>
      <trkpt lat="50.606380" lon="9.998142"><ele>375</ele></trkpt>
      <trkpt lat="50.589167" lon="10.004131"><ele>357</ele></trkpt>
      <trkpt lat="50.574129" lon="10.005061"><ele>343</ele></trkpt>
      <trkpt lat="50.559409" lon="10.001660"><ele>331</ele></trkpt>
      <trkpt lat="50.542920" lon="9.998950"><ele>315</ele></trkpt>
      <trkpt lat="50.527263" lon="9.998540"><ele>294</ele></trkpt>
      <trkpt lat="50.517507" lon="9.997780"><ele>269</ele></trkpt>
      <trkpt lat="50.499266" lon="10.001389"><ele>246</ele></trkpt>
      <trkpt lat="50.487424" lon="10.002771"><ele>228</ele></trkpt>
      <trkpt lat="50.477316" lon="9.999199"><ele>213</ele></trkpt>
      <trkpt lat="50.459247" lon="10.000886"><ele>196</ele></trkpt>
      <trkpt lat="50.448193" lon="10.002134"><ele>175</ele></trkpt>
      <trkpt lat="50.436225" lon="9.999513"><ele>152</ele></trkpt>
      <trkpt lat="50.419948" lon="10.003225"><ele>134</ele></trkpt>
      <trkpt lat="50.406316" lon="10.002719"><ele>123</ele></trkpt>
      <trkpt lat="50.397126" lon="10.004160"><ele>115</ele></trkpt>
      <trkpt lat="50.379810" lon="10.001119"><ele>106</ele></trkpt>
      <trkpt lat="50.368042" lon="10.005085"><ele>94</ele></trkpt>
      <trkpt lat="50.354901" lon="10.006522"><ele>82</ele></trkpt>
      <trkpt lat="50.345006" lon="10.008504"><ele>77</ele></trkpt>
      <trkpt lat="50.327369" lon="10.008589"><ele>79</ele></trkpt>
      <trkpt lat="50.313753" lon="10.004825"><ele>85</ele></trkpt>
      <trkpt lat="50.297478" lon="10.006378"><ele>89</ele></trkpt>
      <trkpt lat="50.281789" lon="10.007218"><ele>90</ele></trkpt>
      <trkpt lat="50.267203" lon="10.004988"><ele>93</ele></trkpt>
      <trkpt lat="50.253000" lon="10.003081"><ele>102</ele></trkpt>
      <trkpt lat="50.236022" lon="10.004941"><ele>118</ele></trkpt>
      <trkpt lat="50.220190" lon="10.006020"><ele>137</ele></trkpt>
      <trkpt lat="50.203735" lon="10.005928"><ele>152</ele></trkpt>
      <trkpt lat="50.190735" lon="10.005100"><ele>165</ele></trkpt>
      <trkpt lat="50.174283" lon="10.006219"><ele>178</ele></trkpt>
      <trkpt lat="50.160379" lon="10.002970"><ele>198</ele></trkpt>
      <trkpt lat="50.145171" lon="10.002760"><ele>222</ele></trkpt>
      <trkpt lat="50.129706" lon="10.006758"><ele>246</ele></trkpt>
      <trkpt lat="50.111469" lon="10.005781"><ele>266</ele></trkpt>
      <trkpt lat="50.098577" lon="10.004430"><ele>281</ele></trkpt>
      <trkpt lat="50.084101" lon="10.007541"><ele>297</ele></trkpt>
      <trkpt lat="50.074681" lon="10.004327"><ele>317</ele></trkpt>
      <trkpt lat="50.059226" lon="10.010102"><ele>340</ele></trkpt>
      <trkpt lat="50.042294" lon="10.011961"><ele>360</ele></trkpt>
      <trkpt lat="50.031956" lon="10.015648"><ele>374</ele></trkpt>
      <trkpt lat="50.015454" lon="10.020233"><ele>382</ele></trkpt>
      <trkpt lat="50.006248" lon="10.018962"><ele>390</ele></trkpt>
      <trkpt lat="49.995673" lon="10.021949"><ele>401</ele></trkpt>
      <trkpt lat="49.982708" lon="10.025727"><ele>414</ele></trkpt>
      <trkpt lat="49.968892" lon="10.030727"><ele>422</ele></trkpt>
      <trkpt lat="49.959760" lon="10.032111"><ele>423</ele></trkpt>
      <trkpt lat="49.946996" lon="10.030457"><ele>418</ele></trkpt>
      <trkpt lat="49.935245" lon="10.031314"><ele>412</ele></trkpt>
      <trkpt lat="49.917206" lon="10.031548"><ele>410</ele></trkpt>
      <trkpt lat="49.900783" lon="10.033913"><ele>409</ele></trkpt>
      <trkpt lat="49.889618" lon="10.035954"><ele>402</ele></trkpt>
      <trkpt lat="49.879318" lon="10.035221"><ele>388</ele></trkpt>
      <trkpt lat="49.868224" lon="10.039002"><ele>370</ele></trkpt>
      <trkpt lat="49.859153" lon="10.035678"><ele>353</ele></trkpt>
      <trkpt lat="49.849131" lon="10.032771"><ele>339</ele></trkpt>
      <trkpt lat="49.834554" lon="10.031083"><ele>327</ele></trkpt>
      <trkpt lat="49.816984" lon="10.030360"><ele>310</ele></trkpt>
      <trkpt lat="49.801781" lon="10.033198"><ele>287</ele></trkpt>
      <trkpt lat="49.785245" lon="10.036114"><ele>262</ele></trkpt>
      <trkpt lat="49.771793" lon="10.041107"><ele>240</ele></trkpt>
      <trkpt lat="49.756499" lon="10.046777"><ele>224</ele></trkpt>
      <trkpt lat="49.741276" lon="10.045917"><ele>209</ele></trkpt>
      <trkpt lat="49.729697" lon="10.047402"><ele>191</ele></trkpt>
      <trkpt lat="49.726607" lon="10.055742"><ele>169</ele></trkpt>
      <trkpt lat="49.716685" lon="10.058915"><ele>147</ele></trkpt>
      <trkpt lat="49.713621" lon="10.062555"><ele>130</ele></trkpt>
      <trkpt lat="49.704026" lon="10.069802"><ele>120</ele></trkpt>
      <trkpt lat="49.699136" lon="10.075978"><ele>113</ele></trkpt>
      <trkpt lat="49.696416" lon="10.078408"><ele>103</ele></trkpt>
      <trkpt lat="49.684381" lon="10.083867"><ele>90</ele></trkpt>
      <trkpt lat="49.679303" lon="10.084404"><ele>80</ele></trkpt>
      <trkpt lat="49.673821" lon="10.084722"><ele>77</ele></trkpt>
      <trkpt lat="49.665145" lon="10.085973"><ele>80</ele></trkpt>
      <trkpt lat="49.659035" lon="10.094154"><ele>86</ele></trkpt>
      <trkpt lat="49.654483" lon="10.099993"><ele>89</ele></trkpt>
      <trkpt lat="49.647396" lon="10.105071"><ele>90</ele></trkpt>
      <trkpt lat="49.637734" lon="10.112115"><ele>95</ele></trkpt>
      <trkpt lat="49.633374" lon="10.113051"><ele>106</ele></trkpt>
      <trkpt lat="49.628603" lon="10.118805"><ele>123</ele></trkpt>
      <trkpt lat="49.617567" lon="10.124396"><ele>142</ele></trkpt>
      <trkpt lat="49.611107" lon="10.128577"><ele>156</ele></trkpt>
      <trkpt lat="49.604818" lon="10.130101"><ele>168</ele></trkpt>
      <trkpt lat="49.598082" lon="10.132917"><ele>183</ele></trkpt>
      <trkpt lat="49.588637" lon="10.135062"><ele>204</ele></trkpt>
      <trkpt lat="49.581117" lon="10.137352"><ele>229</ele></trkpt>
      <trkpt lat="49.570834" lon="10.144277"><ele>253</ele></trkpt>
      <trkpt lat="49.560530" lon="10.148826"><ele>271</ele></trkpt>
      <trkpt lat="49.553984" lon="10.151852"><ele>285</ele></trkpt>
      <trkpt lat="49.548069" lon="10.152637"><ele>302</ele></trkpt>
      <trkpt lat="49.542400" lon="10.158425"><ele>323</ele></trkpt>
      <trkpt lat="49.536280" lon="10.158829"><ele>346</ele></trkpt>
      <trkpt lat="49.531872" lon="10.163271"><ele>365</ele></trkpt>
      <trkpt lat="49.522698" lon="10.164208"><ele>377</ele></trkpt>
      <trkpt lat="49.519396" lon="10.169085"><ele>384</ele></trkpt>
      <trkpt lat="49.508853" lon="10.173002"><ele>393</ele></trkpt>
      <trkpt lat="49.499904" lon="10.176502"><ele>405</ele></trkpt>
      <trkpt lat="49.489357" lon="10.185415"><ele>417</ele></trkpt>
      <trkpt lat="49.486190" lon="10.190502"><ele>423</ele></trkpt>
      <trkpt lat="49.480338" lon="10.193763"><ele>422</ele></trkpt>
      <trkpt lat="49.469919" lon="10.200632"><ele>416</ele></trkpt>
      <trkpt lat="49.466068" lon="10.203802"><ele>412</ele></trkpt>
      <trkpt lat="49.456014" lon="10.205361"><ele>410</ele></trkpt>
      <trkpt lat="49.449993" lon="10.209684"><ele>408</ele></trkpt>
      <trkpt lat="49.438828" lon="10.217850"><ele>399</ele></trkpt>
      <trkpt lat="49.435028" lon="10.220319"><ele>383</ele></trkpt>
      <trkpt lat="49.429694" lon="10.226983"><ele>365</ele></trkpt>
      <trkpt lat="49.419990" lon="10.227983"><ele>349</ele></trkpt>
      <trkpt lat="49.410578" lon="10.234887"><ele>336</ele></trkpt>
      <trkpt lat="49.401268" lon="10.241710"><ele>323</ele></trkpt>
      <trkpt lat="49.390492" lon="10.247618"><ele>304</ele></trkpt>
      <trkpt lat="49.384877" lon="10.248303"><ele>280</ele></trkpt>
      <trkpt lat="49.381845" lon="10.253481"><ele>255</ele></trkpt>
      <trkpt lat="49.372141" lon="10.256892"><ele>235</ele></trkpt>
      <trkpt lat="49.362323" lon="10.265939"><ele>220</ele></trkpt>
      <trkpt lat="49.351900" lon="10.270967"><ele>204</ele></trkpt>
      <trkpt lat="49.348205" lon="10.271523"><ele>185</ele></trkpt>
      <trkpt lat="49.342605" lon="10.279540"><ele>162</ele></trkpt>
      <trkpt lat="49.337157" lon="10.286898"><ele>141</ele></trkpt>
      <trkpt lat="49.331509" lon="10.287720"><ele>127</ele></trkpt>
      <trkpt lat="49.323258" lon="10.289441"><ele>118</ele></trkpt>
      <trkpt lat="49.314508" lon="10.298606"><ele>111</ele></trkpt>
      <trkpt lat="49.306884" lon="10.306099"><ele>100</ele></trkpt>
      <trkpt lat="49.301639" lon="10.310201"><ele>87</ele></trkpt>
      <trkpt lat="49.293997" lon="10.315028"><ele>78</ele></trkpt>
      <trkpt lat="49.289655" lon="10.316910"><ele>77</ele></trkpt>
      <trkpt lat="49.284200" lon="10.324936"><ele>82</ele></trkpt>
      <trkpt lat="49.278950" lon="10.332723"><ele>87</ele></trkpt>
      <trkpt lat="49.273042" lon="10.334425"><ele>90</ele></trkpt>
      <trkpt lat="49.265930" lon="10.337845"><ele>91</ele></trkpt>
      <trkpt lat="49.254962" lon="10.345546"><ele>97</ele></trkpt>
      <trkpt lat="49.244980" lon="10.346306"><ele>110</ele></trkpt>
      <trkpt lat="49.239536" lon="10.347327"><ele>129</ele></trkpt>
      <trkpt lat="49.229920" lon="10.356185"><ele>146</ele></trkpt>
      <trkpt lat="49.221189" lon="10.357255"><ele>160</ele></trkpt>
      <trkpt lat="49.217631" lon="10.360967"><ele>172</ele></trkpt>
      <trkpt lat="49.214369" lon="10.363249"><ele>188</ele></trkpt>
      <trkpt lat="49.207680" lon="10.371898"><ele>211</ele></trkpt>
      <trkpt lat="49.196710" lon="10.376303"><ele>236</ele></trkpt>
      <trkpt lat="49.192338" lon="10.378742"><ele>258</ele></trkpt>
      <trkpt lat="49.186726" lon="10.379854"><ele>275</ele></trkpt>
      <trkpt lat="49.179240" lon="10.385792"><ele>290</ele></trkpt>
      <trkpt lat="49.168472" lon="10.387074"><ele>307</ele></trkpt>
      <trkpt lat="49.162934" lon="10.389249"><ele>329</ele></trkpt>
      <trkpt lat="49.152726" lon="10.396554"><ele>352</ele></trkpt>
      <trkpt lat="49.141525" lon="10.405042"><ele>369</ele></trkpt>
      <trkpt lat="49.135657" lon="10.408557"><ele>379</ele></trkpt>
      <trkpt lat="49.128656" lon="10.413473"><ele>386</ele></trkpt>
      <trkpt lat="49.121224" lon="10.422088"><ele>396</ele></trkpt>
      <trkpt lat="49.115095" lon="10.427099"><ele>409</ele></trkpt>
      <trkpt lat="49.108824" lon="10.433760"><ele>419</ele></trkpt>
      <trkpt lat="49.098258" lon="10.438823"><ele>423</ele></trkpt>
      <trkpt lat="49.090652" lon="10.445646"><ele>420</ele></trkpt>
      <trkpt lat="49.083582" lon="10.454392"><ele>414</ele></trkpt>
      <trkpt lat="49.073425" lon="10.455674"><ele>411</ele></trkpt>
      <trkpt lat="49.069043" lon="10.457621"><ele>410</ele></trkpt>
      <trkpt lat="49.057595" lon="10.465168"><ele>406</ele></trkpt>
      <trkpt lat="49.050343" lon="10.467071"><ele>395</ele></trkpt>
      <trkpt lat="49.043243" lon="10.471528"><ele>378</ele></trkpt>
      <trkpt lat="49.032767" lon="10.475666"><ele>360</ele></trkpt>
      <trkpt lat="49.024989" lon="10.482778"><ele>345</ele></trkpt>
      <trkpt lat="49.014399" lon="10.486815"><ele>333</ele></trkpt>
      <trkpt lat="49.007923" lon="10.492589"><ele>318</ele></trkpt>
      <trkpt lat="49.000786" lon="10.494657"><ele>298</ele></trkpt>
      <trkpt lat="48.995977" lon="10.503246"><ele>273</ele></trkpt>
      <trkpt lat="48.991934" lon="10.505304"><ele>249</ele></trkpt>
      <trkpt lat="48.981539" lon="10.513594"><ele>231</ele></trkpt>
      <trkpt lat="48.977906" lon="10.519609"><ele>216</ele></trkpt>
      <trkpt lat="48.972103" lon="10.521496"><ele>200</ele></trkpt>
      <trkpt lat="48.964362" lon="10.524195"><ele>179</ele></trkpt>
      <trkpt lat="48.959237" lon="10.532773"><ele>156</ele></trkpt>
      <trkpt lat="48.952957" lon="10.536825"><ele>137</ele></trkpt>
      <trkpt lat="48.941937" lon="10.540915"><ele>124</ele></trkpt>
      <trkpt lat="48.931196" lon="10.545438"><ele>116</ele></trkpt>
      <trkpt lat="48.922083" lon="10.551133"><ele>108</ele></trkpt>
      <trkpt lat="48.914717" lon="10.559281"><ele>96</ele></trkpt>
      <trkpt lat="48.909059" lon="10.560466"><ele>84</ele></trkpt>
      <trkpt lat="48.900623" lon="10.563425"><ele>77</ele></trkpt>
      <trkpt lat="48.896417" lon="10.569674"><ele>78</ele></trkpt>
      <trkpt lat="48.885582" lon="10.575760"><ele>84</ele></trkpt>
      <trkpt lat="48.874476" lon="10.580550"><ele>88</ele></trkpt>
      <trkpt lat="48.869732" lon="10.583614"><ele>90</ele></trkpt>
      <trkpt lat="48.860557" lon="10.586595"><ele>92</ele></trkpt>
      <trkpt lat="48.852365" lon="10.594293"><ele>100</ele></trkpt>
      <trkpt lat="48.846593" lon="10.597941"><ele>115</ele></trkpt>
      <trkpt lat="48.842287" lon="10.599827"><ele>134</ele></trkpt>
      <trkpt lat="48.834785" lon="10.603885"><ele>150</ele></trkpt>
      <trkpt lat="48.828327" lon="10.610147"><ele>163</ele></trkpt>
      <trkpt lat="48.818891" lon="10.614868"><ele>176</ele></trkpt>
      <trkpt lat="48.808679" lon="10.616994"><ele>194</ele></trkpt>
      <trkpt lat="48.801457" lon="10.622186"><ele>218</ele></trkpt>
      <trkpt lat="48.794304" lon="10.624281"><ele>243</ele></trkpt>
      <trkpt lat="48.786023" lon="10.626133"><ele>263</ele></trkpt>
      <trkpt lat="48.781027" lon="10.629510"><ele>279</ele></trkpt>
      <trkpt lat="48.770638" lon="10.633999"><ele>294</ele></trkpt>
      <trkpt lat="48.763928" lon="10.637094"><ele>313</ele></trkpt>
      <trkpt lat="48.753439" lon="10.638780"><ele>336</ele></trkpt>
      <trkpt lat="48.742905" lon="10.640363"><ele>357</ele></trkpt>
      <trkpt lat="48.735469" lon="10.646143"><ele>372</ele></trkpt>
      <trkpt lat="48.726724" lon="10.650099"><ele>381</ele></trkpt>
      <trkpt lat="48.721184" lon="10.651572"><ele>389</ele></trkpt>
      <trkpt lat="48.715976" lon="10.655003"><ele>399</ele></trkpt>
      <trkpt lat="48.706616" lon="10.659366"><ele>412</ele></trkpt>
      <trkpt lat="48.701638" lon="10.662416"><ele>421</ele></trkpt>
      <trkpt lat="48.695530" lon="10.670354"><ele>423</ele></trkpt>
      <trkpt lat="48.687900" lon="10.675027"><ele>419</ele></trkpt>
      <trkpt lat="48.679943" lon="10.680971"><ele>413</ele></trkpt>
      <trkpt lat="48.675597" lon="10.685350"><ele>411</ele></trkpt>
      <trkpt lat="48.664785" lon="10.687993"><ele>409</ele></trkpt>
      <trkpt lat="48.659497" lon="10.693483"><ele>404</ele></trkpt>
      <trkpt lat="48.649251" lon="10.699834"><ele>391</ele></trkpt>
      <trkpt lat="48.639908" lon="10.705881"><ele>373</ele></trkpt>
      <trkpt lat="48.634018" lon="10.709725"><ele>355</ele></trkpt>
      <trkpt lat="48.623450" lon="10.714070"><ele>341</ele></trkpt>
      <trkpt lat="48.613866" lon="10.718088"><ele>329</ele></trkpt>
      <trkpt lat="48.608148" lon="10.721636"><ele>313</ele></trkpt>
      <trkpt lat="48.599233" lon="10.726150"><ele>291</ele></trkpt>
      <trkpt lat="48.590952" lon="10.732613"><ele>266</ele></trkpt>
      <trkpt lat="48.583101" lon="10.734514"><ele>244</ele></trkpt>
      <trkpt lat="48.578281" lon="10.741364"><ele>226</ele></trkpt>
      <trkpt lat="48.568951" lon="10.747796"><ele>212</ele></trkpt>
      <trkpt lat="48.563126" lon="10.752884"><ele>194</ele></trkpt>
      <trkpt lat="48.552899" lon="10.759066"><ele>172</ele></trkpt>
      <trkpt lat="48.545631" lon="10.762337"><ele>150</ele></trkpt>
      <trkpt lat="48.537761" lon="10.764761"><ele>133</ele></trkpt>
      <trkpt lat="48.533263" lon="10.769260"><ele>122</ele></trkpt>
      <trkpt lat="48.524678" lon="10.771885"><ele>114</ele></trkpt>
      <trkpt lat="48.517721" lon="10.774435"><ele>105</ele></trkpt>
      <trkpt lat="48.509392" lon="10.777192"><ele>93</ele></trkpt>
      <trkpt lat="48.499121" lon="10.779497"><ele>81</ele></trkpt>
      <trkpt lat="48.492752" lon="10.782659"><ele>77</ele></trkpt>
      <trkpt lat="48.487231" lon="10.789924"><ele>79</ele></trkpt>
      <trkpt lat="48.482567" lon="10.794932"><ele>85</ele></trkpt>
      <trkpt lat="48.473003" lon="10.800634"><ele>89</ele></trkpt>
      <trkpt lat="48.468694" lon="10.803503"><ele>90</ele></trkpt>
      <trkpt lat="48.464012" lon="10.809032"><ele>94</ele></trkpt>
      <trkpt lat="48.455524" lon="10.810967"><ele>104</ele></trkpt>
      <trkpt lat="48.447313" lon="10.813746"><ele>120</ele></trkpt>
      <trkpt lat="48.440143" lon="10.820901"><ele>139</ele></trkpt>
      <trkpt lat="48.430636" lon="10.823136"><ele>154</ele></trkpt>
      <trkpt lat="48.423980" lon="10.827609"><ele>166</ele></trkpt>
      <trkpt lat="48.414751" lon="10.832272"><ele>180</ele></trkpt>
      <trkpt lat="48.408140" lon="10.836368"><ele>200</ele></trkpt>
      <trkpt lat="48.402890" lon="10.840951"><ele>225</ele></trkpt>
      <trkpt lat="48.393069" lon="10.845776"><ele>249</ele></trkpt>
      <trkpt lat="48.384040" lon="10.850984"><ele>268</ele></trkpt>
      <trkpt lat="48.374860" lon="10.854721"><ele>283</ele></trkpt>
      <trkpt lat="48.368201" lon="10.858204"><ele>299</ele></trkpt>
      <trkpt lat="48.361167" lon="10.864881"><ele>319</ele></trkpt>
      <trkpt lat="48.351213" lon="10.869485"><ele>342</ele></trkpt>
      <trkpt lat="48.342182" lon="10.874789"><ele>362</ele></trkpt>
      <trkpt lat="48.336251" lon="10.879318"><ele>375</ele></trkpt>
      <trkpt lat="48.327444" lon="10.881876"><ele>383</ele></trkpt>
      <trkpt lat="48.322989" lon="10.882808"><ele>391</ele></trkpt>
      <trkpt lat="48.319919" lon="10.880516"><ele>403</ele></trkpt>
      <trkpt lat="48.316913" lon="10.876076"><ele>415</ele></trkpt>
      <trkpt lat="48.313692" lon="10.870921"><ele>422</ele></trkpt>
      <trkpt lat="48.311038" lon="10.867454"><ele>422</ele></trkpt>
      <trkpt lat="48.305085" lon="10.865817"><ele>417</ele></trkpt>
      <trkpt lat="48.302212" lon="10.864419"><ele>412</ele></trkpt>
      <trkpt lat="48.298829" lon="10.860334"><ele>410</ele></trkpt>
      <trkpt lat="48.293911" lon="10.859728"><ele>408</ele></trkpt>
      <trkpt lat="48.286439" lon="10.854068"><ele>401</ele></trkpt>
      <trkpt lat="48.281400" lon="10.851813"><ele>386</ele></trkpt>
      <trkpt lat="48.274945" lon="10.848193"><ele>368</ele></trkpt>
      <trkpt lat="48.268919" lon="10.847170"><ele>351</ele></trkpt>
      <trkpt lat="48.266292" lon="10.845792"><ele>338</ele></trkpt>
      <trkpt lat="48.262158" lon="10.842800"><ele>325</ele></trkpt>
      <trkpt lat="48.259422" lon="10.838558"><ele>308</ele></trkpt>
      <trkpt lat="48.255644" lon="10.833927"><ele>284</ele></trkpt>
      <trkpt lat="48.252741" lon="10.828584"><ele>259</ele></trkpt>
      <trkpt lat="48.248152" lon="10.825126"><ele>238</ele></trkpt>
      <trkpt lat="48.242508" lon="10.820108"><ele>222</ele></trkpt>
      <trkpt lat="48.238372" lon="10.817500"><ele>207</ele></trkpt>
      <trkpt lat="48.231725" lon="10.815887"><ele>189</ele></trkpt>
      <trkpt lat="48.229324" lon="10.810681"><ele>166</ele></trkpt>
      <trkpt lat="48.226483" lon="10.805191"><ele>144</ele></trkpt>
      <trkpt lat="48.222371" lon="10.801532"><ele>129</ele></trkpt>
      <trkpt lat="48.216876" lon="10.798223"><ele>120</ele></trkpt>
      <trkpt lat="48.213023" lon="10.794536"><ele>112</ele></trkpt>
      <trkpt lat="48.206533" lon="10.790469"><ele>102</ele></trkpt>
      <trkpt lat="48.201127" lon="10.784989"><ele>89</ele></trkpt>
      <trkpt lat="48.195287" lon="10.782435"><ele>79</ele></trkpt>
      <trkpt lat="48.190655" lon="10.780791"><ele>77</ele></trkpt>
      <trkpt lat="48.187749" lon="10.776665"><ele>81</ele></trkpt>
      <trkpt lat="48.182648" lon="10.772138"><ele>86</ele></trkpt>
      <trkpt lat="48.178381" lon="10.769069"><ele>89</ele></trkpt>
      <trkpt lat="48.173397" lon="10.763613"><ele>91</ele></trkpt>
      <trkpt lat="48.170668" lon="10.761929"><ele>96</ele></trkpt>
      <trkpt lat="48.165359" lon="10.757757"><ele>108</ele></trkpt>
      <trkpt lat="48.159946" lon="10.755443"><ele>126</ele></trkpt>
      <trkpt lat="48.153376" lon="10.752931"><ele>143</ele></trkpt>
      <trkpt lat="48.149441" lon="10.752052"><ele>158</ele></trkpt>
      <trkpt lat="48.143560" lon="10.749477"><ele>170</ele></trkpt>
      <trkpt lat="48.138062" lon="10.747673"><ele>185</ele></trkpt>
      <trkpt lat="48.134186" lon="10.745307"><ele>207</ele></trkpt>
      <trkpt lat="48.131309" lon="10.744138"><ele>232</ele></trkpt>
      <trkpt lat="48.125283" lon="10.739259"><ele>255</ele></trkpt>
      <trkpt lat="48.118650" lon="10.735306"><ele>272</ele></trkpt>
      <trkpt lat="48.115908" lon="10.732109"><ele>287</ele></trkpt>
      <trkpt lat="48.111391" lon="10.730043"><ele>304</ele></trkpt>
      <trkpt lat="48.107322" lon="10.728093"><ele>326</ele></trkpt>
      <trkpt lat="48.104451" lon="10.725454"><ele>348</ele></trkpt>
      <trkpt lat="48.100847" lon="10.722405"><ele>366</ele></trkpt>
      <trkpt lat="48.095288" lon="10.717546"><ele>378</ele></trkpt>
      <trkpt lat="48.090366" lon="10.712793"><ele>385</ele></trkpt>
      <trkpt lat="48.086165" lon="10.709745"><ele>394</ele></trkpt>
      <trkpt lat="48.083061" lon="10.705205"><ele>406</ele></trkpt>
      <trkpt lat="48.076487" lon="10.702526"><ele>418</ele></trkpt>
      <trkpt lat="48.073032" lon="10.697828"><ele>423</ele></trkpt>
      <trkpt lat="48.066362" lon="10.695462"><ele>421</ele></trkpt>
      <trkpt lat="48.059309" lon="10.693370"><ele>415</ele></trkpt>
      <trkpt lat="48.052787" lon="10.689638"><ele>411</ele></trkpt>
      <trkpt lat="48.046073" lon="10.687297"><ele>410</ele></trkpt>
      <trkpt lat="48.041100" lon="10.683346"><ele>407</ele></trkpt>
      <trkpt lat="48.038097" lon="10.680013"><ele>397</ele></trkpt>
      <trkpt lat="48.035163" lon="10.676705"><ele>381</ele></trkpt>
      <trkpt lat="48.032157" lon="10.673749"><ele>363</ele></trkpt>
      <trkpt lat="48.027919" lon="10.670773"><ele>347</ele></trkpt>
      <trkpt lat="48.024067" lon="10.667543"><ele>335</ele></trkpt>
      <trkpt lat="48.019582" lon="10.665641"><ele>321</ele></trkpt>
      <trkpt lat="48.014647" lon="10.660856"><ele>302</ele></trkpt>
      <trkpt lat="48.008165" lon="10.657323"><ele>277</ele></trkpt>
      <trkpt lat="48.002808" lon="10.652688"><ele>253</ele></trkpt>
      <trkpt lat="47.998943" lon="10.650032"><ele>233</ele></trkpt>
      <trkpt lat="47.994273" lon="10.645958"><ele>218</ele></trkpt>
      <trkpt lat="47.989683" lon="10.641816"><ele>203</ele></trkpt>
      <trkpt lat="47.983260" lon="10.640276"><ele>183</ele></trkpt>
      <trkpt lat="47.978701" lon="10.636686"><ele>160</ele></trkpt>
      <trkpt lat="47.973186" lon="10.633687"><ele>139</ele></trkpt>
      <trkpt lat="47.970006" lon="10.631563"><ele>126</ele></trkpt>
      <trkpt lat="47.963876" lon="10.626763"><ele>118</ele></trkpt>
      <trkpt lat="47.960126" lon="10.623431"><ele>109</ele></trkpt>
      <trkpt lat="47.956064" lon="10.622014"><ele>98</ele></trkpt>
      <trkpt lat="47.951302" lon="10.619913"><ele>86</ele></trkpt>
      <trkpt lat="47.947272" lon="10.616492"><ele>78</ele></trkpt>
      <trkpt lat="47.943833" lon="10.612372"><ele>78</ele></trkpt>
      <trkpt lat="47.938400" lon="10.608568"><ele>83</ele></trkpt>
      <trkpt lat="47.932686" lon="10.604479"><ele>88</ele></trkpt>
      <trkpt lat="47.926849" lon="10.600623"><ele>90</ele></trkpt>
      <trkpt lat="47.920292" lon="10.598571"><ele>91</ele></trkpt>
      <trkpt lat="47.915523" lon="10.593890"><ele>98</ele></trkpt>
      <trkpt lat="47.911811" lon="10.592028"><ele>112</ele></trkpt>
      <trkpt lat="47.907442" lon="10.588878"><ele>131</ele></trkpt>
      <trkpt lat="47.902377" lon="10.585342"><ele>148</ele></trkpt>
      <trkpt lat="47.898836" lon="10.582913"><ele>161</ele></trkpt>
      <trkpt lat="47.894437" lon="10.580915"><ele>173</ele></trkpt>
      <trkpt lat="47.890448" lon="10.576557"><ele>191</ele></trkpt>
      <trkpt lat="47.885648" lon="10.574368"><ele>214</ele></trkpt>
      <trkpt lat="47.879930" lon="10.570545"><ele>239</ele></trkpt>
      <trkpt lat="47.874423" lon="10.566767"><ele>260</ele></trkpt>
      <trkpt lat="47.868575" lon="10.564863"><ele>277</ele></trkpt>
      <trkpt lat="47.864373" lon="10.561096"><ele>291</ele></trkpt>
      <trkpt lat="47.858985" lon="10.557244"><ele>310</ele></trkpt>
      <trkpt lat="47.853222" lon="10.554950"><ele>332</ele></trkpt>
      <trkpt lat="47.848923" lon="10.550573"><ele>354</ele></trkpt>
      <trkpt lat="47.844982" lon="10.546437"><ele>370</ele></trkpt>
      <trkpt lat="47.840566" lon="10.542749"><ele>380</ele></trkpt>
      <trkpt lat="47.836675" lon="10.539640"><ele>387</ele></trkpt>
      <trkpt lat="47.831547" lon="10.537262"><ele>397</ele></trkpt>
      <trkpt lat="47.825173" lon="10.533842"><ele>410</ele></trkpt>
      <trkpt lat="47.819047" lon="10.530942"><ele>420</ele></trkpt>
      <trkpt lat="47.812994" lon="10.528007"><ele>423</ele></trkpt>
      <trkpt lat="47.808587" lon="10.523708"><ele>420</ele></trkpt>
      <trkpt lat="47.803143" lon="10.521415"><ele>414</ele></trkpt>
      <trkpt lat="47.798391" lon="10.518004"><ele>411</ele></trkpt>
      <trkpt lat="47.793845" lon="10.514402"><ele>409</ele></trkpt>
      <trkpt lat="47.789131" lon="10.511357"><ele>405</ele></trkpt>
      <trkpt lat="47.784640" lon="10.508580"><ele>394</ele></trkpt>
      <trkpt lat="47.778651" lon="10.505813"><ele>376</ele></trkpt>
      <trkpt lat="47.773494" lon="10.503461"><ele>358</ele></trkpt>
      <trkpt lat="47.769032" lon="10.499978"><ele>344</ele></trkpt>
      <trkpt lat="47.763079" lon="10.497226"><ele>331</ele></trkpt>
      <trkpt lat="47.758727" lon="10.494422"><ele>316</ele></trkpt>
      <trkpt lat="47.753905" lon="10.490867"><ele>295</ele></trkpt>
      <trkpt lat="47.748310" lon="10.486823"><ele>270</ele></trkpt>
      <trkpt lat="47.743660" lon="10.482843"><ele>247</ele></trkpt>
      <trkpt lat="47.738081" lon="10.480202"><ele>229</ele></trkpt>
      <trkpt lat="47.732385" lon="10.477720"><ele>214</ele></trkpt>
      <trkpt lat="47.726882" lon="10.475107"><ele>197</ele></trkpt>
      <trkpt lat="47.722813" lon="10.472745"><ele>176</ele></trkpt>
      <trkpt lat="47.718105" lon="10.468672"><ele>154</ele></trkpt>
      <trkpt lat="47.712581" lon="10.465619"><ele>135</ele></trkpt>
      <trkpt lat="47.707716" lon="10.463167"><ele>123</ele></trkpt>
      <trkpt lat="47.702926" lon="10.460057"><ele>116</ele></trkpt>
      <trkpt lat="47.697875" lon="10.456841"><ele>107</ele></trkpt>
      <trkpt lat="47.693463" lon="10.454469"><ele>95</ele></trkpt>
      <trkpt lat="47.688682" lon="10.451388"><ele>83</ele></trkpt>
      <trkpt lat="47.682956" lon="10.448432"><ele>77</ele></trkpt>
      <trkpt lat="47.677669" lon="10.445170"><ele>79</ele></trkpt>
      <trkpt lat="47.673112" lon="10.442792"><ele>84</ele></trkpt>
      <trkpt lat="47.668728" lon="10.440101"><ele>88</ele></trkpt>
      <trkpt lat="47.663115" lon="10.437477"><ele>90</ele></trkpt>
      <trkpt lat="47.657697" lon="10.435081"><ele>93</ele></trkpt>
      <trkpt lat="47.652391" lon="10.431627"><ele>101</ele></trkpt>
      <trkpt lat="47.647177" lon="10.428621"><ele>117</ele></trkpt>
      <trkpt lat="47.641393" lon="10.425456"><ele>136</ele></trkpt>
      <trkpt lat="47.635887" lon="10.422586"><ele>152</ele></trkpt>
      <trkpt lat="47.631036" lon="10.418739"><ele>164</ele></trkpt>
      <trkpt lat="47.626384" lon="10.415524"><ele>178</ele></trkpt>
      <trkpt lat="47.621386" lon="10.412765"><ele>196</ele></trkpt>
      <trkpt lat="47.616755" lon="10.410164"><ele>221</ele></trkpt>
      <trkpt lat="47.612128" lon="10.407013"><ele>245</ele></trkpt>
      <trkpt lat="47.607033" lon="10.403869"><ele>265</ele></trkpt>
      <trkpt lat="47.601479" lon="10.400460"><ele>281</ele></trkpt>
      <trkpt lat="47.596823" lon="10.397622"><ele>296</ele></trkpt>
      <trkpt lat="47.591529" lon="10.394335"><ele>316</ele></trkpt>
      <trkpt lat="47.586344" lon="10.390808"><ele>338</ele></trkpt>
      <trkpt lat="47.581157" lon="10.387655"><ele>359</ele></trkpt>
      <trkpt lat="47.575949" lon="10.384484"><ele>373</ele></trkpt>
      <trkpt lat="47.570848" lon="10.381677"><ele>382</ele></trkpt>
      <trkpt lat="47.565964" lon="10.378570"><ele>390</ele></trkpt>
      <trkpt lat="47.561150" lon="10.375295"><ele>401</ele></trkpt>
      <trkpt lat="47.556315" lon="10.372278"><ele>413</ele></trkpt>
      <trkpt lat="47.551093" lon="10.368909"><ele>422</ele></trkpt>
      <trkpt lat="47.546403" lon="10.365298"><ele>423</ele></trkpt>
      <trkpt lat="47.541474" lon="10.361723"><ele>418</ele></trkpt>
      <trkpt lat="47.536491" lon="10.358633"><ele>413</ele></trkpt>
      <trkpt lat="47.531193" lon="10.355134"><ele>410</ele></trkpt>
      <trkpt lat="47.526347" lon="10.352223"><ele>409</ele></trkpt>
      <trkpt lat="47.521560" lon="10.348957"><ele>403</ele></trkpt>
      <trkpt lat="47.516401" lon="10.345879"><ele>389</ele></trkpt>
      <trkpt lat="47.511592" lon="10.342507"><ele>371</ele></trkpt>
      <trkpt lat="47.506645" lon="10.339539"><ele>354</ele></trkpt>
      <trkpt lat="47.501476" lon="10.336577"><ele>340</ele></trkpt>
      <trkpt lat="47.496639" lon="10.333537"><ele>328</ele></trkpt>
      <trkpt lat="47.491691" lon="10.330612"><ele>311</ele></trkpt>
      <trkpt lat="47.486399" lon="10.327243"><ele>288</ele></trkpt>
      <trkpt lat="47.481094" lon="10.324048"><ele>263</ele></trkpt>
      <trkpt lat="47.476083" lon="10.321096"><ele>241</ele></trkpt>
      <trkpt lat="47.471131" lon="10.317804"><ele>225</ele></trkpt>
      <trkpt lat="47.466148" lon="10.314520"><ele>210</ele></trkpt>
      <trkpt lat="47.461019" lon="10.311337"><ele>192</ele></trkpt>
      <trkpt lat="47.456003" lon="10.308106"><ele>170</ele></trkpt>
      <trkpt lat="47.450838" lon="10.305055"><ele>148</ele></trkpt>
      <trkpt lat="47.445781" lon="10.301869"><ele>131</ele></trkpt>
      <trkpt lat="47.440571" lon="10.298699"><ele>121</ele></trkpt>
      <trkpt lat="47.435410" lon="10.295583"><ele>113</ele></trkpt>
      <trkpt lat="47.430301" lon="10.292525"><ele>104</ele></trkpt>
      <trkpt lat="47.425178" lon="10.289425"><ele>91</ele></trkpt>
      <trkpt lat="47.420115" lon="10.286309"><ele>81</ele></trkpt>
      <trkpt lat="47.415070" lon="10.283144"><ele>77</ele></trkpt>
      <trkpt lat="47.410000" lon="10.280000"><ele>80</ele></trkpt>
    </trkseg>
  </trk>
</gpx>
