<?xml version="1.0" encoding="UTF-8"?>
<gpx version="1.1" creator="Bikepacking-Planer seed script" xmlns="http://www.topografix.com/GPX/1/1">
  <trk>
    <name>Kyrgyzstan — Tian Shan loop</name>
    <trkseg>
      <trkpt lat="42.870000" lon="74.600000"><ele>2000</ele></trkpt>
      <trkpt lat="42.865411" lon="74.602354"><ele>2008</ele></trkpt>
      <trkpt lat="42.860836" lon="74.604731"><ele>2017</ele></trkpt>
      <trkpt lat="42.856229" lon="74.607118"><ele>2025</ele></trkpt>
      <trkpt lat="42.851597" lon="74.609547"><ele>2031</ele></trkpt>
      <trkpt lat="42.846950" lon="74.611932"><ele>2035</ele></trkpt>
      <trkpt lat="42.842252" lon="74.614376"><ele>2038</ele></trkpt>
      <trkpt lat="42.837569" lon="74.616707"><ele>2040</ele></trkpt>
      <trkpt lat="42.832860" lon="74.619139"><ele>2042</ele></trkpt>
      <trkpt lat="42.828140" lon="74.621387"><ele>2044</ele></trkpt>
      <trkpt lat="42.823460" lon="74.623759"><ele>2048</ele></trkpt>
      <trkpt lat="42.818928" lon="74.626287"><ele>2055</ele></trkpt>
      <trkpt lat="42.814374" lon="74.628646"><ele>2066</ele></trkpt>
      <trkpt lat="42.809860" lon="74.630922"><ele>2081</ele></trkpt>
      <trkpt lat="42.805029" lon="74.633218"><ele>2100</ele></trkpt>
      <trkpt lat="42.800575" lon="74.635638"><ele>2122</ele></trkpt>
      <trkpt lat="42.795962" lon="74.637916"><ele>2147</ele></trkpt>
      <trkpt lat="42.791116" lon="74.640492"><ele>2173</ele></trkpt>
      <trkpt lat="42.786357" lon="74.642609"><ele>2200</ele></trkpt>
      <trkpt lat="42.781803" lon="74.645265"><ele>2227</ele></trkpt>
      <trkpt lat="42.776863" lon="74.647680"><ele>2252</ele></trkpt>
      <trkpt lat="42.772181" lon="74.650149"><ele>2275</ele></trkpt>
      <trkpt lat="42.767887" lon="74.652264"><ele>2296</ele></trkpt>
      <trkpt lat="42.763025" lon="74.654637"><ele>2315</ele></trkpt>
      <trkpt lat="42.758077" lon="74.657148"><ele>2333</ele></trkpt>
      <trkpt lat="42.753468" lon="74.659909"><ele>2350</ele></trkpt>
      <trkpt lat="42.748408" lon="74.662239"><ele>2369</ele></trkpt>
      <trkpt lat="42.743517" lon="74.664228"><ele>2388</ele></trkpt>
      <trkpt lat="42.738947" lon="74.666574"><ele>2410</ele></trkpt>
      <trkpt lat="42.733829" lon="74.668774"><ele>2436</ele></trkpt>
      <trkpt lat="42.728656" lon="74.671354"><ele>2465</ele></trkpt>
      <trkpt lat="42.723553" lon="74.673223"><ele>2497</ele></trkpt>
      <trkpt lat="42.719316" lon="74.675490"><ele>2531</ele></trkpt>
      <trkpt lat="42.715181" lon="74.677361"><ele>2568</ele></trkpt>
      <trkpt lat="42.709914" lon="74.679778"><ele>2604</ele></trkpt>
      <trkpt lat="42.704961" lon="74.682396"><ele>2641</ele></trkpt>
      <trkpt lat="42.700150" lon="74.684879"><ele>2675</ele></trkpt>
      <trkpt lat="42.695518" lon="74.687807"><ele>2707</ele></trkpt>
      <trkpt lat="42.691003" lon="74.690790"><ele>2736</ele></trkpt>
      <trkpt lat="42.685719" lon="74.693807"><ele>2763</ele></trkpt>
      <trkpt lat="42.680858" lon="74.695956"><ele>2787</ele></trkpt>
      <trkpt lat="42.675855" lon="74.698911"><ele>2808</ele></trkpt>
      <trkpt lat="42.671846" lon="74.700986"><ele>2830</ele></trkpt>
      <trkpt lat="42.667394" lon="74.703455"><ele>2851</ele></trkpt>
      <trkpt lat="42.662108" lon="74.705317"><ele>2873</ele></trkpt>
      <trkpt lat="42.657430" lon="74.708353"><ele>2898</ele></trkpt>
      <trkpt lat="42.651972" lon="74.711451"><ele>2924</ele></trkpt>
      <trkpt lat="42.647310" lon="74.714434"><ele>2954</ele></trkpt>
      <trkpt lat="42.642599" lon="74.717126"><ele>2985</ele></trkpt>
      <trkpt lat="42.637140" lon="74.720251"><ele>3018</ele></trkpt>
      <trkpt lat="42.631741" lon="74.722986"><ele>3052</ele></trkpt>
      <trkpt lat="42.626157" lon="74.725413"><ele>3085</ele></trkpt>
      <trkpt lat="42.621793" lon="74.728091"><ele>3116</ele></trkpt>
      <trkpt lat="42.616831" lon="74.730750"><ele>3144</ele></trkpt>
      <trkpt lat="42.611418" lon="74.732688"><ele>3169</ele></trkpt>
      <trkpt lat="42.606412" lon="74.734271"><ele>3190</ele></trkpt>
      <trkpt lat="42.601666" lon="74.737365"><ele>3207</ele></trkpt>
      <trkpt lat="42.597729" lon="74.740037"><ele>3221</ele></trkpt>
      <trkpt lat="42.593221" lon="74.742956"><ele>3233</ele></trkpt>
      <trkpt lat="42.587429" lon="74.746139"><ele>3244</ele></trkpt>
      <trkpt lat="42.582497" lon="74.748530"><ele>3255</ele></trkpt>
      <trkpt lat="42.578355" lon="74.750819"><ele>3266</ele></trkpt>
      <trkpt lat="42.573502" lon="74.753487"><ele>3279</ele></trkpt>
      <trkpt lat="42.567793" lon="74.756674"><ele>3294</ele></trkpt>
      <trkpt lat="42.563584" lon="74.760156"><ele>3311</ele></trkpt>
      <trkpt lat="42.559578" lon="74.762758"><ele>3328</ele></trkpt>
      <trkpt lat="42.555164" lon="74.766206"><ele>3347</ele></trkpt>
      <trkpt lat="42.550372" lon="74.768455"><ele>3365</ele></trkpt>
      <trkpt lat="42.545406" lon="74.771077"><ele>3381</ele></trkpt>
      <trkpt lat="42.541582" lon="74.774235"><ele>3395</ele></trkpt>
      <trkpt lat="42.537415" lon="74.776876"><ele>3405</ele></trkpt>
      <trkpt lat="42.531572" lon="74.779187"><ele>3411</ele></trkpt>
      <trkpt lat="42.526759" lon="74.781271"><ele>3413</ele></trkpt>
      <trkpt lat="42.521884" lon="74.783348"><ele>3412</ele></trkpt>
      <trkpt lat="42.516039" lon="74.786272"><ele>3407</ele></trkpt>
      <trkpt lat="42.510069" lon="74.788271"><ele>3399</ele></trkpt>
      <trkpt lat="42.505758" lon="74.791560"><ele>3391</ele></trkpt>
      <trkpt lat="42.501305" lon="74.793408"><ele>3382</ele></trkpt>
      <trkpt lat="42.497638" lon="74.796939"><ele>3375</ele></trkpt>
      <trkpt lat="42.491606" lon="74.798201"><ele>3369</ele></trkpt>
      <trkpt lat="42.487183" lon="74.799599"><ele>3364</ele></trkpt>
      <trkpt lat="42.482038" lon="74.802752"><ele>3362</ele></trkpt>
      <trkpt lat="42.476729" lon="74.806646"><ele>3360</ele></trkpt>
      <trkpt lat="42.470842" lon="74.808786"><ele>3358</ele></trkpt>
      <trkpt lat="42.467073" lon="74.811910"><ele>3356</ele></trkpt>
      <trkpt lat="42.461062" lon="74.814735"><ele>3351</ele></trkpt>
      <trkpt lat="42.457299" lon="74.816444"><ele>3344</ele></trkpt>
      <trkpt lat="42.451953" lon="74.817506"><ele>3333</ele></trkpt>
      <trkpt lat="42.447768" lon="74.820835"><ele>3318</ele></trkpt>
      <trkpt lat="42.442921" lon="74.824183"><ele>3299</ele></trkpt>
      <trkpt lat="42.437029" lon="74.825340"><ele>3276</ele></trkpt>
      <trkpt lat="42.431979" lon="74.829287"><ele>3251</ele></trkpt>
      <trkpt lat="42.428722" lon="74.833189"><ele>3224</ele></trkpt>
      <trkpt lat="42.424882" lon="74.836829"><ele>3197</ele></trkpt>
      <trkpt lat="42.419101" lon="74.839825"><ele>3171</ele></trkpt>
      <trkpt lat="42.412940" lon="74.843353"><ele>3146</ele></trkpt>
      <trkpt lat="42.408211" lon="74.846863"><ele>3123</ele></trkpt>
      <trkpt lat="42.402698" lon="74.850175"><ele>3102</ele></trkpt>
      <trkpt lat="42.397934" lon="74.853468"><ele>3083</ele></trkpt>
      <trkpt lat="42.392137" lon="74.854812"><ele>3065</ele></trkpt>
      <trkpt lat="42.386927" lon="74.858542"><ele>3048</ele></trkpt>
      <trkpt lat="42.380564" lon="74.860430"><ele>3030</ele></trkpt>
      <trkpt lat="42.374462" lon="74.861815"><ele>3010</ele></trkpt>
      <trkpt lat="42.370414" lon="74.862812"><ele>2988</ele></trkpt>
      <trkpt lat="42.364049" lon="74.863833"><ele>2962</ele></trkpt>
      <trkpt lat="42.358075" lon="74.865334"><ele>2933</ele></trkpt>
      <trkpt lat="42.352663" lon="74.866272"><ele>2900</ele></trkpt>
      <trkpt lat="42.348150" lon="74.869408"><ele>2866</ele></trkpt>
      <trkpt lat="42.342935" lon="74.870266"><ele>2829</ele></trkpt>
      <trkpt lat="42.336971" lon="74.873358"><ele>2793</ele></trkpt>
      <trkpt lat="42.331317" lon="74.875325"><ele>2756</ele></trkpt>
      <trkpt lat="42.325209" lon="74.878607"><ele>2722</ele></trkpt>
      <trkpt lat="42.319532" lon="74.881504"><ele>2690</ele></trkpt>
      <trkpt lat="42.315840" lon="74.883142"><ele>2661</ele></trkpt>
      <trkpt lat="42.310450" lon="74.883837"><ele>2635</ele></trkpt>
      <trkpt lat="42.307055" lon="74.884978"><ele>2612</ele></trkpt>
      <trkpt lat="42.301317" lon="74.885658"><ele>2590</ele></trkpt>
      <trkpt lat="42.298351" lon="74.886380"><ele>2569</ele></trkpt>
      <trkpt lat="42.293296" lon="74.890460"><ele>2547</ele></trkpt>
      <trkpt lat="42.287121" lon="74.890935"><ele>2525</ele></trkpt>
      <trkpt lat="42.283940" lon="74.895363"><ele>2500</ele></trkpt>
      <trkpt lat="42.278372" lon="74.897459"><ele>2473</ele></trkpt>
      <trkpt lat="42.275186" lon="74.901749"><ele>2444</ele></trkpt>
      <trkpt lat="42.271787" lon="74.902266"><ele>2412</ele></trkpt>
      <trkpt lat="42.268772" lon="74.905536"><ele>2379</ele></trkpt>
      <trkpt lat="42.265261" lon="74.906503"><ele>2345</ele></trkpt>
      <trkpt lat="42.260144" lon="74.907476"><ele>2313</ele></trkpt>
      <trkpt lat="42.255867" lon="74.910388"><ele>2282</ele></trkpt>
      <trkpt lat="42.249994" lon="74.910699"><ele>2254</ele></trkpt>
      <trkpt lat="42.246242" lon="74.913837"><ele>2230</ele></trkpt>
      <trkpt lat="42.242326" lon="74.914292"><ele>2209</ele></trkpt>
      <trkpt lat="42.235683" lon="74.917435"><ele>2192</ele></trkpt>
      <trkpt lat="42.232120" lon="74.921339"><ele>2178</ele></trkpt>
      <trkpt lat="42.225614" lon="74.922037"><ele>2166</ele></trkpt>
      <trkpt lat="42.222412" lon="74.925192"><ele>2155</ele></trkpt>
      <trkpt lat="42.219329" lon="74.928127"><ele>2144</ele></trkpt>
      <trkpt lat="42.212375" lon="74.929134"><ele>2133</ele></trkpt>
      <trkpt lat="42.206366" lon="74.932286"><ele>2120</ele></trkpt>
      <trkpt lat="42.202669" lon="74.932953"><ele>2105</ele></trkpt>
      <trkpt lat="42.196874" lon="74.934932"><ele>2088</ele></trkpt>
      <trkpt lat="42.192277" lon="74.938843"><ele>2070</ele></trkpt>
      <trkpt lat="42.188218" lon="74.942624"><ele>2051</ele></trkpt>
      <trkpt lat="42.181091" lon="74.946453"><ele>2034</ele></trkpt>
      <trkpt lat="42.174169" lon="74.949527"><ele>2017</ele></trkpt>
      <trkpt lat="42.167748" lon="74.951313"><ele>2004</ele></trkpt>
      <trkpt lat="42.162701" lon="74.954661"><ele>1994</ele></trkpt>
      <trkpt lat="42.155611" lon="74.959534"><ele>1988</ele></trkpt>
      <trkpt lat="42.151193" lon="74.962778"><ele>1987</ele></trkpt>
      <trkpt lat="42.144244" lon="74.963258"><ele>1989</ele></trkpt>
      <trkpt lat="42.140882" lon="74.966639"><ele>1994</ele></trkpt>
      <trkpt lat="42.136605" lon="74.967892"><ele>2001</ele></trkpt>
      <trkpt lat="42.131152" lon="74.972200"><ele>2010</ele></trkpt>
      <trkpt lat="42.127036" lon="74.973303"><ele>2018</ele></trkpt>
      <trkpt lat="42.123892" lon="74.977066"><ele>2026</ele></trkpt>
      <trkpt lat="42.118943" lon="74.977745"><ele>2032</ele></trkpt>
      <trkpt lat="42.115927" lon="74.982425"><ele>2036</ele></trkpt>
      <trkpt lat="42.109303" lon="74.986270"><ele>2039</ele></trkpt>
      <trkpt lat="42.106391" lon="74.986533"><ele>2040</ele></trkpt>
      <trkpt lat="42.102373" lon="74.989960"><ele>2042</ele></trkpt>
      <trkpt lat="42.097235" lon="74.990633"><ele>2045</ele></trkpt>
      <trkpt lat="42.091126" lon="74.995333"><ele>2049</ele></trkpt>
      <trkpt lat="42.088444" lon="74.998641"><ele>2057</ele></trkpt>
      <trkpt lat="42.084185" lon="74.999802"><ele>2068</ele></trkpt>
      <trkpt lat="42.076674" lon="75.004470"><ele>2084</ele></trkpt>
      <trkpt lat="42.070802" lon="75.004934"><ele>2103</ele></trkpt>
      <trkpt lat="42.065612" lon="75.004873"><ele>2126</ele></trkpt>
      <trkpt lat="42.059075" lon="75.005537"><ele>2151</ele></trkpt>
      <trkpt lat="42.054515" lon="75.005498"><ele>2178</ele></trkpt>
      <trkpt lat="42.049468" lon="75.008273"><ele>2205</ele></trkpt>
      <trkpt lat="42.045210" lon="75.008056"><ele>2231</ele></trkpt>
      <trkpt lat="42.040066" lon="75.011795"><ele>2256</ele></trkpt>
      <trkpt lat="42.034162" lon="75.014255"><ele>2279</ele></trkpt>
      <trkpt lat="42.030031" lon="75.015366"><ele>2300</ele></trkpt>
      <trkpt lat="42.025980" lon="75.017914"><ele>2318</ele></trkpt>
      <trkpt lat="42.019261" lon="75.022452"><ele>2336</ele></trkpt>
      <trkpt lat="42.011814" lon="75.026871"><ele>2353</ele></trkpt>
      <trkpt lat="42.005139" lon="75.031202"><ele>2372</ele></trkpt>
      <trkpt lat="42.000904" lon="75.033071"><ele>2392</ele></trkpt>
      <trkpt lat="41.995023" lon="75.034605"><ele>2414</ele></trkpt>
      <trkpt lat="41.991596" lon="75.039636"><ele>2440</ele></trkpt>
      <trkpt lat="41.987150" lon="75.042682"><ele>2470</ele></trkpt>
      <trkpt lat="41.982318" lon="75.044724"><ele>2502</ele></trkpt>
      <trkpt lat="41.975956" lon="75.047314"><ele>2537</ele></trkpt>
      <trkpt lat="41.971638" lon="75.050901"><ele>2574</ele></trkpt>
      <trkpt lat="41.967527" lon="75.053467"><ele>2610</ele></trkpt>
      <trkpt lat="41.963383" lon="75.054698"><ele>2646</ele></trkpt>
      <trkpt lat="41.959574" lon="75.058434"><ele>2681</ele></trkpt>
      <trkpt lat="41.953231" lon="75.062675"><ele>2712</ele></trkpt>
      <trkpt lat="41.950119" lon="75.064810"><ele>2741</ele></trkpt>
      <trkpt lat="41.943702" lon="75.068216"><ele>2767</ele></trkpt>
      <trkpt lat="41.939343" lon="75.067855"><ele>2790</ele></trkpt>
      <trkpt lat="41.934467" lon="75.070990"><ele>2812</ele></trkpt>
      <trkpt lat="41.926976" lon="75.071024"><ele>2833</ele></trkpt>
      <trkpt lat="41.923270" lon="75.071953"><ele>2854</ele></trkpt>
      <trkpt lat="41.920519" lon="75.077034"><ele>2877</ele></trkpt>
      <trkpt lat="41.913063" lon="75.076704"><ele>2902</ele></trkpt>
      <trkpt lat="41.910819" lon="75.079661"><ele>2929</ele></trkpt>
      <trkpt lat="41.906461" lon="75.079887"><ele>2959</ele></trkpt>
      <trkpt lat="41.902626" lon="75.079534"><ele>2991</ele></trkpt>
      <trkpt lat="41.894767" lon="75.082533"><ele>3024</ele></trkpt>
      <trkpt lat="41.891402" lon="75.083835"><ele>3057</ele></trkpt>
      <trkpt lat="41.886701" lon="75.088975"><ele>3090</ele></trkpt>
      <trkpt lat="41.884413" lon="75.088544"><ele>3121</ele></trkpt>
      <trkpt lat="41.877011" lon="75.089153"><ele>3148</ele></trkpt>
      <trkpt lat="41.871552" lon="75.093608"><ele>3172</ele></trkpt>
      <trkpt lat="41.863676" lon="75.092797"><ele>3193</ele></trkpt>
      <trkpt lat="41.856217" lon="75.095335"><ele>3210</ele></trkpt>
      <trkpt lat="41.852864" lon="75.098619"><ele>3223</ele></trkpt>
      <trkpt lat="41.848030" lon="75.102304"><ele>3235</ele></trkpt>
      <trkpt lat="41.845282" lon="75.101952"><ele>3246</ele></trkpt>
      <trkpt lat="41.840235" lon="75.106275"><ele>3257</ele></trkpt>
      <trkpt lat="41.832731" lon="75.107464"><ele>3268</ele></trkpt>
      <trkpt lat="41.826772" lon="75.110068"><ele>3281</ele></trkpt>
      <trkpt lat="41.820515" lon="75.112460"><ele>3297</ele></trkpt>
      <trkpt lat="41.815627" lon="75.112776"><ele>3313</ele></trkpt>
      <trkpt lat="41.812248" lon="75.117338"><ele>3332</ele></trkpt>
      <trkpt lat="41.809669" lon="75.117032"><ele>3350</ele></trkpt>
      <trkpt lat="41.805098" lon="75.121251"><ele>3368</ele></trkpt>
      <trkpt lat="41.800565" lon="75.126397"><ele>3384</ele></trkpt>
      <trkpt lat="41.793053" lon="75.132200"><ele>3397</ele></trkpt>
      <trkpt lat="41.786217" lon="75.133039"><ele>3407</ele></trkpt>
      <trkpt lat="41.781028" lon="75.132976"><ele>3412</ele></trkpt>
      <trkpt lat="41.773860" lon="75.133828"><ele>3413</ele></trkpt>
      <trkpt lat="41.765579" lon="75.135284"><ele>3411</ele></trkpt>
      <trkpt lat="41.760691" lon="75.136894"><ele>3406</ele></trkpt>
      <trkpt lat="41.754851" lon="75.137961"><ele>3398</ele></trkpt>
      <trkpt lat="41.751079" lon="75.144575"><ele>3389</ele></trkpt>
      <trkpt lat="41.750507" lon="75.148854"><ele>3381</ele></trkpt>
      <trkpt lat="41.750501" lon="75.151287"><ele>3374</ele></trkpt>
      <trkpt lat="41.747511" lon="75.157243"><ele>3368</ele></trkpt>
      <trkpt lat="41.742081" lon="75.164391"><ele>3364</ele></trkpt>
      <trkpt lat="41.742438" lon="75.169782"><ele>3361</ele></trkpt>
      <trkpt lat="41.739855" lon="75.176339"><ele>3360</ele></trkpt>
      <trkpt lat="41.737575" lon="75.178160"><ele>3358</ele></trkpt>
      <trkpt lat="41.737416" lon="75.182007"><ele>3355</ele></trkpt>
      <trkpt lat="41.734296" lon="75.182684"><ele>3350</ele></trkpt>
      <trkpt lat="41.735085" lon="75.183800"><ele>3342</ele></trkpt>
      <trkpt lat="41.736663" lon="75.188701"><ele>3331</ele></trkpt>
      <trkpt lat="41.733874" lon="75.195729"><ele>3315</ele></trkpt>
      <trkpt lat="41.735138" lon="75.199817"><ele>3295</ele></trkpt>
      <trkpt lat="41.733382" lon="75.206730"><ele>3272</ele></trkpt>
      <trkpt lat="41.734136" lon="75.211899"><ele>3247</ele></trkpt>
      <trkpt lat="41.735594" lon="75.214244"><ele>3220</ele></trkpt>
      <trkpt lat="41.734810" lon="75.217055"><ele>3193</ele></trkpt>
      <trkpt lat="41.730494" lon="75.218057"><ele>3167</ele></trkpt>
      <trkpt lat="41.729405" lon="75.220794"><ele>3142</ele></trkpt>
      <trkpt lat="41.729382" lon="75.221005"><ele>3119</ele></trkpt>
      <trkpt lat="41.730523" lon="75.227528"><ele>3099</ele></trkpt>
      <trkpt lat="41.728483" lon="75.231436"><ele>3080</ele></trkpt>
      <trkpt lat="41.728091" lon="75.232662"><ele>3063</ele></trkpt>
      <trkpt lat="41.725343" lon="75.234516"><ele>3045</ele></trkpt>
      <trkpt lat="41.725261" lon="75.235698"><ele>3027</ele></trkpt>
      <trkpt lat="41.720000" lon="75.236004"><ele>3006</ele></trkpt>
      <trkpt lat="41.716161" lon="75.236526"><ele>2983</ele></trkpt>
      <trkpt lat="41.715219" lon="75.241948"><ele>2957</ele></trkpt>
      <trkpt lat="41.712948" lon="75.242585"><ele>2928</ele></trkpt>
      <trkpt lat="41.711481" lon="75.249012"><ele>2895</ele></trkpt>
      <trkpt lat="41.706127" lon="75.254529"><ele>2860</ele></trkpt>
      <trkpt lat="41.700355" lon="75.256248"><ele>2823</ele></trkpt>
      <trkpt lat="41.698533" lon="75.256783"><ele>2786</ele></trkpt>
      <trkpt lat="41.695754" lon="75.261550"><ele>2751</ele></trkpt>
      <trkpt lat="41.697044" lon="75.265557"><ele>2717</ele></trkpt>
      <trkpt lat="41.693929" lon="75.270994"><ele>2685</ele></trkpt>
      <trkpt lat="41.694155" lon="75.271734"><ele>2657</ele></trkpt>
      <trkpt lat="41.691604" lon="75.278031"><ele>2631</ele></trkpt>
      <trkpt lat="41.687270" lon="75.285872"><ele>2608</ele></trkpt>
      <trkpt lat="41.681267" lon="75.291134"><ele>2586</ele></trkpt>
      <trkpt lat="41.675397" lon="75.297072"><ele>2565</ele></trkpt>
      <trkpt lat="41.672199" lon="75.297728"><ele>2544</ele></trkpt>
      <trkpt lat="41.673534" lon="75.297912"><ele>2521</ele></trkpt>
      <trkpt lat="41.674829" lon="75.301816"><ele>2496</ele></trkpt>
      <trkpt lat="41.675383" lon="75.304035"><ele>2468</ele></trkpt>
      <trkpt lat="41.677213" lon="75.309147"><ele>2438</ele></trkpt>
      <trkpt lat="41.678063" lon="75.311491"><ele>2406</ele></trkpt>
      <trkpt lat="41.676665" lon="75.311732"><ele>2373</ele></trkpt>
      <trkpt lat="41.676258" lon="75.318475"><ele>2340</ele></trkpt>
      <trkpt lat="41.672066" lon="75.324999"><ele>2307</ele></trkpt>
      <trkpt lat="41.667713" lon="75.330274"><ele>2277</ele></trkpt>
      <trkpt lat="41.667471" lon="75.338033"><ele>2250</ele></trkpt>
      <trkpt lat="41.666363" lon="75.342885"><ele>2226</ele></trkpt>
      <trkpt lat="41.661101" lon="75.346452"><ele>2206</ele></trkpt>
      <trkpt lat="41.659143" lon="75.351849"><ele>2189</ele></trkpt>
      <trkpt lat="41.659759" lon="75.355665"><ele>2176</ele></trkpt>
      <trkpt lat="41.659738" lon="75.356550"><ele>2164</ele></trkpt>
      <trkpt lat="41.655809" lon="75.362733"><ele>2153</ele></trkpt>
      <trkpt lat="41.655531" lon="75.363966"><ele>2143</ele></trkpt>
      <trkpt lat="41.653185" lon="75.370907"><ele>2131</ele></trkpt>
      <trkpt lat="41.651905" lon="75.376248"><ele>2117</ele></trkpt>
      <trkpt lat="41.650678" lon="75.382269"><ele>2102</ele></trkpt>
      <trkpt lat="41.651116" lon="75.389632"><ele>2085</ele></trkpt>
      <trkpt lat="41.648924" lon="75.391724"><ele>2067</ele></trkpt>
      <trkpt lat="41.646061" lon="75.396219"><ele>2048</ele></trkpt>
      <trkpt lat="41.643622" lon="75.397133"><ele>2031</ele></trkpt>
      <trkpt lat="41.641996" lon="75.398276"><ele>2015</ele></trkpt>
      <trkpt lat="41.643515" lon="75.401556"><ele>2002</ele></trkpt>
      <trkpt lat="41.644865" lon="75.407768"><ele>1993</ele></trkpt>
      <trkpt lat="41.645777" lon="75.407698"><ele>1988</ele></trkpt>
      <trkpt lat="41.645663" lon="75.412843"><ele>1987</ele></trkpt>
      <trkpt lat="41.646199" lon="75.416831"><ele>1989</ele></trkpt>
      <trkpt lat="41.642383" lon="75.419202"><ele>1995</ele></trkpt>
      <trkpt lat="41.638764" lon="75.426724"><ele>2003</ele></trkpt>
      <trkpt lat="41.636334" lon="75.427354"><ele>2011</ele></trkpt>
      <trkpt lat="41.636282" lon="75.435154"><ele>2020</ele></trkpt>
      <trkpt lat="41.635877" lon="75.443305"><ele>2027</ele></trkpt>
      <trkpt lat="41.635817" lon="75.446265"><ele>2032</ele></trkpt>
      <trkpt lat="41.629804" lon="75.449733"><ele>2036</ele></trkpt>
      <trkpt lat="41.625924" lon="75.454136"><ele>2039</ele></trkpt>
      <trkpt lat="41.625623" lon="75.461429"><ele>2041</ele></trkpt>
      <trkpt lat="41.626017" lon="75.464404"><ele>2042</ele></trkpt>
      <trkpt lat="41.619789" lon="75.467718"><ele>2045</ele></trkpt>
      <trkpt lat="41.615544" lon="75.469983"><ele>2050</ele></trkpt>
      <trkpt lat="41.613119" lon="75.471482"><ele>2059</ele></trkpt>
      <trkpt lat="41.610177" lon="75.470943"><ele>2071</ele></trkpt>
      <trkpt lat="41.608487" lon="75.477939"><ele>2087</ele></trkpt>
      <trkpt lat="41.607262" lon="75.483596"><ele>2107</ele></trkpt>
      <trkpt lat="41.608738" lon="75.483901"><ele>2130</ele></trkpt>
      <trkpt lat="41.610547" lon="75.490301"><ele>2155</ele></trkpt>
      <trkpt lat="41.604502" lon="75.494329"><ele>2182</ele></trkpt>
      <trkpt lat="41.601110" lon="75.498892"><ele>2209</ele></trkpt>
      <trkpt lat="41.597685" lon="75.500886"><ele>2236</ele></trkpt>
      <trkpt lat="41.592122" lon="75.506853"><ele>2260</ele></trkpt>
      <trkpt lat="41.588632" lon="75.509885"><ele>2283</ele></trkpt>
      <trkpt lat="41.584383" lon="75.515171"><ele>2303</ele></trkpt>
      <trkpt lat="41.581998" lon="75.516561"><ele>2321</ele></trkpt>
      <trkpt lat="41.583351" lon="75.522719"><ele>2339</ele></trkpt>
      <trkpt lat="41.584319" lon="75.529739"><ele>2356</ele></trkpt>
      <trkpt lat="41.579684" lon="75.533728"><ele>2375</ele></trkpt>
      <trkpt lat="41.577181" lon="75.541418"><ele>2395</ele></trkpt>
      <trkpt lat="41.579722" lon="75.547119"><ele>2419</ele></trkpt>
      <trkpt lat="41.575270" lon="75.553469"><ele>2445</ele></trkpt>
      <trkpt lat="41.573818" lon="75.554231"><ele>2475</ele></trkpt>
      <trkpt lat="41.572658" lon="75.553682"><ele>2508</ele></trkpt>
      <trkpt lat="41.570783" lon="75.562135"><ele>2543</ele></trkpt>
      <trkpt lat="41.568579" lon="75.561652"><ele>2580</ele></trkpt>
      <trkpt lat="41.563555" lon="75.562700"><ele>2617</ele></trkpt>
      <trkpt lat="41.558165" lon="75.570099"><ele>2652</ele></trkpt>
      <trkpt lat="41.560254" lon="75.576914"><ele>2686</ele></trkpt>
      <trkpt lat="41.562758" lon="75.583147"><ele>2717</ele></trkpt>
      <trkpt lat="41.559282" lon="75.587072"><ele>2746</ele></trkpt>
      <trkpt lat="41.556444" lon="75.593454"><ele>2771</ele></trkpt>
      <trkpt lat="41.553319" lon="75.600157"><ele>2794</ele></trkpt>
      <trkpt lat="41.548903" lon="75.607194"><ele>2816</ele></trkpt>
      <trkpt lat="41.546953" lon="75.611457"><ele>2837</ele></trkpt>
      <trkpt lat="41.543576" lon="75.610955"><ele>2858</ele></trkpt>
      <trkpt lat="41.540003" lon="75.613688"><ele>2881</ele></trkpt>
      <trkpt lat="41.539459" lon="75.616563"><ele>2906</ele></trkpt>
      <trkpt lat="41.540017" lon="75.616995"><ele>2934</ele></trkpt>
      <trkpt lat="41.535861" lon="75.619898"><ele>2964</ele></trkpt>
      <trkpt lat="41.533186" lon="75.624687"><ele>2996</ele></trkpt>
      <trkpt lat="41.534008" lon="75.626964"><ele>3030</ele></trkpt>
      <trkpt lat="41.529703" lon="75.634517"><ele>3063</ele></trkpt>
      <trkpt lat="41.531949" lon="75.636909"><ele>3095</ele></trkpt>
      <trkpt lat="41.533683" lon="75.641625"><ele>3125</ele></trkpt>
      <trkpt lat="41.535343" lon="75.650177"><ele>3152</ele></trkpt>
      <trkpt lat="41.530652" lon="75.650926"><ele>3176</ele></trkpt>
      <trkpt lat="41.524730" lon="75.654573"><ele>3196</ele></trkpt>
      <trkpt lat="41.526255" lon="75.658665"><ele>3212</ele></trkpt>
      <trkpt lat="41.525231" lon="75.665862"><ele>3225</ele></trkpt>
      <trkpt lat="41.518822" lon="75.670333"><ele>3237</ele></trkpt>
      <trkpt lat="41.521417" lon="75.669613"><ele>3248</ele></trkpt>
      <trkpt lat="41.519645" lon="75.670313"><ele>3258</ele></trkpt>
      <trkpt lat="41.515181" lon="75.671553"><ele>3270</ele></trkpt>
      <trkpt lat="41.517896" lon="75.670708"><ele>3284</ele></trkpt>
      <trkpt lat="41.517130" lon="75.672907"><ele>3299</ele></trkpt>
      <trkpt lat="41.519702" lon="75.681517"><ele>3316</ele></trkpt>
      <trkpt lat="41.514388" lon="75.681841"><ele>3335</ele></trkpt>
      <trkpt lat="41.515745" lon="75.684812"><ele>3353</ele></trkpt>
      <trkpt lat="41.509176" lon="75.688745"><ele>3371</ele></trkpt>
      <trkpt lat="41.503025" lon="75.696190"><ele>3386</ele></trkpt>
      <trkpt lat="41.501040" lon="75.696620"><ele>3399</ele></trkpt>
      <trkpt lat="41.496552" lon="75.703887"><ele>3408</ele></trkpt>
      <trkpt lat="41.497949" lon="75.703525"><ele>3413</ele></trkpt>
      <trkpt lat="41.499662" lon="75.705208"><ele>3413</ele></trkpt>
      <trkpt lat="41.496118" lon="75.707485"><ele>3410</ele></trkpt>
      <trkpt lat="41.498010" lon="75.710215"><ele>3404</ele></trkpt>
      <trkpt lat="41.495777" lon="75.715077"><ele>3397</ele></trkpt>
      <trkpt lat="41.490466" lon="75.715006"><ele>3388</ele></trkpt>
      <trkpt lat="41.493208" lon="75.716797"><ele>3380</ele></trkpt>
      <trkpt lat="41.493045" lon="75.718790"><ele>3373</ele></trkpt>
      <trkpt lat="41.488135" lon="75.724159"><ele>3367</ele></trkpt>
      <trkpt lat="41.485360" lon="75.723230"><ele>3363</ele></trkpt>
      <trkpt lat="41.485738" lon="75.723559"><ele>3361</ele></trkpt>
      <trkpt lat="41.482882" lon="75.723645"><ele>3359</ele></trkpt>
      <trkpt lat="41.484732" lon="75.727339"><ele>3358</ele></trkpt>
      <trkpt lat="41.478026" lon="75.730127"><ele>3355</ele></trkpt>
      <trkpt lat="41.479683" lon="75.736161"><ele>3349</ele></trkpt>
      <trkpt lat="41.477594" lon="75.743994"><ele>3341</ele></trkpt>
      <trkpt lat="41.479598" lon="75.743063"><ele>3328</ele></trkpt>
      <trkpt lat="41.481544" lon="75.749961"><ele>3312</ele></trkpt>
      <trkpt lat="41.483986" lon="75.756422"><ele>3292</ele></trkpt>
      <trkpt lat="41.481188" lon="75.759758"><ele>3268</ele></trkpt>
      <trkpt lat="41.477173" lon="75.766368"><ele>3242</ele></trkpt>
      <trkpt lat="41.472921" lon="75.766047"><ele>3215</ele></trkpt>
      <trkpt lat="41.470807" lon="75.766158"><ele>3188</ele></trkpt>
      <trkpt lat="41.464198" lon="75.772024"><ele>3162</ele></trkpt>
      <trkpt lat="41.460645" lon="75.771023"><ele>3138</ele></trkpt>
      <trkpt lat="41.463236" lon="75.778105"><ele>3116</ele></trkpt>
      <trkpt lat="41.464869" lon="75.777850"><ele>3096</ele></trkpt>
      <trkpt lat="41.463858" lon="75.777029"><ele>3077</ele></trkpt>
      <trkpt lat="41.461372" lon="75.782303"><ele>3060</ele></trkpt>
      <trkpt lat="41.461913" lon="75.788652"><ele>3042</ele></trkpt>
      <trkpt lat="41.461218" lon="75.795340"><ele>3024</ele></trkpt>
      <trkpt lat="41.461541" lon="75.802345"><ele>3003</ele></trkpt>
      <trkpt lat="41.457363" lon="75.806933"><ele>2979</ele></trkpt>
      <trkpt lat="41.454039" lon="75.808656"><ele>2952</ele></trkpt>
      <trkpt lat="41.447348" lon="75.813797"><ele>2922</ele></trkpt>
      <trkpt lat="41.441290" lon="75.821013"><ele>2889</ele></trkpt>
      <trkpt lat="41.436623" lon="75.827867"><ele>2854</ele></trkpt>
      <trkpt lat="41.433135" lon="75.835812"><ele>2817</ele></trkpt>
      <trkpt lat="41.435065" lon="75.842368"><ele>2780</ele></trkpt>
      <trkpt lat="41.436933" lon="75.841339"><ele>2745</ele></trkpt>
      <trkpt lat="41.432393" lon="75.847748"><ele>2711</ele></trkpt>
      <trkpt lat="41.433224" lon="75.847184"><ele>2680</ele></trkpt>
      <trkpt lat="41.435148" lon="75.853112"><ele>2652</ele></trkpt>
      <trkpt lat="41.430945" lon="75.859939"><ele>2627</ele></trkpt>
      <trkpt lat="41.432857" lon="75.865051"><ele>2604</ele></trkpt>
      <trkpt lat="41.433409" lon="75.868541"><ele>2583</ele></trkpt>
      <trkpt lat="41.436112" lon="75.876309"><ele>2562</ele></trkpt>
      <trkpt lat="41.433625" lon="75.877347"><ele>2540</ele></trkpt>
      <trkpt lat="41.434728" lon="75.883884"><ele>2517</ele></trkpt>
      <trkpt lat="41.434359" lon="75.885019"><ele>2492</ele></trkpt>
      <trkpt lat="41.429499" lon="75.888166"><ele>2464</ele></trkpt>
      <trkpt lat="41.428830" lon="75.889911"><ele>2433</ele></trkpt>
      <trkpt lat="41.425926" lon="75.890666"><ele>2401</ele></trkpt>
      <trkpt lat="41.422351" lon="75.892610"><ele>2368</ele></trkpt>
      <trkpt lat="41.424929" lon="75.899623"><ele>2334</ele></trkpt>
      <trkpt lat="41.426419" lon="75.900080"><ele>2302</ele></trkpt>
      <trkpt lat="41.428627" lon="75.899546"><ele>2272</ele></trkpt>
      <trkpt lat="41.431554" lon="75.905026"><ele>2245</ele></trkpt>
      <trkpt lat="41.427287" lon="75.911639"><ele>2222</ele></trkpt>
      <trkpt lat="41.425404" lon="75.917795"><ele>2203</ele></trkpt>
      <trkpt lat="41.426034" lon="75.919958"><ele>2187</ele></trkpt>
      <trkpt lat="41.428367" lon="75.927897"><ele>2174</ele></trkpt>
      <trkpt lat="41.428162" lon="75.927927"><ele>2162</ele></trkpt>
      <trkpt lat="41.429333" lon="75.935434"><ele>2152</ele></trkpt>
      <trkpt lat="41.424237" lon="75.938052"><ele>2141</ele></trkpt>
      <trkpt lat="41.418677" lon="75.942550"><ele>2129</ele></trkpt>
      <trkpt lat="41.414211" lon="75.948189"><ele>2115</ele></trkpt>
      <trkpt lat="41.416882" lon="75.948605"><ele>2099</ele></trkpt>
      <trkpt lat="41.412669" lon="75.954680"><ele>2082</ele></trkpt>
      <trkpt lat="41.412078" lon="75.961985"><ele>2064</ele></trkpt>
      <trkpt lat="41.415005" lon="75.964200"><ele>2045</ele></trkpt>
      <trkpt lat="41.409887" lon="75.965573"><ele>2028</ele></trkpt>
      <trkpt lat="41.405091" lon="75.972691"><ele>2013</ele></trkpt>
      <trkpt lat="41.404725" lon="75.971832"><ele>2000</ele></trkpt>
      <trkpt lat="41.402970" lon="75.971296"><ele>1992</ele></trkpt>
      <trkpt lat="41.401665" lon="75.977709"><ele>1987</ele></trkpt>
      <trkpt lat="41.403877" lon="75.985816"><ele>1987</ele></trkpt>
      <trkpt lat="41.403488" lon="75.988423"><ele>1990</ele></trkpt>
      <trkpt lat="41.397569" lon="75.987776"><ele>1996</ele></trkpt>
      <trkpt lat="41.401005" lon="75.996813"><ele>2004</ele></trkpt>
      <trkpt lat="41.409748" lon="76.011890"><ele>2013</ele></trkpt>
      <trkpt lat="41.410316" lon="76.023716"><ele>2021</ele></trkpt>
      <trkpt lat="41.419472" lon="76.038513"><ele>2028</ele></trkpt>
      <trkpt lat="41.421127" lon="76.048688"><ele>2033</ele></trkpt>
      <trkpt lat="41.426833" lon="76.058903"><ele>2037</ele></trkpt>
      <trkpt lat="41.427336" lon="76.064586"><ele>2039</ele></trkpt>
      <trkpt lat="41.435822" lon="76.079535"><ele>2041</ele></trkpt>
      <trkpt lat="41.444249" lon="76.090341"><ele>2043</ele></trkpt>
      <trkpt lat="41.451897" lon="76.103374"><ele>2046</ele></trkpt>
      <trkpt lat="41.459629" lon="76.118162"><ele>2051</ele></trkpt>
      <trkpt lat="41.461735" lon="76.127351"><ele>2060</ele></trkpt>
      <trkpt lat="41.470513" lon="76.137536"><ele>2073</ele></trkpt>
      <trkpt lat="41.475650" lon="76.151638"><ele>2090</ele></trkpt>
      <trkpt lat="41.482827" lon="76.157642"><ele>2110</ele></trkpt>
      <trkpt lat="41.484325" lon="76.171300"><ele>2134</ele></trkpt>
      <trkpt lat="41.491204" lon="76.183981"><ele>2160</ele></trkpt>
      <trkpt lat="41.494148" lon="76.197416"><ele>2187</ele></trkpt>
      <trkpt lat="41.501616" lon="76.203986"><ele>2214</ele></trkpt>
      <trkpt lat="41.503475" lon="76.216469"><ele>2240</ele></trkpt>
      <trkpt lat="41.509904" lon="76.230338"><ele>2264</ele></trkpt>
      <trkpt lat="41.514737" lon="76.243034"><ele>2286</ele></trkpt>
      <trkpt lat="41.524366" lon="76.250172"><ele>2306</ele></trkpt>
      <trkpt lat="41.525316" lon="76.262934"><ele>2324</ele></trkpt>
      <trkpt lat="41.531244" lon="76.271771"><ele>2342</ele></trkpt>
      <trkpt lat="41.532747" lon="76.279818"><ele>2359</ele></trkpt>
      <trkpt lat="41.536688" lon="76.290176"><ele>2378</ele></trkpt>
      <trkpt lat="41.537751" lon="76.300427"><ele>2399</ele></trkpt>
      <trkpt lat="41.539817" lon="76.306486"><ele>2423</ele></trkpt>
      <trkpt lat="41.541370" lon="76.320007"><ele>2450</ele></trkpt>
      <trkpt lat="41.546135" lon="76.335127"><ele>2480</ele></trkpt>
      <trkpt lat="41.550241" lon="76.350664"><ele>2514</ele></trkpt>
      <trkpt lat="41.551402" lon="76.357643"><ele>2549</ele></trkpt>
      <trkpt lat="41.557086" lon="76.372910"><ele>2586</ele></trkpt>
      <trkpt lat="41.560842" lon="76.379443"><ele>2623</ele></trkpt>
      <trkpt lat="41.560763" lon="76.390601"><ele>2658</ele></trkpt>
      <trkpt lat="41.569567" lon="76.401808"><ele>2692</ele></trkpt>
      <trkpt lat="41.573635" lon="76.408016"><ele>2722</ele></trkpt>
      <trkpt lat="41.574609" lon="76.419061"><ele>2750</ele></trkpt>
      <trkpt lat="41.581958" lon="76.427873"><ele>2775</ele></trkpt>
      <trkpt lat="41.589781" lon="76.435275"><ele>2798</ele></trkpt>
      <trkpt lat="41.596324" lon="76.446322"><ele>2819</ele></trkpt>
      <trkpt lat="41.600442" lon="76.454442"><ele>2840</ele></trkpt>
      <trkpt lat="41.609613" lon="76.462160"><ele>2862</ele></trkpt>
      <trkpt lat="41.613461" lon="76.471545"><ele>2885</ele></trkpt>
      <trkpt lat="41.619869" lon="76.484374"><ele>2911</ele></trkpt>
      <trkpt lat="41.626070" lon="76.490833"><ele>2939</ele></trkpt>
      <trkpt lat="41.635371" lon="76.504071"><ele>2969</ele></trkpt>
      <trkpt lat="41.644683" lon="76.512681"><ele>3002</ele></trkpt>
      <trkpt lat="41.651549" lon="76.521805"><ele>3035</ele></trkpt>
      <trkpt lat="41.652561" lon="76.528430"><ele>3068</ele></trkpt>
      <trkpt lat="41.656302" lon="76.535136"><ele>3100</ele></trkpt>
      <trkpt lat="41.662416" lon="76.546607"><ele>3130</ele></trkpt>
      <trkpt lat="41.663475" lon="76.555748"><ele>3157</ele></trkpt>
      <trkpt lat="41.669898" lon="76.564728"><ele>3180</ele></trkpt>
      <trkpt lat="41.673987" lon="76.579163"><ele>3199</ele></trkpt>
      <trkpt lat="41.679079" lon="76.592064"><ele>3214</ele></trkpt>
      <trkpt lat="41.683497" lon="76.603889"><ele>3227</ele></trkpt>
      <trkpt lat="41.690527" lon="76.611307"><ele>3239</ele></trkpt>
      <trkpt lat="41.695518" lon="76.621197"><ele>3249</ele></trkpt>
      <trkpt lat="41.700455" lon="76.636274"><ele>3260</ele></trkpt>
      <trkpt lat="41.702101" lon="76.650564"><ele>3272</ele></trkpt>
      <trkpt lat="41.705529" lon="76.658836"><ele>3286</ele></trkpt>
      <trkpt lat="41.709535" lon="76.672085"><ele>3302</ele></trkpt>
      <trkpt lat="41.718007" lon="76.684306"><ele>3319</ele></trkpt>
      <trkpt lat="41.722801" lon="76.695225"><ele>3338</ele></trkpt>
      <trkpt lat="41.723144" lon="76.710603"><ele>3356</ele></trkpt>
      <trkpt lat="41.727821" lon="76.725336"><ele>3373</ele></trkpt>
      <trkpt lat="41.735436" lon="76.735691"><ele>3389</ele></trkpt>
      <trkpt lat="41.741939" lon="76.748257"><ele>3401</ele></trkpt>
      <trkpt lat="41.744820" lon="76.759429"><ele>3409</ele></trkpt>
      <trkpt lat="41.748043" lon="76.766038"><ele>3413</ele></trkpt>
      <trkpt lat="41.753670" lon="76.779393"><ele>3413</ele></trkpt>
      <trkpt lat="41.758575" lon="76.787309"><ele>3409</ele></trkpt>
      <trkpt lat="41.759927" lon="76.798638"><ele>3403</ele></trkpt>
      <trkpt lat="41.767395" lon="76.813803"><ele>3395</ele></trkpt>
      <trkpt lat="41.775500" lon="76.828477"><ele>3387</ele></trkpt>
      <trkpt lat="41.777628" lon="76.841416"><ele>3379</ele></trkpt>
      <trkpt lat="41.780389" lon="76.849431"><ele>3372</ele></trkpt>
      <trkpt lat="41.781016" lon="76.856927"><ele>3366</ele></trkpt>
      <trkpt lat="41.783782" lon="76.870903"><ele>3363</ele></trkpt>
      <trkpt lat="41.789612" lon="76.885262"><ele>3361</ele></trkpt>
      <trkpt lat="41.791906" lon="76.891498"><ele>3359</ele></trkpt>
      <trkpt lat="41.796690" lon="76.903360"><ele>3357</ele></trkpt>
      <trkpt lat="41.801562" lon="76.913319"><ele>3354</ele></trkpt>
      <trkpt lat="41.806488" lon="76.923848"><ele>3348</ele></trkpt>
      <trkpt lat="41.807855" lon="76.931120"><ele>3339</ele></trkpt>
      <trkpt lat="41.810502" lon="76.937849"><ele>3326</ele></trkpt>
      <trkpt lat="41.815042" lon="76.946192"><ele>3309</ele></trkpt>
      <trkpt lat="41.821170" lon="76.960115"><ele>3288</ele></trkpt>
      <trkpt lat="41.825675" lon="76.967571"><ele>3264</ele></trkpt>
      <trkpt lat="41.832435" lon="76.980235"><ele>3238</ele></trkpt>
      <trkpt lat="41.840819" lon="76.986628"><ele>3211</ele></trkpt>
      <trkpt lat="41.846873" lon="76.993330"><ele>3184</ele></trkpt>
      <trkpt lat="41.851861" lon="77.005086"><ele>3158</ele></trkpt>
      <trkpt lat="41.858795" lon="77.017348"><ele>3134</ele></trkpt>
      <trkpt lat="41.861640" lon="77.028990"><ele>3112</ele></trkpt>
      <trkpt lat="41.866520" lon="77.040274"><ele>3092</ele></trkpt>
      <trkpt lat="41.873399" lon="77.054868"><ele>3074</ele></trkpt>
      <trkpt lat="41.880149" lon="77.068792"><ele>3057</ele></trkpt>
      <trkpt lat="41.881420" lon="77.077656"><ele>3039</ele></trkpt>
      <trkpt lat="41.885067" lon="77.087008"><ele>3020</ele></trkpt>
      <trkpt lat="41.892162" lon="77.101676"><ele>2999</ele></trkpt>
      <trkpt lat="41.897906" lon="77.113219"><ele>2975</ele></trkpt>
      <trkpt lat="41.901678" lon="77.121406"><ele>2948</ele></trkpt>
      <trkpt lat="41.906327" lon="77.134584"><ele>2917</ele></trkpt>
      <trkpt lat="41.910612" lon="77.141101"><ele>2883</ele></trkpt>
      <trkpt lat="41.914295" lon="77.152112"><ele>2848</ele></trkpt>
      <trkpt lat="41.917309" lon="77.165290"><ele>2811</ele></trkpt>
      <trkpt lat="41.922711" lon="77.179941"><ele>2774</ele></trkpt>
      <trkpt lat="41.928417" lon="77.194639"><ele>2739</ele></trkpt>
      <trkpt lat="41.936006" lon="77.204877"><ele>2706</ele></trkpt>
      <trkpt lat="41.942610" lon="77.218535"><ele>2675</ele></trkpt>
      <trkpt lat="41.947490" lon="77.228897"><ele>2648</ele></trkpt>
      <trkpt lat="41.951916" lon="77.241092"><ele>2623</ele></trkpt>
      <trkpt lat="41.956513" lon="77.249192"><ele>2601</ele></trkpt>
      <trkpt lat="41.958418" lon="77.260790"><ele>2579</ele></trkpt>
      <trkpt lat="41.961784" lon="77.268932"><ele>2558</ele></trkpt>
      <trkpt lat="41.963277" lon="77.280591"><ele>2536</ele></trkpt>
      <trkpt lat="41.965931" lon="77.294078"><ele>2513</ele></trkpt>
      <trkpt lat="41.968436" lon="77.308638"><ele>2487</ele></trkpt>
      <trkpt lat="41.973409" lon="77.315061"><ele>2459</ele></trkpt>
      <trkpt lat="41.980687" lon="77.327930"><ele>2428</ele></trkpt>
      <trkpt lat="41.989593" lon="77.337183"><ele>2395</ele></trkpt>
      <trkpt lat="41.990124" lon="77.344571"><ele>2362</ele></trkpt>
      <trkpt lat="41.995021" lon="77.355918"><ele>2329</ele></trkpt>
      <trkpt lat="42.000008" lon="77.367463"><ele>2297</ele></trkpt>
      <trkpt lat="42.002804" lon="77.375857"><ele>2268</ele></trkpt>
      <trkpt lat="42.003144" lon="77.386936"><ele>2241</ele></trkpt>
      <trkpt lat="42.010153" lon="77.395522"><ele>2219</ele></trkpt>
      <trkpt lat="42.013887" lon="77.408291"><ele>2200</ele></trkpt>
      <trkpt lat="42.016472" lon="77.418172"><ele>2184</ele></trkpt>
      <trkpt lat="42.020713" lon="77.428321"><ele>2172</ele></trkpt>
      <trkpt lat="42.028353" lon="77.436851"><ele>2160</ele></trkpt>
      <trkpt lat="42.035808" lon="77.450151"><ele>2150</ele></trkpt>
      <trkpt lat="42.043167" lon="77.460455"><ele>2139</ele></trkpt>
      <trkpt lat="42.049331" lon="77.472813"><ele>2127</ele></trkpt>
      <trkpt lat="42.050026" lon="77.483021"><ele>2113</ele></trkpt>
      <trkpt lat="42.051271" lon="77.490286"><ele>2097</ele></trkpt>
      <trkpt lat="42.057398" lon="77.497021"><ele>2079</ele></trkpt>
      <trkpt lat="42.059025" lon="77.510888"><ele>2061</ele></trkpt>
      <trkpt lat="42.061953" lon="77.522256"><ele>2042</ele></trkpt>
      <trkpt lat="42.068865" lon="77.536436"><ele>2025</ele></trkpt>
      <trkpt lat="42.075558" lon="77.545203"><ele>2010</ele></trkpt>
      <trkpt lat="42.079744" lon="77.559743"><ele>1998</ele></trkpt>
      <trkpt lat="42.081702" lon="77.569573"><ele>1991</ele></trkpt>
      <trkpt lat="42.085273" lon="77.584167"><ele>1987</ele></trkpt>
      <trkpt lat="42.090474" lon="77.591268"><ele>1987</ele></trkpt>
      <trkpt lat="42.098105" lon="77.602806"><ele>1991</ele></trkpt>
      <trkpt lat="42.103133" lon="77.616993"><ele>1997</ele></trkpt>
      <trkpt lat="42.109197" lon="77.631781"><ele>2006</ele></trkpt>
      <trkpt lat="42.111995" lon="77.644881"><ele>2014</ele></trkpt>
      <trkpt lat="42.120416" lon="77.651367"><ele>2022</ele></trkpt>
      <trkpt lat="42.122365" lon="77.662679"><ele>2029</ele></trkpt>
      <trkpt lat="42.123114" lon="77.672909"><ele>2034</ele></trkpt>
      <trkpt lat="42.130323" lon="77.684366"><ele>2037</ele></trkpt>
      <trkpt lat="42.138872" lon="77.693120"><ele>2039</ele></trkpt>
      <trkpt lat="42.139723" lon="77.706016"><ele>2041</ele></trkpt>
      <trkpt lat="42.141609" lon="77.712652"><ele>2043</ele></trkpt>
      <trkpt lat="42.144318" lon="77.721666"><ele>2047</ele></trkpt>
      <trkpt lat="42.152384" lon="77.730872"><ele>2053</ele></trkpt>
      <trkpt lat="42.157936" lon="77.737972"><ele>2062</ele></trkpt>
      <trkpt lat="42.160398" lon="77.748987"><ele>2075</ele></trkpt>
      <trkpt lat="42.169023" lon="77.763425"><ele>2093</ele></trkpt>
      <trkpt lat="42.173849" lon="77.774007"><ele>2114</ele></trkpt>
      <trkpt lat="42.178905" lon="77.787773"><ele>2138</ele></trkpt>
      <trkpt lat="42.180075" lon="77.798777"><ele>2164</ele></trkpt>
      <trkpt lat="42.183926" lon="77.809765"><ele>2191</ele></trkpt>
      <trkpt lat="42.185085" lon="77.820795"><ele>2218</ele></trkpt>
      <trkpt lat="42.192925" lon="77.833580"><ele>2244</ele></trkpt>
      <trkpt lat="42.194555" lon="77.843550"><ele>2268</ele></trkpt>
      <trkpt lat="42.201267" lon="77.857607"><ele>2290</ele></trkpt>
      <trkpt lat="42.209613" lon="77.867205"><ele>2309</ele></trkpt>
      <trkpt lat="42.212249" lon="77.875536"><ele>2327</ele></trkpt>
      <trkpt lat="42.214033" lon="77.882614"><ele>2345</ele></trkpt>
      <trkpt lat="42.219727" lon="77.893939"><ele>2362</ele></trkpt>
      <trkpt lat="42.228496" lon="77.901826"><ele>2381</ele></trkpt>
      <trkpt lat="42.234150" lon="77.910528"><ele>2403</ele></trkpt>
      <trkpt lat="42.241026" lon="77.918099"><ele>2427</ele></trkpt>
      <trkpt lat="42.243009" lon="77.930293"><ele>2455</ele></trkpt>
      <trkpt lat="42.250447" lon="77.938264"><ele>2486</ele></trkpt>
      <trkpt lat="42.252970" lon="77.945925"><ele>2520</ele></trkpt>
      <trkpt lat="42.260906" lon="77.958708"><ele>2555</ele></trkpt>
      <trkpt lat="42.264861" lon="77.965368"><ele>2592</ele></trkpt>
      <trkpt lat="42.272019" lon="77.972463"><ele>2629</ele></trkpt>
      <trkpt lat="42.280047" lon="77.979902"><ele>2664</ele></trkpt>
      <trkpt lat="42.287787" lon="77.987245"><ele>2697</ele></trkpt>
      <trkpt lat="42.296208" lon="78.001711"><ele>2727</ele></trkpt>
      <trkpt lat="42.303484" lon="78.014563"><ele>2754</ele></trkpt>
      <trkpt lat="42.309695" lon="78.023695"><ele>2779</ele></trkpt>
      <trkpt lat="42.314219" lon="78.038155"><ele>2801</ele></trkpt>
      <trkpt lat="42.315637" lon="78.051899"><ele>2823</ele></trkpt>
      <trkpt lat="42.316893" lon="78.058958"><ele>2844</ele></trkpt>
      <trkpt lat="42.322978" lon="78.071071"><ele>2866</ele></trkpt>
      <trkpt lat="42.329254" lon="78.083237"><ele>2889</ele></trkpt>
      <trkpt lat="42.337073" lon="78.090292"><ele>2915</ele></trkpt>
      <trkpt lat="42.340683" lon="78.099606"><ele>2944</ele></trkpt>
      <trkpt lat="42.343922" lon="78.113466"><ele>2975</ele></trkpt>
      <trkpt lat="42.347958" lon="78.126478"><ele>3007</ele></trkpt>
      <trkpt lat="42.349905" lon="78.140588"><ele>3041</ele></trkpt>
      <trkpt lat="42.355016" lon="78.150878"><ele>3074</ele></trkpt>
      <trkpt lat="42.362869" lon="78.161141"><ele>3106</ele></trkpt>
      <trkpt lat="42.369599" lon="78.174686"><ele>3135</ele></trkpt>
      <trkpt lat="42.370671" lon="78.187274"><ele>3161</ele></trkpt>
      <trkpt lat="42.375549" lon="78.199723"><ele>3183</ele></trkpt>
      <trkpt lat="42.380402" lon="78.211370"><ele>3202</ele></trkpt>
      <trkpt lat="42.384723" lon="78.222983"><ele>3217</ele></trkpt>
      <trkpt lat="42.389707" lon="78.233803"><ele>3229</ele></trkpt>
      <trkpt lat="42.391548" lon="78.245888"><ele>3241</ele></trkpt>
      <trkpt lat="42.393008" lon="78.259105"><ele>3251</ele></trkpt>
      <trkpt lat="42.399476" lon="78.270843"><ele>3262</ele></trkpt>
      <trkpt lat="42.400628" lon="78.283072"><ele>3275</ele></trkpt>
      <trkpt lat="42.407941" lon="78.292161"><ele>3289</ele></trkpt>
      <trkpt lat="42.415150" lon="78.304458"><ele>3305</ele></trkpt>
      <trkpt lat="42.418845" lon="78.316682"><ele>3322</ele></trkpt>
      <trkpt lat="42.420051" lon="78.328670"><ele>3341</ele></trkpt>
      <trkpt lat="42.424357" lon="78.341472"><ele>3359</ele></trkpt>
      <trkpt lat="42.427680" lon="78.351749"><ele>3376</ele></trkpt>
      <trkpt lat="42.430255" lon="78.363517"><ele>3391</ele></trkpt>
      <trkpt lat="42.435139" lon="78.372308"><ele>3402</ele></trkpt>
      <trkpt lat="42.437312" lon="78.380581"><ele>3410</ele></trkpt>
      <trkpt lat="42.439805" lon="78.388314"><ele>3413</ele></trkpt>
      <trkpt lat="42.446456" lon="78.400839"><ele>3413</ele></trkpt>
      <trkpt lat="42.450715" lon="78.409993"><ele>3409</ele></trkpt>
      <trkpt lat="42.458222" lon="78.417128"><ele>3402</ele></trkpt>
      <trkpt lat="42.462063" lon="78.416317"><ele>3394</ele></trkpt>
      <trkpt lat="42.462123" lon="78.418226"><ele>3385</ele></trkpt>
      <trkpt lat="42.461551" lon="78.418092"><ele>3377</ele></trkpt>
      <trkpt lat="42.459972" lon="78.414883"><ele>3371</ele></trkpt>
      <trkpt lat="42.457777" lon="78.413745"><ele>3366</ele></trkpt>
      <trkpt lat="42.460812" lon="78.413385"><ele>3362</ele></trkpt>
      <trkpt lat="42.457583" lon="78.410137"><ele>3360</ele></trkpt>
      <trkpt lat="42.456237" lon="78.408720"><ele>3359</ele></trkpt>
      <trkpt lat="42.455324" lon="78.408773"><ele>3357</ele></trkpt>
      <trkpt lat="42.455715" lon="78.409798"><ele>3353</ele></trkpt>
      <trkpt lat="42.453440" lon="78.409520"><ele>3347</ele></trkpt>
      <trkpt lat="42.456872" lon="78.410350"><ele>3337</ele></trkpt>
      <trkpt lat="42.456722" lon="78.412646"><ele>3323</ele></trkpt>
      <trkpt lat="42.457425" lon="78.409450"><ele>3305</ele></trkpt>
      <trkpt lat="42.459425" lon="78.409584"><ele>3284</ele></trkpt>
      <trkpt lat="42.461505" lon="78.406181"><ele>3260</ele></trkpt>
      <trkpt lat="42.458468" lon="78.404323"><ele>3233</ele></trkpt>
      <trkpt lat="42.459224" lon="78.402746"><ele>3206</ele></trkpt>
      <trkpt lat="42.456512" lon="78.400271"><ele>3180</ele></trkpt>
      <trkpt lat="42.458445" lon="78.398407"><ele>3154</ele></trkpt>
      <trkpt lat="42.455447" lon="78.400384"><ele>3130</ele></trkpt>
      <trkpt lat="42.457294" lon="78.402688"><ele>3109</ele></trkpt>
      <trkpt lat="42.458886" lon="78.401590"><ele>3089</ele></trkpt>
      <trkpt lat="42.459922" lon="78.400221"><ele>3071</ele></trkpt>
      <trkpt lat="42.457838" lon="78.402080"><ele>3054</ele></trkpt>
      <trkpt lat="42.455559" lon="78.401993"><ele>3036</ele></trkpt>
      <trkpt lat="42.456986" lon="78.401556"><ele>3017</ele></trkpt>
      <trkpt lat="42.457745" lon="78.400208"><ele>2995</ele></trkpt>
      <trkpt lat="42.457763" lon="78.398958"><ele>2971</ele></trkpt>
      <trkpt lat="42.458247" lon="78.401873"><ele>2943</ele></trkpt>
      <trkpt lat="42.456605" lon="78.399134"><ele>2912</ele></trkpt>
      <trkpt lat="42.459795" lon="78.401153"><ele>2878</ele></trkpt>
      <trkpt lat="42.458704" lon="78.399712"><ele>2842</ele></trkpt>
      <trkpt lat="42.459318" lon="78.400750"><ele>2805</ele></trkpt>
      <trkpt lat="42.456807" lon="78.400164"><ele>2768</ele></trkpt>
      <trkpt lat="42.458527" lon="78.397383"><ele>2733</ele></trkpt>
      <trkpt lat="42.458162" lon="78.396767"><ele>2701</ele></trkpt>
      <trkpt lat="42.461179" lon="78.397631"><ele>2671</ele></trkpt>
      <trkpt lat="42.459980" lon="78.397177"><ele>2644</ele></trkpt>
      <trkpt lat="42.461484" lon="78.395669"><ele>2619</ele></trkpt>
      <trkpt lat="42.462472" lon="78.393959"><ele>2597</ele></trkpt>
      <trkpt lat="42.460932" lon="78.392016"><ele>2576</ele></trkpt>
      <trkpt lat="42.458258" lon="78.390221"><ele>2555</ele></trkpt>
      <trkpt lat="42.459518" lon="78.393117"><ele>2533</ele></trkpt>
      <trkpt lat="42.460731" lon="78.391079"><ele>2509</ele></trkpt>
      <trkpt lat="42.462268" lon="78.393915"><ele>2482</ele></trkpt>
      <trkpt lat="42.464824" lon="78.392585"><ele>2454</ele></trkpt>
      <trkpt lat="42.463753" lon="78.394279"><ele>2423</ele></trkpt>
      <trkpt lat="42.462610" lon="78.395529"><ele>2390</ele></trkpt>
      <trkpt lat="42.465275" lon="78.398120"><ele>2356</ele></trkpt>
      <trkpt lat="42.465674" lon="78.395997"><ele>2323</ele></trkpt>
      <trkpt lat="42.467385" lon="78.395668"><ele>2292</ele></trkpt>
      <trkpt lat="42.468682" lon="78.396810"><ele>2263</ele></trkpt>
      <trkpt lat="42.466569" lon="78.396438"><ele>2237</ele></trkpt>
      <trkpt lat="42.466175" lon="78.397428"><ele>2215</ele></trkpt>
      <trkpt lat="42.466199" lon="78.399081"><ele>2197</ele></trkpt>
      <trkpt lat="42.466639" lon="78.398949"><ele>2182</ele></trkpt>
      <trkpt lat="42.464326" lon="78.396771"><ele>2170</ele></trkpt>
      <trkpt lat="42.462028" lon="78.398419"><ele>2159</ele></trkpt>
      <trkpt lat="42.460444" lon="78.396657"><ele>2148</ele></trkpt>
      <trkpt lat="42.462394" lon="78.395760"><ele>2137</ele></trkpt>
      <trkpt lat="42.463434" lon="78.395193"><ele>2124</ele></trkpt>
      <trkpt lat="42.464339" lon="78.392561"><ele>2110</ele></trkpt>
      <trkpt lat="42.463159" lon="78.391671"><ele>2094</ele></trkpt>
      <trkpt lat="42.462620" lon="78.393737"><ele>2076</ele></trkpt>
      <trkpt lat="42.460878" lon="78.393523"><ele>2058</ele></trkpt>
      <trkpt lat="42.462223" lon="78.391484"><ele>2039</ele></trkpt>
      <trkpt lat="42.463011" lon="78.393771"><ele>2022</ele></trkpt>
      <trkpt lat="42.463596" lon="78.393994"><ele>2008</ele></trkpt>
      <trkpt lat="42.462022" lon="78.395248"><ele>1997</ele></trkpt>
      <trkpt lat="42.461732" lon="78.397657"><ele>1990</ele></trkpt>
      <trkpt lat="42.462138" lon="78.398642"><ele>1987</ele></trkpt>
      <trkpt lat="42.462194" lon="78.396327"><ele>1988</ele></trkpt>
      <trkpt lat="42.463956" lon="78.394253"><ele>1992</ele></trkpt>
      <trkpt lat="42.465608" lon="78.393403"><ele>1999</ele></trkpt>
      <trkpt lat="42.464309" lon="78.395815"><ele>2007</ele></trkpt>
      <trkpt lat="42.462122" lon="78.393701"><ele>2015</ele></trkpt>
      <trkpt lat="42.461394" lon="78.393280"><ele>2023</ele></trkpt>
      <trkpt lat="42.462729" lon="78.394135"><ele>2030</ele></trkpt>
      <trkpt lat="42.460977" lon="78.391855"><ele>2035</ele></trkpt>
      <trkpt lat="42.462694" lon="78.393686"><ele>2038</ele></trkpt>
      <trkpt lat="42.463279" lon="78.395751"><ele>2040</ele></trkpt>
      <trkpt lat="42.465355" lon="78.394201"><ele>2041</ele></trkpt>
      <trkpt lat="42.464382" lon="78.395173"><ele>2043</ele></trkpt>
      <trkpt lat="42.462437" lon="78.392896"><ele>2047</ele></trkpt>
      <trkpt lat="42.463139" lon="78.395068"><ele>2054</ele></trkpt>
      <trkpt lat="42.461798" lon="78.395994"><ele>2064</ele></trkpt>
      <trkpt lat="42.460906" lon="78.397576"><ele>2078</ele></trkpt>
      <trkpt lat="42.462539" lon="78.395927"><ele>2096</ele></trkpt>
      <trkpt lat="42.463325" lon="78.395020"><ele>2118</ele></trkpt>
      <trkpt lat="42.462805" lon="78.396662"><ele>2142</ele></trkpt>
      <trkpt lat="42.461204" lon="78.395052"><ele>2169</ele></trkpt>
      <trkpt lat="42.462272" lon="78.396582"><ele>2196</ele></trkpt>
      <trkpt lat="42.460829" lon="78.394924"><ele>2223</ele></trkpt>
      <trkpt lat="42.459377" lon="78.393455"><ele>2248</ele></trkpt>
      <trkpt lat="42.460878" lon="78.393931"><ele>2272</ele></trkpt>
      <trkpt lat="42.461926" lon="78.394133"><ele>2293</ele></trkpt>
      <trkpt lat="42.462717" lon="78.394118"><ele>2312</ele></trkpt>
      <trkpt lat="42.462709" lon="78.392732"><ele>2330</ele></trkpt>
      <trkpt lat="42.464526" lon="78.393052"><ele>2348</ele></trkpt>
      <trkpt lat="42.464520" lon="78.393015"><ele>2365</ele></trkpt>
      <trkpt lat="42.464111" lon="78.392558"><ele>2385</ele></trkpt>
      <trkpt lat="42.462862" lon="78.393728"><ele>2407</ele></trkpt>
      <trkpt lat="42.463823" lon="78.392860"><ele>2431</ele></trkpt>
      <trkpt lat="42.465241" lon="78.393938"><ele>2460</ele></trkpt>
      <trkpt lat="42.465801" lon="78.393220"><ele>2491</ele></trkpt>
      <trkpt lat="42.467430" lon="78.393270"><ele>2525</ele></trkpt>
      <trkpt lat="42.467179" lon="78.391499"><ele>2561</ele></trkpt>
      <trkpt lat="42.467724" lon="78.391108"><ele>2598</ele></trkpt>
      <trkpt lat="42.469823" lon="78.391237"><ele>2635</ele></trkpt>
      <trkpt lat="42.469196" lon="78.392843"><ele>2670</ele></trkpt>
      <trkpt lat="42.471180" lon="78.394499"><ele>2702</ele></trkpt>
      <trkpt lat="42.472850" lon="78.394574"><ele>2732</ele></trkpt>
      <trkpt lat="42.473399" lon="78.395242"><ele>2759</ele></trkpt>
      <trkpt lat="42.474793" lon="78.396983"><ele>2783</ele></trkpt>
      <trkpt lat="42.476301" lon="78.395091"><ele>2805</ele></trkpt>
      <trkpt lat="42.476267" lon="78.395411"><ele>2826</ele></trkpt>
      <trkpt lat="42.477347" lon="78.394293"><ele>2847</ele></trkpt>
      <trkpt lat="42.477035" lon="78.394785"><ele>2869</ele></trkpt>
      <trkpt lat="42.477333" lon="78.393719"><ele>2893</ele></trkpt>
      <trkpt lat="42.477429" lon="78.394287"><ele>2920</ele></trkpt>
      <trkpt lat="42.478366" lon="78.392920"><ele>2949</ele></trkpt>
      <trkpt lat="42.478776" lon="78.392536"><ele>2980</ele></trkpt>
      <trkpt lat="42.479986" lon="78.393373"><ele>3013</ele></trkpt>
      <trkpt lat="42.481103" lon="78.394191"><ele>3046</ele></trkpt>
      <trkpt lat="42.480312" lon="78.394132"><ele>3079</ele></trkpt>
      <trkpt lat="42.479850" lon="78.395252"><ele>3111</ele></trkpt>
      <trkpt lat="42.481562" lon="78.393550"><ele>3139</ele></trkpt>
      <trkpt lat="42.480504" lon="78.392531"><ele>3165</ele></trkpt>
      <trkpt lat="42.481460" lon="78.392172"><ele>3186</ele></trkpt>
      <trkpt lat="42.481810" lon="78.391962"><ele>3204</ele></trkpt>
      <trkpt lat="42.482904" lon="78.390643"><ele>3219</ele></trkpt>
      <trkpt lat="42.481598" lon="78.389762"><ele>3231</ele></trkpt>
      <trkpt lat="42.482156" lon="78.389686"><ele>3242</ele></trkpt>
      <trkpt lat="42.482194" lon="78.388843"><ele>3253</ele></trkpt>
      <trkpt lat="42.481725" lon="78.390184"><ele>3264</ele></trkpt>
      <trkpt lat="42.482707" lon="78.389794"><ele>3277</ele></trkpt>
      <trkpt lat="42.481452" lon="78.388435"><ele>3291</ele></trkpt>
      <trkpt lat="42.482586" lon="78.388874"><ele>3308</ele></trkpt>
      <trkpt lat="42.482160" lon="78.390018"><ele>3325</ele></trkpt>
      <trkpt lat="42.482904" lon="78.389039"><ele>3344</ele></trkpt>
      <trkpt lat="42.483493" lon="78.389851"><ele>3362</ele></trkpt>
      <trkpt lat="42.484682" lon="78.389600"><ele>3379</ele></trkpt>
      <trkpt lat="42.485838" lon="78.390889"><ele>3393</ele></trkpt>
      <trkpt lat="42.484562" lon="78.391499"><ele>3404</ele></trkpt>
      <trkpt lat="42.484161" lon="78.392673"><ele>3411</ele></trkpt>
      <trkpt lat="42.483713" lon="78.392563"><ele>3413</ele></trkpt>
      <trkpt lat="42.483825" lon="78.392741"><ele>3412</ele></trkpt>
      <trkpt lat="42.484147" lon="78.392786"><ele>3408</ele></trkpt>
      <trkpt lat="42.483678" lon="78.391873"><ele>3401</ele></trkpt>
      <trkpt lat="42.484150" lon="78.393094"><ele>3392</ele></trkpt>
      <trkpt lat="42.483335" lon="78.394105"><ele>3384</ele></trkpt>
      <trkpt lat="42.483217" lon="78.393220"><ele>3376</ele></trkpt>
      <trkpt lat="42.483308" lon="78.394021"><ele>3370</ele></trkpt>
      <trkpt lat="42.482319" lon="78.393731"><ele>3365</ele></trkpt>
      <trkpt lat="42.481361" lon="78.394359"><ele>3362</ele></trkpt>
      <trkpt lat="42.480576" lon="78.393562"><ele>3360</ele></trkpt>
      <trkpt lat="42.480818" lon="78.392465"><ele>3359</ele></trkpt>
      <trkpt lat="42.480280" lon="78.392609"><ele>3356</ele></trkpt>
      <trkpt lat="42.480306" lon="78.391645"><ele>3352</ele></trkpt>
      <trkpt lat="42.481292" lon="78.390563"><ele>3345</ele></trkpt>
      <trkpt lat="42.481369" lon="78.391642"><ele>3335</ele></trkpt>
      <trkpt lat="42.481933" lon="78.392636"><ele>3321</ele></trkpt>
      <trkpt lat="42.483021" lon="78.393327"><ele>3302</ele></trkpt>
      <trkpt lat="42.483550" lon="78.394203"><ele>3280</ele></trkpt>
      <trkpt lat="42.483463" lon="78.393353"><ele>3256</ele></trkpt>
      <trkpt lat="42.483886" lon="78.394108"><ele>3229</ele></trkpt>
      <trkpt lat="42.484762" lon="78.394568"><ele>3202</ele></trkpt>
      <trkpt lat="42.485649" lon="78.393728"><ele>3175</ele></trkpt>
      <trkpt lat="42.486623" lon="78.393962"><ele>3150</ele></trkpt>
      <trkpt lat="42.487007" lon="78.394541"><ele>3127</ele></trkpt>
      <trkpt lat="42.486789" lon="78.394268"><ele>3105</ele></trkpt>
      <trkpt lat="42.485999" lon="78.394432"><ele>3086</ele></trkpt>
      <trkpt lat="42.486158" lon="78.394968"><ele>3068</ele></trkpt>
      <trkpt lat="42.485506" lon="78.395451"><ele>3051</ele></trkpt>
      <trkpt lat="42.484936" lon="78.395883"><ele>3033</ele></trkpt>
      <trkpt lat="42.485777" lon="78.396236"><ele>3014</ele></trkpt>
      <trkpt lat="42.485580" lon="78.396375"><ele>2991</ele></trkpt>
      <trkpt lat="42.485718" lon="78.396838"><ele>2966</ele></trkpt>
      <trkpt lat="42.485559" lon="78.397347"><ele>2938</ele></trkpt>
      <trkpt lat="42.485451" lon="78.396667"><ele>2906</ele></trkpt>
      <trkpt lat="42.485067" lon="78.395905"><ele>2872</ele></trkpt>
      <trkpt lat="42.485688" lon="78.395716"><ele>2836</ele></trkpt>
      <trkpt lat="42.485237" lon="78.395199"><ele>2799</ele></trkpt>
      <trkpt lat="42.485558" lon="78.394401"><ele>2762</ele></trkpt>
      <trkpt lat="42.485421" lon="78.393630"><ele>2728</ele></trkpt>
      <trkpt lat="42.485227" lon="78.393080"><ele>2695</ele></trkpt>
      <trkpt lat="42.485700" lon="78.392760"><ele>2666</ele></trkpt>
      <trkpt lat="42.486276" lon="78.392783"><ele>2639</ele></trkpt>
      <trkpt lat="42.486788" lon="78.392854"><ele>2615</ele></trkpt>
      <trkpt lat="42.487368" lon="78.392383"><ele>2593</ele></trkpt>
      <trkpt lat="42.486931" lon="78.392553"><ele>2572</ele></trkpt>
      <trkpt lat="42.486744" lon="78.392429"><ele>2551</ele></trkpt>
      <trkpt lat="42.487349" lon="78.392254"><ele>2529</ele></trkpt>
      <trkpt lat="42.487579" lon="78.391771"><ele>2505</ele></trkpt>
      <trkpt lat="42.487227" lon="78.391671"><ele>2478</ele></trkpt>
      <trkpt lat="42.487712" lon="78.391257"><ele>2449</ele></trkpt>
      <trkpt lat="42.487537" lon="78.391412"><ele>2417</ele></trkpt>
      <trkpt lat="42.487312" lon="78.391520"><ele>2384</ele></trkpt>
      <trkpt lat="42.487049" lon="78.391196"><ele>2351</ele></trkpt>
      <trkpt lat="42.487448" lon="78.391133"><ele>2318</ele></trkpt>
      <trkpt lat="42.487434" lon="78.391351"><ele>2287</ele></trkpt>
      <trkpt lat="42.487520" lon="78.391311"><ele>2258</ele></trkpt>
      <trkpt lat="42.487312" lon="78.391450"><ele>2233</ele></trkpt>
      <trkpt lat="42.487334" lon="78.391281"><ele>2212</ele></trkpt>
      <trkpt lat="42.487148" lon="78.391344"><ele>2194</ele></trkpt>
      <trkpt lat="42.487400" lon="78.391026"><ele>2180</ele></trkpt>
      <trkpt lat="42.487327" lon="78.390951"><ele>2168</ele></trkpt>
      <trkpt lat="42.487578" lon="78.390765"><ele>2157</ele></trkpt>
      <trkpt lat="42.487690" lon="78.390505"><ele>2146</ele></trkpt>
      <trkpt lat="42.488067" lon="78.390537"><ele>2135</ele></trkpt>
      <trkpt lat="42.488321" lon="78.390622"><ele>2122</ele></trkpt>
      <trkpt lat="42.488633" lon="78.390401"><ele>2107</ele></trkpt>
      <trkpt lat="42.488804" lon="78.390370"><ele>2091</ele></trkpt>
      <trkpt lat="42.488766" lon="78.390183"><ele>2073</ele></trkpt>
      <trkpt lat="42.488971" lon="78.390224"><ele>2055</ele></trkpt>
      <trkpt lat="42.489087" lon="78.390297"><ele>2036</ele></trkpt>
      <trkpt lat="42.489281" lon="78.390240"><ele>2020</ele></trkpt>
      <trkpt lat="42.489487" lon="78.390136"><ele>2006</ele></trkpt>
      <trkpt lat="42.489517" lon="78.390138"><ele>1995</ele></trkpt>
      <trkpt lat="42.489618" lon="78.390121"><ele>1989</ele></trkpt>
      <trkpt lat="42.489677" lon="78.390068"><ele>1987</ele></trkpt>
      <trkpt lat="42.489811" lon="78.390057"><ele>1988</ele></trkpt>
      <trkpt lat="42.489920" lon="78.390044"><ele>1993</ele></trkpt>
      <trkpt lat="42.490000" lon="78.390000"><ele>2000</ele></trkpt>
    </trkseg>
  </trk>
</gpx>
