<?xml version="1.0" encoding="UTF-8"?>
<gpx version="1.1" creator="Bikepacking-Planer seed script" xmlns="http://www.topografix.com/GPX/1/1">
  <trk>
    <name>Morocco — Atlas crossing</name>
    <trkseg>
      <trkpt lat="31.630000" lon="-8.000000"><ele>700</ele></trkpt>
      <trkpt lat="31.627130" lon="-7.995670"><ele>706</ele></trkpt>
      <trkpt lat="31.624278" lon="-7.991313"><ele>712</ele></trkpt>
      <trkpt lat="31.621368" lon="-7.986944"><ele>718</ele></trkpt>
      <trkpt lat="31.618428" lon="-7.982637"><ele>723</ele></trkpt>
      <trkpt lat="31.615591" lon="-7.978341"><ele>727</ele></trkpt>
      <trkpt lat="31.612676" lon="-7.974043"><ele>729</ele></trkpt>
      <trkpt lat="31.609794" lon="-7.969678"><ele>731</ele></trkpt>
      <trkpt lat="31.606874" lon="-7.965353"><ele>732</ele></trkpt>
      <trkpt lat="31.604043" lon="-7.961058"><ele>733</ele></trkpt>
      <trkpt lat="31.601012" lon="-7.956639"><ele>736</ele></trkpt>
      <trkpt lat="31.598231" lon="-7.952504"><ele>739</ele></trkpt>
      <trkpt lat="31.595250" lon="-7.948362"><ele>745</ele></trkpt>
      <trkpt lat="31.592393" lon="-7.944289"><ele>754</ele></trkpt>
      <trkpt lat="31.589424" lon="-7.939770"><ele>765</ele></trkpt>
      <trkpt lat="31.586707" lon="-7.935333"><ele>779</ele></trkpt>
      <trkpt lat="31.584115" lon="-7.931307"><ele>796</ele></trkpt>
      <trkpt lat="31.581155" lon="-7.926829"><ele>814</ele></trkpt>
      <trkpt lat="31.577951" lon="-7.922727"><ele>834</ele></trkpt>
      <trkpt lat="31.575327" lon="-7.918676"><ele>854</ele></trkpt>
      <trkpt lat="31.572279" lon="-7.914104"><ele>873</ele></trkpt>
      <trkpt lat="31.569600" lon="-7.909447"><ele>892</ele></trkpt>
      <trkpt lat="31.566919" lon="-7.905434"><ele>910</ele></trkpt>
      <trkpt lat="31.564017" lon="-7.901051"><ele>926</ele></trkpt>
      <trkpt lat="31.561215" lon="-7.896831"><ele>940</ele></trkpt>
      <trkpt lat="31.558108" lon="-7.892416"><ele>954</ele></trkpt>
      <trkpt lat="31.555187" lon="-7.888575"><ele>967</ele></trkpt>
      <trkpt lat="31.552584" lon="-7.884673"><ele>980</ele></trkpt>
      <trkpt lat="31.549206" lon="-7.880191"><ele>993</ele></trkpt>
      <trkpt lat="31.546208" lon="-7.875817"><ele>1008</ele></trkpt>
      <trkpt lat="31.543059" lon="-7.870953"><ele>1025</ele></trkpt>
      <trkpt lat="31.539727" lon="-7.867059"><ele>1044</ele></trkpt>
      <trkpt lat="31.536239" lon="-7.862750"><ele>1065</ele></trkpt>
      <trkpt lat="31.533022" lon="-7.858689"><ele>1089</ele></trkpt>
      <trkpt lat="31.530393" lon="-7.854390"><ele>1114</ele></trkpt>
      <trkpt lat="31.527056" lon="-7.850049"><ele>1141</ele></trkpt>
      <trkpt lat="31.523685" lon="-7.845597"><ele>1168</ele></trkpt>
      <trkpt lat="31.520566" lon="-7.841817"><ele>1195</ele></trkpt>
      <trkpt lat="31.516966" lon="-7.837246"><ele>1221</ele></trkpt>
      <trkpt lat="31.514728" lon="-7.833685"><ele>1245</ele></trkpt>
      <trkpt lat="31.511393" lon="-7.829626"><ele>1268</ele></trkpt>
      <trkpt lat="31.508905" lon="-7.825620"><ele>1288</ele></trkpt>
      <trkpt lat="31.505655" lon="-7.820584"><ele>1307</ele></trkpt>
      <trkpt lat="31.502782" lon="-7.815970"><ele>1324</ele></trkpt>
      <trkpt lat="31.500417" lon="-7.812492"><ele>1339</ele></trkpt>
      <trkpt lat="31.497730" lon="-7.808438"><ele>1355</ele></trkpt>
      <trkpt lat="31.494186" lon="-7.804385"><ele>1371</ele></trkpt>
      <trkpt lat="31.491962" lon="-7.800158"><ele>1387</ele></trkpt>
      <trkpt lat="31.489887" lon="-7.795689"><ele>1405</ele></trkpt>
      <trkpt lat="31.487758" lon="-7.791951"><ele>1425</ele></trkpt>
      <trkpt lat="31.485065" lon="-7.787792"><ele>1447</ele></trkpt>
      <trkpt lat="31.481387" lon="-7.783181"><ele>1470</ele></trkpt>
      <trkpt lat="31.478126" lon="-7.779465"><ele>1494</ele></trkpt>
      <trkpt lat="31.475253" lon="-7.774878"><ele>1518</ele></trkpt>
      <trkpt lat="31.472289" lon="-7.770394"><ele>1543</ele></trkpt>
      <trkpt lat="31.470235" lon="-7.765866"><ele>1566</ele></trkpt>
      <trkpt lat="31.467446" lon="-7.762485"><ele>1588</ele></trkpt>
      <trkpt lat="31.465156" lon="-7.757768"><ele>1608</ele></trkpt>
      <trkpt lat="31.462795" lon="-7.754243"><ele>1625</ele></trkpt>
      <trkpt lat="31.459760" lon="-7.750325"><ele>1639</ele></trkpt>
      <trkpt lat="31.455868" lon="-7.747258"><ele>1651</ele></trkpt>
      <trkpt lat="31.451922" lon="-7.744012"><ele>1661</ele></trkpt>
      <trkpt lat="31.449198" lon="-7.738799"><ele>1670</ele></trkpt>
      <trkpt lat="31.446115" lon="-7.734864"><ele>1678</ele></trkpt>
      <trkpt lat="31.444259" lon="-7.730857"><ele>1686</ele></trkpt>
      <trkpt lat="31.442381" lon="-7.725986"><ele>1694</ele></trkpt>
      <trkpt lat="31.439239" lon="-7.722664"><ele>1704</ele></trkpt>
      <trkpt lat="31.436743" lon="-7.718496"><ele>1714</ele></trkpt>
      <trkpt lat="31.433526" lon="-7.715231"><ele>1726</ele></trkpt>
      <trkpt lat="31.430170" lon="-7.710997"><ele>1739</ele></trkpt>
      <trkpt lat="31.427279" lon="-7.707043"><ele>1753</ele></trkpt>
      <trkpt lat="31.424747" lon="-7.702584"><ele>1767</ele></trkpt>
      <trkpt lat="31.421192" lon="-7.698401"><ele>1779</ele></trkpt>
      <trkpt lat="31.418276" lon="-7.693817"><ele>1791</ele></trkpt>
      <trkpt lat="31.415873" lon="-7.689018"><ele>1800</ele></trkpt>
      <trkpt lat="31.413759" lon="-7.684081"><ele>1806</ele></trkpt>
      <trkpt lat="31.410148" lon="-7.681087"><ele>1810</ele></trkpt>
      <trkpt lat="31.407904" lon="-7.676518"><ele>1811</ele></trkpt>
      <trkpt lat="31.405178" lon="-7.672893"><ele>1809</ele></trkpt>
      <trkpt lat="31.402887" lon="-7.669999"><ele>1805</ele></trkpt>
      <trkpt lat="31.401089" lon="-7.666932"><ele>1799</ele></trkpt>
      <trkpt lat="31.398936" lon="-7.661309"><ele>1793</ele></trkpt>
      <trkpt lat="31.397060" lon="-7.658404"><ele>1787</ele></trkpt>
      <trkpt lat="31.395761" lon="-7.653112"><ele>1781</ele></trkpt>
      <trkpt lat="31.392049" lon="-7.649234"><ele>1776</ele></trkpt>
      <trkpt lat="31.388496" lon="-7.643438"><ele>1773</ele></trkpt>
      <trkpt lat="31.384442" lon="-7.639215"><ele>1771</ele></trkpt>
      <trkpt lat="31.380417" lon="-7.634499"><ele>1769</ele></trkpt>
      <trkpt lat="31.378878" lon="-7.629962"><ele>1768</ele></trkpt>
      <trkpt lat="31.374606" lon="-7.624764"><ele>1766</ele></trkpt>
      <trkpt lat="31.370202" lon="-7.622243"><ele>1764</ele></trkpt>
      <trkpt lat="31.369047" lon="-7.617916"><ele>1760</ele></trkpt>
      <trkpt lat="31.364908" lon="-7.614004"><ele>1754</ele></trkpt>
      <trkpt lat="31.360311" lon="-7.611044"><ele>1745</ele></trkpt>
      <trkpt lat="31.357605" lon="-7.608110"><ele>1733</ele></trkpt>
      <trkpt lat="31.353628" lon="-7.604759"><ele>1719</ele></trkpt>
      <trkpt lat="31.350105" lon="-7.601944"><ele>1703</ele></trkpt>
      <trkpt lat="31.347838" lon="-7.597267"><ele>1684</ele></trkpt>
      <trkpt lat="31.344862" lon="-7.594318"><ele>1664</ele></trkpt>
      <trkpt lat="31.341298" lon="-7.589445"><ele>1644</ele></trkpt>
      <trkpt lat="31.340230" lon="-7.584439"><ele>1625</ele></trkpt>
      <trkpt lat="31.336201" lon="-7.579683"><ele>1606</ele></trkpt>
      <trkpt lat="31.334578" lon="-7.576708"><ele>1589</ele></trkpt>
      <trkpt lat="31.329800" lon="-7.574410"><ele>1573</ele></trkpt>
      <trkpt lat="31.327499" lon="-7.569963"><ele>1558</ele></trkpt>
      <trkpt lat="31.324649" lon="-7.565413"><ele>1545</ele></trkpt>
      <trkpt lat="31.322812" lon="-7.559594"><ele>1532</ele></trkpt>
      <trkpt lat="31.320449" lon="-7.555897"><ele>1519</ele></trkpt>
      <trkpt lat="31.318310" lon="-7.550617"><ele>1505</ele></trkpt>
      <trkpt lat="31.316254" lon="-7.548023"><ele>1490</ele></trkpt>
      <trkpt lat="31.313419" lon="-7.541990"><ele>1473</ele></trkpt>
      <trkpt lat="31.308696" lon="-7.538969"><ele>1454</ele></trkpt>
      <trkpt lat="31.306627" lon="-7.533124"><ele>1432</ele></trkpt>
      <trkpt lat="31.305343" lon="-7.529548"><ele>1409</ele></trkpt>
      <trkpt lat="31.300403" lon="-7.524613"><ele>1383</ele></trkpt>
      <trkpt lat="31.299685" lon="-7.518506"><ele>1357</ele></trkpt>
      <trkpt lat="31.298755" lon="-7.514592"><ele>1330</ele></trkpt>
      <trkpt lat="31.294784" lon="-7.511182"><ele>1303</ele></trkpt>
      <trkpt lat="31.291863" lon="-7.506272"><ele>1277</ele></trkpt>
      <trkpt lat="31.288472" lon="-7.502223"><ele>1253</ele></trkpt>
      <trkpt lat="31.285422" lon="-7.496901"><ele>1230</ele></trkpt>
      <trkpt lat="31.282856" lon="-7.493707"><ele>1210</ele></trkpt>
      <trkpt lat="31.280556" lon="-7.488859"><ele>1192</ele></trkpt>
      <trkpt lat="31.276638" lon="-7.482373"><ele>1175</ele></trkpt>
      <trkpt lat="31.271562" lon="-7.477873"><ele>1159</ele></trkpt>
      <trkpt lat="31.270161" lon="-7.474907"><ele>1143</ele></trkpt>
      <trkpt lat="31.268728" lon="-7.472711"><ele>1128</ele></trkpt>
      <trkpt lat="31.268015" lon="-7.467608"><ele>1111</ele></trkpt>
      <trkpt lat="31.267307" lon="-7.465531"><ele>1093</ele></trkpt>
      <trkpt lat="31.263388" lon="-7.461540"><ele>1073</ele></trkpt>
      <trkpt lat="31.262936" lon="-7.458535"><ele>1051</ele></trkpt>
      <trkpt lat="31.259495" lon="-7.454121"><ele>1028</ele></trkpt>
      <trkpt lat="31.257199" lon="-7.449784"><ele>1004</ele></trkpt>
      <trkpt lat="31.256266" lon="-7.447636"><ele>979</ele></trkpt>
      <trkpt lat="31.253290" lon="-7.441010"><ele>955</ele></trkpt>
      <trkpt lat="31.252767" lon="-7.438147"><ele>931</ele></trkpt>
      <trkpt lat="31.252154" lon="-7.433618"><ele>910</ele></trkpt>
      <trkpt lat="31.251224" lon="-7.427929"><ele>890</ele></trkpt>
      <trkpt lat="31.248022" lon="-7.422131"><ele>874</ele></trkpt>
      <trkpt lat="31.245750" lon="-7.420223"><ele>859</ele></trkpt>
      <trkpt lat="31.243169" lon="-7.414271"><ele>848</ele></trkpt>
      <trkpt lat="31.241736" lon="-7.410248"><ele>838</ele></trkpt>
      <trkpt lat="31.237740" lon="-7.404390"><ele>829</ele></trkpt>
      <trkpt lat="31.232941" lon="-7.397878"><ele>821</ele></trkpt>
      <trkpt lat="31.231790" lon="-7.394170"><ele>813</ele></trkpt>
      <trkpt lat="31.229924" lon="-7.392431"><ele>805</ele></trkpt>
      <trkpt lat="31.229264" lon="-7.385589"><ele>795</ele></trkpt>
      <trkpt lat="31.228836" lon="-7.381509"><ele>784</ele></trkpt>
      <trkpt lat="31.227133" lon="-7.376560"><ele>772</ele></trkpt>
      <trkpt lat="31.226606" lon="-7.373349"><ele>759</ele></trkpt>
      <trkpt lat="31.224329" lon="-7.371099"><ele>746</ele></trkpt>
      <trkpt lat="31.218955" lon="-7.369022"><ele>732</ele></trkpt>
      <trkpt lat="31.215542" lon="-7.364060"><ele>720</ele></trkpt>
      <trkpt lat="31.214756" lon="-7.357722"><ele>708</ele></trkpt>
      <trkpt lat="31.214200" lon="-7.353923"><ele>700</ele></trkpt>
      <trkpt lat="31.210647" lon="-7.350811"><ele>693</ele></trkpt>
      <trkpt lat="31.209438" lon="-7.347772"><ele>690</ele></trkpt>
      <trkpt lat="31.205173" lon="-7.346140"><ele>690</ele></trkpt>
      <trkpt lat="31.200635" lon="-7.342976"><ele>692</ele></trkpt>
      <trkpt lat="31.197361" lon="-7.337376"><ele>696</ele></trkpt>
      <trkpt lat="31.195774" lon="-7.331150"><ele>701</ele></trkpt>
      <trkpt lat="31.193971" lon="-7.324167"><ele>707</ele></trkpt>
      <trkpt lat="31.189368" lon="-7.321098"><ele>714</ele></trkpt>
      <trkpt lat="31.184784" lon="-7.315699"><ele>719</ele></trkpt>
      <trkpt lat="31.179598" lon="-7.314466"><ele>724</ele></trkpt>
      <trkpt lat="31.176475" lon="-7.309560"><ele>727</ele></trkpt>
      <trkpt lat="31.171213" lon="-7.302359"><ele>730</ele></trkpt>
      <trkpt lat="31.168292" lon="-7.298724"><ele>731</ele></trkpt>
      <trkpt lat="31.167577" lon="-7.293361"><ele>732</ele></trkpt>
      <trkpt lat="31.166612" lon="-7.292029"><ele>734</ele></trkpt>
      <trkpt lat="31.165138" lon="-7.285439"><ele>736</ele></trkpt>
      <trkpt lat="31.161613" lon="-7.281369"><ele>740</ele></trkpt>
      <trkpt lat="31.158665" lon="-7.278554"><ele>747</ele></trkpt>
      <trkpt lat="31.154606" lon="-7.274293"><ele>756</ele></trkpt>
      <trkpt lat="31.150619" lon="-7.269035"><ele>768</ele></trkpt>
      <trkpt lat="31.146117" lon="-7.265299"><ele>782</ele></trkpt>
      <trkpt lat="31.144881" lon="-7.261441"><ele>799</ele></trkpt>
      <trkpt lat="31.143270" lon="-7.254774"><ele>818</ele></trkpt>
      <trkpt lat="31.139172" lon="-7.253346"><ele>838</ele></trkpt>
      <trkpt lat="31.138276" lon="-7.250966"><ele>857</ele></trkpt>
      <trkpt lat="31.138351" lon="-7.246426"><ele>877</ele></trkpt>
      <trkpt lat="31.138588" lon="-7.239737"><ele>896</ele></trkpt>
      <trkpt lat="31.137217" lon="-7.236944"><ele>913</ele></trkpt>
      <trkpt lat="31.136171" lon="-7.230062"><ele>929</ele></trkpt>
      <trkpt lat="31.130290" lon="-7.225180"><ele>943</ele></trkpt>
      <trkpt lat="31.129571" lon="-7.220818"><ele>957</ele></trkpt>
      <trkpt lat="31.127071" lon="-7.213453"><ele>969</ele></trkpt>
      <trkpt lat="31.124813" lon="-7.210457"><ele>982</ele></trkpt>
      <trkpt lat="31.122894" lon="-7.204552"><ele>996</ele></trkpt>
      <trkpt lat="31.118868" lon="-7.199701"><ele>1011</ele></trkpt>
      <trkpt lat="31.118273" lon="-7.193538"><ele>1029</ele></trkpt>
      <trkpt lat="31.116016" lon="-7.187272"><ele>1048</ele></trkpt>
      <trkpt lat="31.115152" lon="-7.183731"><ele>1070</ele></trkpt>
      <trkpt lat="31.109042" lon="-7.181706"><ele>1094</ele></trkpt>
      <trkpt lat="31.106883" lon="-7.177519"><ele>1119</ele></trkpt>
      <trkpt lat="31.103606" lon="-7.176482"><ele>1146</ele></trkpt>
      <trkpt lat="31.101098" lon="-7.170010"><ele>1173</ele></trkpt>
      <trkpt lat="31.096539" lon="-7.167452"><ele>1200</ele></trkpt>
      <trkpt lat="31.094573" lon="-7.162122"><ele>1226</ele></trkpt>
      <trkpt lat="31.094619" lon="-7.154722"><ele>1250</ele></trkpt>
      <trkpt lat="31.091533" lon="-7.152042"><ele>1272</ele></trkpt>
      <trkpt lat="31.093215" lon="-7.151922"><ele>1292</ele></trkpt>
      <trkpt lat="31.095979" lon="-7.148362"><ele>1310</ele></trkpt>
      <trkpt lat="31.098517" lon="-7.146704"><ele>1327</ele></trkpt>
      <trkpt lat="31.097184" lon="-7.146920"><ele>1343</ele></trkpt>
      <trkpt lat="31.100126" lon="-7.147085"><ele>1358</ele></trkpt>
      <trkpt lat="31.098616" lon="-7.146000"><ele>1374</ele></trkpt>
      <trkpt lat="31.094493" lon="-7.147264"><ele>1391</ele></trkpt>
      <trkpt lat="31.092635" lon="-7.149645"><ele>1409</ele></trkpt>
      <trkpt lat="31.093794" lon="-7.152237"><ele>1429</ele></trkpt>
      <trkpt lat="31.092368" lon="-7.153434"><ele>1451</ele></trkpt>
      <trkpt lat="31.094509" lon="-7.154801"><ele>1474</ele></trkpt>
      <trkpt lat="31.093264" lon="-7.150161"><ele>1499</ele></trkpt>
      <trkpt lat="31.091990" lon="-7.151645"><ele>1523</ele></trkpt>
      <trkpt lat="31.090852" lon="-7.149624"><ele>1548</ele></trkpt>
      <trkpt lat="31.090344" lon="-7.149608"><ele>1571</ele></trkpt>
      <trkpt lat="31.086171" lon="-7.150721"><ele>1592</ele></trkpt>
      <trkpt lat="31.086184" lon="-7.150557"><ele>1611</ele></trkpt>
      <trkpt lat="31.085899" lon="-7.152473"><ele>1628</ele></trkpt>
      <trkpt lat="31.085412" lon="-7.154651"><ele>1642</ele></trkpt>
      <trkpt lat="31.082069" lon="-7.155410"><ele>1654</ele></trkpt>
      <trkpt lat="31.080222" lon="-7.157900"><ele>1663</ele></trkpt>
      <trkpt lat="31.076144" lon="-7.156359"><ele>1672</ele></trkpt>
      <trkpt lat="31.076903" lon="-7.155789"><ele>1680</ele></trkpt>
      <trkpt lat="31.077172" lon="-7.152155"><ele>1688</ele></trkpt>
      <trkpt lat="31.078701" lon="-7.152596"><ele>1696</ele></trkpt>
      <trkpt lat="31.081615" lon="-7.153830"><ele>1706</ele></trkpt>
      <trkpt lat="31.084665" lon="-7.151347"><ele>1717</ele></trkpt>
      <trkpt lat="31.082283" lon="-7.147214"><ele>1729</ele></trkpt>
      <trkpt lat="31.084684" lon="-7.147857"><ele>1742</ele></trkpt>
      <trkpt lat="31.081815" lon="-7.145605"><ele>1756</ele></trkpt>
      <trkpt lat="31.083337" lon="-7.144352"><ele>1769</ele></trkpt>
      <trkpt lat="31.085047" lon="-7.144246"><ele>1782</ele></trkpt>
      <trkpt lat="31.085900" lon="-7.146160"><ele>1793</ele></trkpt>
      <trkpt lat="31.087386" lon="-7.143545"><ele>1801</ele></trkpt>
      <trkpt lat="31.086504" lon="-7.141759"><ele>1807</ele></trkpt>
      <trkpt lat="31.085456" lon="-7.140896"><ele>1810</ele></trkpt>
      <trkpt lat="31.086691" lon="-7.141558"><ele>1810</ele></trkpt>
      <trkpt lat="31.085424" lon="-7.139738"><ele>1808</ele></trkpt>
      <trkpt lat="31.083328" lon="-7.135095"><ele>1804</ele></trkpt>
      <trkpt lat="31.083482" lon="-7.134481"><ele>1798</ele></trkpt>
      <trkpt lat="31.086031" lon="-7.131066"><ele>1792</ele></trkpt>
      <trkpt lat="31.085697" lon="-7.126494"><ele>1786</ele></trkpt>
      <trkpt lat="31.086451" lon="-7.124359"><ele>1780</ele></trkpt>
      <trkpt lat="31.082208" lon="-7.127262"><ele>1776</ele></trkpt>
      <trkpt lat="31.081197" lon="-7.125534"><ele>1772</ele></trkpt>
      <trkpt lat="31.080640" lon="-7.128311"><ele>1770</ele></trkpt>
      <trkpt lat="31.079595" lon="-7.128832"><ele>1769</ele></trkpt>
      <trkpt lat="31.076748" lon="-7.129156"><ele>1768</ele></trkpt>
      <trkpt lat="31.076453" lon="-7.124550"><ele>1766</ele></trkpt>
      <trkpt lat="31.072370" lon="-7.119577"><ele>1763</ele></trkpt>
      <trkpt lat="31.075922" lon="-7.114769"><ele>1759</ele></trkpt>
      <trkpt lat="31.071790" lon="-7.113736"><ele>1752</ele></trkpt>
      <trkpt lat="31.074009" lon="-7.109277"><ele>1743</ele></trkpt>
      <trkpt lat="31.073191" lon="-7.111594"><ele>1731</ele></trkpt>
      <trkpt lat="31.070153" lon="-7.109916"><ele>1716</ele></trkpt>
      <trkpt lat="31.072859" lon="-7.107930"><ele>1699</ele></trkpt>
      <trkpt lat="31.073460" lon="-7.103423"><ele>1680</ele></trkpt>
      <trkpt lat="31.071096" lon="-7.105260"><ele>1661</ele></trkpt>
      <trkpt lat="31.074417" lon="-7.107815"><ele>1641</ele></trkpt>
      <trkpt lat="31.077076" lon="-7.107212"><ele>1621</ele></trkpt>
      <trkpt lat="31.073930" lon="-7.108199"><ele>1602</ele></trkpt>
      <trkpt lat="31.071516" lon="-7.103108"><ele>1585</ele></trkpt>
      <trkpt lat="31.074183" lon="-7.105510"><ele>1570</ele></trkpt>
      <trkpt lat="31.074216" lon="-7.103164"><ele>1555</ele></trkpt>
      <trkpt lat="31.072663" lon="-7.098816"><ele>1542</ele></trkpt>
      <trkpt lat="31.075636" lon="-7.096341"><ele>1529</ele></trkpt>
      <trkpt lat="31.074388" lon="-7.091193"><ele>1516</ele></trkpt>
      <trkpt lat="31.069685" lon="-7.090155"><ele>1502</ele></trkpt>
      <trkpt lat="31.070671" lon="-7.084858"><ele>1487</ele></trkpt>
      <trkpt lat="31.071692" lon="-7.084099"><ele>1470</ele></trkpt>
      <trkpt lat="31.068974" lon="-7.081137"><ele>1450</ele></trkpt>
      <trkpt lat="31.071547" lon="-7.082459"><ele>1428</ele></trkpt>
      <trkpt lat="31.070533" lon="-7.078060"><ele>1404</ele></trkpt>
      <trkpt lat="31.068846" lon="-7.080796"><ele>1378</ele></trkpt>
      <trkpt lat="31.072237" lon="-7.083218"><ele>1351</ele></trkpt>
      <trkpt lat="31.068025" lon="-7.078270"><ele>1324</ele></trkpt>
      <trkpt lat="31.068023" lon="-7.074520"><ele>1297</ele></trkpt>
      <trkpt lat="31.071846" lon="-7.072920"><ele>1272</ele></trkpt>
      <trkpt lat="31.075670" lon="-7.069247"><ele>1248</ele></trkpt>
      <trkpt lat="31.077512" lon="-7.072193"><ele>1226</ele></trkpt>
      <trkpt lat="31.075232" lon="-7.068074"><ele>1206</ele></trkpt>
      <trkpt lat="31.075675" lon="-7.063387"><ele>1188</ele></trkpt>
      <trkpt lat="31.071648" lon="-7.062275"><ele>1172</ele></trkpt>
      <trkpt lat="31.070820" lon="-7.063015"><ele>1156</ele></trkpt>
      <trkpt lat="31.071150" lon="-7.058406"><ele>1140</ele></trkpt>
      <trkpt lat="31.074711" lon="-7.052926"><ele>1124</ele></trkpt>
      <trkpt lat="31.077844" lon="-7.053772"><ele>1107</ele></trkpt>
      <trkpt lat="31.077689" lon="-7.054140"><ele>1089</ele></trkpt>
      <trkpt lat="31.077585" lon="-7.051243"><ele>1069</ele></trkpt>
      <trkpt lat="31.080362" lon="-7.052561"><ele>1047</ele></trkpt>
      <trkpt lat="31.082545" lon="-7.048539"><ele>1023</ele></trkpt>
      <trkpt lat="31.079375" lon="-7.043968"><ele>999</ele></trkpt>
      <trkpt lat="31.076995" lon="-7.038756"><ele>974</ele></trkpt>
      <trkpt lat="31.076621" lon="-7.035070"><ele>950</ele></trkpt>
      <trkpt lat="31.074127" lon="-7.031096"><ele>927</ele></trkpt>
      <trkpt lat="31.073300" lon="-7.030988"><ele>906</ele></trkpt>
      <trkpt lat="31.069938" lon="-7.030503"><ele>887</ele></trkpt>
      <trkpt lat="31.069370" lon="-7.032061"><ele>871</ele></trkpt>
      <trkpt lat="31.069056" lon="-7.031820"><ele>857</ele></trkpt>
      <trkpt lat="31.071270" lon="-7.032034"><ele>845</ele></trkpt>
      <trkpt lat="31.068516" lon="-7.033218"><ele>836</ele></trkpt>
      <trkpt lat="31.069439" lon="-7.028897"><ele>827</ele></trkpt>
      <trkpt lat="31.066157" lon="-7.025845"><ele>820</ele></trkpt>
      <trkpt lat="31.067387" lon="-7.028182"><ele>812</ele></trkpt>
      <trkpt lat="31.071497" lon="-7.030555"><ele>803</ele></trkpt>
      <trkpt lat="31.073821" lon="-7.028266"><ele>793</ele></trkpt>
      <trkpt lat="31.075644" lon="-7.028581"><ele>782</ele></trkpt>
      <trkpt lat="31.079664" lon="-7.029318"><ele>770</ele></trkpt>
      <trkpt lat="31.078976" lon="-7.026187"><ele>757</ele></trkpt>
      <trkpt lat="31.075606" lon="-7.024932"><ele>743</ele></trkpt>
      <trkpt lat="31.078239" lon="-7.027637"><ele>730</ele></trkpt>
      <trkpt lat="31.073218" lon="-7.024849"><ele>717</ele></trkpt>
      <trkpt lat="31.075285" lon="-7.028034"><ele>707</ele></trkpt>
      <trkpt lat="31.077936" lon="-7.026972"><ele>698</ele></trkpt>
      <trkpt lat="31.074521" lon="-7.025332"><ele>692</ele></trkpt>
      <trkpt lat="31.074943" lon="-7.021601"><ele>690</ele></trkpt>
      <trkpt lat="31.075972" lon="-7.016107"><ele>690</ele></trkpt>
      <trkpt lat="31.076459" lon="-7.018641"><ele>692</ele></trkpt>
      <trkpt lat="31.078446" lon="-7.013429"><ele>697</ele></trkpt>
      <trkpt lat="31.080372" lon="-7.008302"><ele>702</ele></trkpt>
      <trkpt lat="31.081710" lon="-7.005428"><ele>709</ele></trkpt>
      <trkpt lat="31.078255" lon="-7.003340"><ele>715</ele></trkpt>
      <trkpt lat="31.074232" lon="-6.999186"><ele>720</ele></trkpt>
      <trkpt lat="31.072327" lon="-6.994450"><ele>725</ele></trkpt>
      <trkpt lat="31.072076" lon="-6.994465"><ele>728</ele></trkpt>
      <trkpt lat="31.074676" lon="-6.993054"><ele>730</ele></trkpt>
      <trkpt lat="31.072203" lon="-6.995844"><ele>731</ele></trkpt>
      <trkpt lat="31.071520" lon="-6.998942"><ele>733</ele></trkpt>
      <trkpt lat="31.072030" lon="-6.994562"><ele>734</ele></trkpt>
      <trkpt lat="31.074861" lon="-6.997633"><ele>737</ele></trkpt>
      <trkpt lat="31.076568" lon="-6.993127"><ele>741</ele></trkpt>
      <trkpt lat="31.077663" lon="-6.993913"><ele>748</ele></trkpt>
      <trkpt lat="31.073593" lon="-6.995835"><ele>758</ele></trkpt>
      <trkpt lat="31.068937" lon="-6.992231"><ele>771</ele></trkpt>
      <trkpt lat="31.071102" lon="-6.991946"><ele>786</ele></trkpt>
      <trkpt lat="31.074422" lon="-6.993911"><ele>803</ele></trkpt>
      <trkpt lat="31.072480" lon="-6.991209"><ele>822</ele></trkpt>
      <trkpt lat="31.076497" lon="-6.986152"><ele>841</ele></trkpt>
      <trkpt lat="31.074446" lon="-6.986177"><ele>861</ele></trkpt>
      <trkpt lat="31.073567" lon="-6.981006"><ele>881</ele></trkpt>
      <trkpt lat="31.069889" lon="-6.980024"><ele>899</ele></trkpt>
      <trkpt lat="31.070860" lon="-6.979094"><ele>916</ele></trkpt>
      <trkpt lat="31.074248" lon="-6.975331"><ele>932</ele></trkpt>
      <trkpt lat="31.074802" lon="-6.971094"><ele>946</ele></trkpt>
      <trkpt lat="31.070113" lon="-6.967664"><ele>959</ele></trkpt>
      <trkpt lat="31.071612" lon="-6.965480"><ele>972</ele></trkpt>
      <trkpt lat="31.074281" lon="-6.967321"><ele>985</ele></trkpt>
      <trkpt lat="31.078617" lon="-6.968032"><ele>999</ele></trkpt>
      <trkpt lat="31.076321" lon="-6.968436"><ele>1015</ele></trkpt>
      <trkpt lat="31.078552" lon="-6.966105"><ele>1032</ele></trkpt>
      <trkpt lat="31.073314" lon="-6.968620"><ele>1052</ele></trkpt>
      <trkpt lat="31.077399" lon="-6.967369"><ele>1074</ele></trkpt>
      <trkpt lat="31.077105" lon="-6.970001"><ele>1099</ele></trkpt>
      <trkpt lat="31.071999" lon="-6.967133"><ele>1125</ele></trkpt>
      <trkpt lat="31.075010" lon="-6.968895"><ele>1151</ele></trkpt>
      <trkpt lat="31.076025" lon="-6.969040"><ele>1179</ele></trkpt>
      <trkpt lat="31.075411" lon="-6.964572"><ele>1205</ele></trkpt>
      <trkpt lat="31.073702" lon="-6.959350"><ele>1231</ele></trkpt>
      <trkpt lat="31.072787" lon="-6.957105"><ele>1254</ele></trkpt>
      <trkpt lat="31.075842" lon="-6.957184"><ele>1276</ele></trkpt>
      <trkpt lat="31.074175" lon="-6.956832"><ele>1296</ele></trkpt>
      <trkpt lat="31.074029" lon="-6.958589"><ele>1314</ele></trkpt>
      <trkpt lat="31.071004" lon="-6.957311"><ele>1330</ele></trkpt>
      <trkpt lat="31.073293" lon="-6.952924"><ele>1346</ele></trkpt>
      <trkpt lat="31.069838" lon="-6.955458"><ele>1361</ele></trkpt>
      <trkpt lat="31.073347" lon="-6.954770"><ele>1377</ele></trkpt>
      <trkpt lat="31.076171" lon="-6.952975"><ele>1394</ele></trkpt>
      <trkpt lat="31.076000" lon="-6.950257"><ele>1413</ele></trkpt>
      <trkpt lat="31.076257" lon="-6.945477"><ele>1434</ele></trkpt>
      <trkpt lat="31.073186" lon="-6.944900"><ele>1456</ele></trkpt>
      <trkpt lat="31.070077" lon="-6.944027"><ele>1479</ele></trkpt>
      <trkpt lat="31.069391" lon="-6.939563"><ele>1504</ele></trkpt>
      <trkpt lat="31.072522" lon="-6.938264"><ele>1528</ele></trkpt>
      <trkpt lat="31.068596" lon="-6.939387"><ele>1552</ele></trkpt>
      <trkpt lat="31.066710" lon="-6.937082"><ele>1575</ele></trkpt>
      <trkpt lat="31.065218" lon="-6.937905"><ele>1596</ele></trkpt>
      <trkpt lat="31.065479" lon="-6.938262"><ele>1615</ele></trkpt>
      <trkpt lat="31.064169" lon="-6.938721"><ele>1631</ele></trkpt>
      <trkpt lat="31.067034" lon="-6.935112"><ele>1644</ele></trkpt>
      <trkpt lat="31.065849" lon="-6.933809"><ele>1656</ele></trkpt>
      <trkpt lat="31.061307" lon="-6.932653"><ele>1665</ele></trkpt>
      <trkpt lat="31.056616" lon="-6.927627"><ele>1673</ele></trkpt>
      <trkpt lat="31.052704" lon="-6.924144"><ele>1681</ele></trkpt>
      <trkpt lat="31.055780" lon="-6.922909"><ele>1689</ele></trkpt>
      <trkpt lat="31.057484" lon="-6.921781"><ele>1698</ele></trkpt>
      <trkpt lat="31.055982" lon="-6.924379"><ele>1708</ele></trkpt>
      <trkpt lat="31.051659" lon="-6.924435"><ele>1719</ele></trkpt>
      <trkpt lat="31.053134" lon="-6.922881"><ele>1732</ele></trkpt>
      <trkpt lat="31.047912" lon="-6.918172"><ele>1745</ele></trkpt>
      <trkpt lat="31.048341" lon="-6.913199"><ele>1758</ele></trkpt>
      <trkpt lat="31.048587" lon="-6.914079"><ele>1772</ele></trkpt>
      <trkpt lat="31.044058" lon="-6.914916"><ele>1784</ele></trkpt>
      <trkpt lat="31.043791" lon="-6.911366"><ele>1794</ele></trkpt>
      <trkpt lat="31.042160" lon="-6.906548"><ele>1803</ele></trkpt>
      <trkpt lat="31.041931" lon="-6.901902"><ele>1808</ele></trkpt>
      <trkpt lat="31.041909" lon="-6.898968"><ele>1810</ele></trkpt>
      <trkpt lat="31.042741" lon="-6.896006"><ele>1810</ele></trkpt>
      <trkpt lat="31.041127" lon="-6.895361"><ele>1807</ele></trkpt>
      <trkpt lat="31.040561" lon="-6.897679"><ele>1803</ele></trkpt>
      <trkpt lat="31.043358" lon="-6.906138"><ele>1797</ele></trkpt>
      <trkpt lat="31.036083" lon="-6.917320"><ele>1791</ele></trkpt>
      <trkpt lat="31.031609" lon="-6.931821"><ele>1785</ele></trkpt>
      <trkpt lat="31.026566" lon="-6.945243"><ele>1779</ele></trkpt>
      <trkpt lat="31.022019" lon="-6.956415"><ele>1775</ele></trkpt>
      <trkpt lat="31.015143" lon="-6.966561"><ele>1772</ele></trkpt>
      <trkpt lat="31.015499" lon="-6.971718"><ele>1770</ele></trkpt>
      <trkpt lat="31.014808" lon="-6.979703"><ele>1769</ele></trkpt>
      <trkpt lat="31.012856" lon="-6.992312"><ele>1767</ele></trkpt>
      <trkpt lat="31.014892" lon="-7.001350"><ele>1766</ele></trkpt>
      <trkpt lat="31.012009" lon="-7.015702"><ele>1763</ele></trkpt>
      <trkpt lat="31.008025" lon="-7.022593"><ele>1758</ele></trkpt>
      <trkpt lat="31.010268" lon="-7.034800"><ele>1751</ele></trkpt>
      <trkpt lat="31.010944" lon="-7.048026"><ele>1741</ele></trkpt>
      <trkpt lat="31.007468" lon="-7.057324"><ele>1728</ele></trkpt>
      <trkpt lat="31.009564" lon="-7.063533"><ele>1713</ele></trkpt>
      <trkpt lat="31.006075" lon="-7.072725"><ele>1695</ele></trkpt>
      <trkpt lat="31.001295" lon="-7.081746"><ele>1676</ele></trkpt>
      <trkpt lat="30.999720" lon="-7.087943"><ele>1657</ele></trkpt>
      <trkpt lat="30.995670" lon="-7.092967"><ele>1637</ele></trkpt>
      <trkpt lat="30.991810" lon="-7.099598"><ele>1617</ele></trkpt>
      <trkpt lat="30.987112" lon="-7.112229"><ele>1599</ele></trkpt>
      <trkpt lat="30.981393" lon="-7.120732"><ele>1582</ele></trkpt>
      <trkpt lat="30.981219" lon="-7.132347"><ele>1567</ele></trkpt>
      <trkpt lat="30.983468" lon="-7.146676"><ele>1553</ele></trkpt>
      <trkpt lat="30.979197" lon="-7.155377"><ele>1540</ele></trkpt>
      <trkpt lat="30.976819" lon="-7.164982"><ele>1527</ele></trkpt>
      <trkpt lat="30.972541" lon="-7.174180"><ele>1514</ele></trkpt>
      <trkpt lat="30.971571" lon="-7.180551"><ele>1499</ele></trkpt>
      <trkpt lat="30.972777" lon="-7.188523"><ele>1484</ele></trkpt>
      <trkpt lat="30.965719" lon="-7.198336"><ele>1466</ele></trkpt>
      <trkpt lat="30.959770" lon="-7.209046"><ele>1446</ele></trkpt>
      <trkpt lat="30.958558" lon="-7.221435"><ele>1423</ele></trkpt>
      <trkpt lat="30.952995" lon="-7.235918"><ele>1399</ele></trkpt>
      <trkpt lat="30.955162" lon="-7.243653"><ele>1373</ele></trkpt>
      <trkpt lat="30.950867" lon="-7.256961"><ele>1346</ele></trkpt>
      <trkpt lat="30.946396" lon="-7.271111"><ele>1319</ele></trkpt>
      <trkpt lat="30.943122" lon="-7.283439"><ele>1292</ele></trkpt>
      <trkpt lat="30.943274" lon="-7.289474"><ele>1267</ele></trkpt>
      <trkpt lat="30.940466" lon="-7.301588"><ele>1243</ele></trkpt>
      <trkpt lat="30.936734" lon="-7.307367"><ele>1222</ele></trkpt>
      <trkpt lat="30.929453" lon="-7.318576"><ele>1202</ele></trkpt>
      <trkpt lat="30.926622" lon="-7.330073"><ele>1185</ele></trkpt>
      <trkpt lat="30.925411" lon="-7.343232"><ele>1168</ele></trkpt>
      <trkpt lat="30.926209" lon="-7.351437"><ele>1153</ele></trkpt>
      <trkpt lat="30.923268" lon="-7.363376"><ele>1137</ele></trkpt>
      <trkpt lat="30.923555" lon="-7.373252"><ele>1121</ele></trkpt>
      <trkpt lat="30.919531" lon="-7.379435"><ele>1104</ele></trkpt>
      <trkpt lat="30.919101" lon="-7.388543"><ele>1085</ele></trkpt>
      <trkpt lat="30.914608" lon="-7.399712"><ele>1064</ele></trkpt>
      <trkpt lat="30.907748" lon="-7.413891"><ele>1042</ele></trkpt>
      <trkpt lat="30.901489" lon="-7.419780"><ele>1018</ele></trkpt>
      <trkpt lat="30.900689" lon="-7.425799"><ele>994</ele></trkpt>
      <trkpt lat="30.898432" lon="-7.431178"><ele>969</ele></trkpt>
      <trkpt lat="30.900615" lon="-7.439945"><ele>945</ele></trkpt>
      <trkpt lat="30.894865" lon="-7.453649"><ele>923</ele></trkpt>
      <trkpt lat="30.891668" lon="-7.467618"><ele>902</ele></trkpt>
      <trkpt lat="30.886384" lon="-7.481339"><ele>883</ele></trkpt>
      <trkpt lat="30.880659" lon="-7.487281"><ele>868</ele></trkpt>
      <trkpt lat="30.878320" lon="-7.496073"><ele>854</ele></trkpt>
      <trkpt lat="30.880050" lon="-7.505152"><ele>843</ele></trkpt>
      <trkpt lat="30.877686" lon="-7.517516"><ele>834</ele></trkpt>
      <trkpt lat="30.875429" lon="-7.526200"><ele>826</ele></trkpt>
      <trkpt lat="30.871549" lon="-7.532894"><ele>818</ele></trkpt>
      <trkpt lat="30.868331" lon="-7.546159"><ele>810</ele></trkpt>
      <trkpt lat="30.870033" lon="-7.551228"><ele>801</ele></trkpt>
      <trkpt lat="30.866745" lon="-7.558451"><ele>791</ele></trkpt>
      <trkpt lat="30.866776" lon="-7.568138"><ele>780</ele></trkpt>
      <trkpt lat="30.861858" lon="-7.575717"><ele>767</ele></trkpt>
      <trkpt lat="30.863710" lon="-7.590266"><ele>754</ele></trkpt>
      <trkpt lat="30.862955" lon="-7.599207"><ele>740</ele></trkpt>
      <trkpt lat="30.862238" lon="-7.605026"><ele>727</ele></trkpt>
      <trkpt lat="30.859910" lon="-7.610498"><ele>715</ele></trkpt>
      <trkpt lat="30.861486" lon="-7.616686"><ele>705</ele></trkpt>
      <trkpt lat="30.858178" lon="-7.630904"><ele>697</ele></trkpt>
      <trkpt lat="30.853679" lon="-7.636628"><ele>692</ele></trkpt>
      <trkpt lat="30.851873" lon="-7.650365"><ele>690</ele></trkpt>
      <trkpt lat="30.847706" lon="-7.664037"><ele>690</ele></trkpt>
      <trkpt lat="30.846286" lon="-7.670551"><ele>693</ele></trkpt>
      <trkpt lat="30.844591" lon="-7.681634"><ele>698</ele></trkpt>
      <trkpt lat="30.839769" lon="-7.689692"><ele>704</ele></trkpt>
      <trkpt lat="30.835114" lon="-7.703360"><ele>710</ele></trkpt>
      <trkpt lat="30.833409" lon="-7.716835"><ele>716</ele></trkpt>
      <trkpt lat="30.829585" lon="-7.728741"><ele>721</ele></trkpt>
      <trkpt lat="30.831820" lon="-7.736908"><ele>725</ele></trkpt>
      <trkpt lat="30.828319" lon="-7.748180"><ele>728</ele></trkpt>
      <trkpt lat="30.823002" lon="-7.757943"><ele>730</ele></trkpt>
      <trkpt lat="30.820135" lon="-7.769481"><ele>732</ele></trkpt>
      <trkpt lat="30.819808" lon="-7.783097"><ele>733</ele></trkpt>
      <trkpt lat="30.821878" lon="-7.792775"><ele>735</ele></trkpt>
      <trkpt lat="30.823708" lon="-7.798161"><ele>738</ele></trkpt>
      <trkpt lat="30.819808" lon="-7.810954"><ele>743</ele></trkpt>
      <trkpt lat="30.818000" lon="-7.822095"><ele>750</ele></trkpt>
      <trkpt lat="30.815472" lon="-7.830226"><ele>760</ele></trkpt>
      <trkpt lat="30.816251" lon="-7.844185"><ele>773</ele></trkpt>
      <trkpt lat="30.818428" lon="-7.857495"><ele>789</ele></trkpt>
      <trkpt lat="30.814894" lon="-7.871294"><ele>806</ele></trkpt>
      <trkpt lat="30.810668" lon="-7.879954"><ele>826</ele></trkpt>
      <trkpt lat="30.803801" lon="-7.887463"><ele>846</ele></trkpt>
      <trkpt lat="30.797531" lon="-7.897222"><ele>865</ele></trkpt>
      <trkpt lat="30.791367" lon="-7.907654"><ele>885</ele></trkpt>
      <trkpt lat="30.792309" lon="-7.920549"><ele>903</ele></trkpt>
      <trkpt lat="30.788130" lon="-7.926527"><ele>920</ele></trkpt>
      <trkpt lat="30.785689" lon="-7.936985"><ele>935</ele></trkpt>
      <trkpt lat="30.786439" lon="-7.949609"><ele>949</ele></trkpt>
      <trkpt lat="30.779930" lon="-7.958672"><ele>962</ele></trkpt>
      <trkpt lat="30.777534" lon="-7.970422"><ele>975</ele></trkpt>
      <trkpt lat="30.771999" lon="-7.980868"><ele>988</ele></trkpt>
      <trkpt lat="30.773761" lon="-7.993722"><ele>1002</ele></trkpt>
      <trkpt lat="30.775485" lon="-8.007433"><ele>1018</ele></trkpt>
      <trkpt lat="30.772962" lon="-8.021764"><ele>1036</ele></trkpt>
      <trkpt lat="30.767453" lon="-8.034081"><ele>1056</ele></trkpt>
      <trkpt lat="30.766943" lon="-8.045608"><ele>1079</ele></trkpt>
      <trkpt lat="30.767970" lon="-8.057335"><ele>1104</ele></trkpt>
      <trkpt lat="30.762662" lon="-8.065208"><ele>1130</ele></trkpt>
      <trkpt lat="30.757657" lon="-8.074872"><ele>1157</ele></trkpt>
      <trkpt lat="30.759069" lon="-8.085871"><ele>1184</ele></trkpt>
      <trkpt lat="30.758683" lon="-8.091798"><ele>1210</ele></trkpt>
      <trkpt lat="30.754052" lon="-8.103591"><ele>1235</ele></trkpt>
      <trkpt lat="30.750791" lon="-8.109890"><ele>1259</ele></trkpt>
      <trkpt lat="30.747230" lon="-8.123456"><ele>1280</ele></trkpt>
      <trkpt lat="30.746019" lon="-8.133914"><ele>1299</ele></trkpt>
      <trkpt lat="30.745468" lon="-8.139474"><ele>1317</ele></trkpt>
      <trkpt lat="30.741075" lon="-8.147048"><ele>1333</ele></trkpt>
      <trkpt lat="30.742804" lon="-8.152959"><ele>1349</ele></trkpt>
      <trkpt lat="30.744590" lon="-8.161778"><ele>1364</ele></trkpt>
      <trkpt lat="30.739940" lon="-8.173087"><ele>1381</ele></trkpt>
      <trkpt lat="30.734868" lon="-8.184612"><ele>1398</ele></trkpt>
      <trkpt lat="30.735306" lon="-8.194003"><ele>1417</ele></trkpt>
      <trkpt lat="30.734149" lon="-8.203329"><ele>1438</ele></trkpt>
      <trkpt lat="30.731151" lon="-8.213662"><ele>1460</ele></trkpt>
      <trkpt lat="30.725016" lon="-8.222249"><ele>1484</ele></trkpt>
      <trkpt lat="30.718864" lon="-8.232329"><ele>1509</ele></trkpt>
      <trkpt lat="30.717758" lon="-8.243244"><ele>1533</ele></trkpt>
      <trkpt lat="30.717164" lon="-8.249351"><ele>1557</ele></trkpt>
      <trkpt lat="30.713431" lon="-8.256104"><ele>1580</ele></trkpt>
      <trkpt lat="30.710977" lon="-8.264078"><ele>1600</ele></trkpt>
      <trkpt lat="30.704666" lon="-8.276890"><ele>1618</ele></trkpt>
      <trkpt lat="30.699612" lon="-8.287405"><ele>1634</ele></trkpt>
      <trkpt lat="30.695750" lon="-8.299434"><ele>1647</ele></trkpt>
      <trkpt lat="30.689393" lon="-8.307099"><ele>1658</ele></trkpt>
      <trkpt lat="30.684016" lon="-8.313346"><ele>1667</ele></trkpt>
      <trkpt lat="30.679799" lon="-8.322467"><ele>1675</ele></trkpt>
      <trkpt lat="30.680161" lon="-8.331996"><ele>1683</ele></trkpt>
      <trkpt lat="30.673796" lon="-8.345348"><ele>1691</ele></trkpt>
      <trkpt lat="30.667923" lon="-8.353684"><ele>1700</ele></trkpt>
      <trkpt lat="30.662412" lon="-8.361355"><ele>1710</ele></trkpt>
      <trkpt lat="30.656594" lon="-8.373364"><ele>1721</ele></trkpt>
      <trkpt lat="30.652662" lon="-8.384151"><ele>1734</ele></trkpt>
      <trkpt lat="30.651490" lon="-8.394094"><ele>1748</ele></trkpt>
      <trkpt lat="30.651812" lon="-8.407155"><ele>1761</ele></trkpt>
      <trkpt lat="30.645921" lon="-8.412893"><ele>1774</ele></trkpt>
      <trkpt lat="30.640411" lon="-8.425006"><ele>1786</ele></trkpt>
      <trkpt lat="30.637532" lon="-8.433683"><ele>1796</ele></trkpt>
      <trkpt lat="30.635253" lon="-8.444456"><ele>1804</ele></trkpt>
      <trkpt lat="30.628982" lon="-8.458279"><ele>1809</ele></trkpt>
      <trkpt lat="30.629033" lon="-8.469628"><ele>1811</ele></trkpt>
      <trkpt lat="30.625761" lon="-8.476389"><ele>1810</ele></trkpt>
      <trkpt lat="30.621082" lon="-8.488697"><ele>1807</ele></trkpt>
      <trkpt lat="30.617335" lon="-8.497747"><ele>1802</ele></trkpt>
      <trkpt lat="30.613505" lon="-8.508806"><ele>1796</ele></trkpt>
      <trkpt lat="30.611272" lon="-8.517340"><ele>1789</ele></trkpt>
      <trkpt lat="30.609282" lon="-8.524098"><ele>1783</ele></trkpt>
      <trkpt lat="30.608923" lon="-8.532465"><ele>1778</ele></trkpt>
      <trkpt lat="30.607680" lon="-8.543140"><ele>1774</ele></trkpt>
      <trkpt lat="30.601610" lon="-8.552692"><ele>1771</ele></trkpt>
      <trkpt lat="30.596727" lon="-8.558971"><ele>1770</ele></trkpt>
      <trkpt lat="30.597644" lon="-8.568895"><ele>1768</ele></trkpt>
      <trkpt lat="30.597971" lon="-8.575942"><ele>1767</ele></trkpt>
      <trkpt lat="30.597824" lon="-8.585573"><ele>1765</ele></trkpt>
      <trkpt lat="30.592956" lon="-8.599056"><ele>1762</ele></trkpt>
      <trkpt lat="30.587759" lon="-8.611314"><ele>1757</ele></trkpt>
      <trkpt lat="30.582145" lon="-8.617488"><ele>1749</ele></trkpt>
      <trkpt lat="30.583206" lon="-8.626412"><ele>1738</ele></trkpt>
      <trkpt lat="30.577774" lon="-8.636408"><ele>1725</ele></trkpt>
      <trkpt lat="30.575958" lon="-8.644922"><ele>1709</ele></trkpt>
      <trkpt lat="30.572763" lon="-8.651614"><ele>1692</ele></trkpt>
      <trkpt lat="30.567124" lon="-8.663208"><ele>1672</ele></trkpt>
      <trkpt lat="30.568075" lon="-8.673700"><ele>1652</ele></trkpt>
      <trkpt lat="30.566689" lon="-8.684685"><ele>1633</ele></trkpt>
      <trkpt lat="30.562374" lon="-8.695166"><ele>1613</ele></trkpt>
      <trkpt lat="30.559894" lon="-8.708455"><ele>1595</ele></trkpt>
      <trkpt lat="30.559994" lon="-8.718620"><ele>1579</ele></trkpt>
      <trkpt lat="30.559608" lon="-8.731866"><ele>1564</ele></trkpt>
      <trkpt lat="30.560699" lon="-8.745427"><ele>1550</ele></trkpt>
      <trkpt lat="30.561201" lon="-8.757303"><ele>1537</ele></trkpt>
      <trkpt lat="30.560114" lon="-8.763952"><ele>1524</ele></trkpt>
      <trkpt lat="30.557981" lon="-8.770664"><ele>1511</ele></trkpt>
      <trkpt lat="30.558835" lon="-8.778893"><ele>1496</ele></trkpt>
      <trkpt lat="30.555521" lon="-8.788268"><ele>1480</ele></trkpt>
      <trkpt lat="30.552902" lon="-8.796953"><ele>1462</ele></trkpt>
      <trkpt lat="30.546798" lon="-8.806935"><ele>1441</ele></trkpt>
      <trkpt lat="30.545538" lon="-8.816837"><ele>1419</ele></trkpt>
      <trkpt lat="30.544767" lon="-8.829852"><ele>1394</ele></trkpt>
      <trkpt lat="30.542233" lon="-8.840674"><ele>1367</ele></trkpt>
      <trkpt lat="30.538917" lon="-8.849431"><ele>1340</ele></trkpt>
      <trkpt lat="30.536605" lon="-8.862731"><ele>1313</ele></trkpt>
      <trkpt lat="30.537616" lon="-8.870332"><ele>1287</ele></trkpt>
      <trkpt lat="30.533454" lon="-8.879837"><ele>1262</ele></trkpt>
      <trkpt lat="30.528281" lon="-8.886974"><ele>1239</ele></trkpt>
      <trkpt lat="30.527365" lon="-8.894249"><ele>1218</ele></trkpt>
      <trkpt lat="30.526194" lon="-8.895025"><ele>1199</ele></trkpt>
      <trkpt lat="30.525255" lon="-8.895158"><ele>1181</ele></trkpt>
      <trkpt lat="30.522518" lon="-8.899748"><ele>1165</ele></trkpt>
      <trkpt lat="30.522991" lon="-8.905523"><ele>1150</ele></trkpt>
      <trkpt lat="30.523371" lon="-8.909916"><ele>1134</ele></trkpt>
      <trkpt lat="30.521604" lon="-8.911255"><ele>1118</ele></trkpt>
      <trkpt lat="30.522104" lon="-8.916610"><ele>1100</ele></trkpt>
      <trkpt lat="30.519868" lon="-8.917175"><ele>1081</ele></trkpt>
      <trkpt lat="30.517993" lon="-8.921948"><ele>1060</ele></trkpt>
      <trkpt lat="30.516640" lon="-8.928209"><ele>1037</ele></trkpt>
      <trkpt lat="30.517781" lon="-8.928490"><ele>1014</ele></trkpt>
      <trkpt lat="30.514429" lon="-8.932814"><ele>989</ele></trkpt>
      <trkpt lat="30.516374" lon="-8.933801"><ele>964</ele></trkpt>
      <trkpt lat="30.515511" lon="-8.940657"><ele>941</ele></trkpt>
      <trkpt lat="30.511970" lon="-8.942766"><ele>918</ele></trkpt>
      <trkpt lat="30.509295" lon="-8.948866"><ele>898</ele></trkpt>
      <trkpt lat="30.510525" lon="-8.952518"><ele>880</ele></trkpt>
      <trkpt lat="30.512028" lon="-8.955617"><ele>865</ele></trkpt>
      <trkpt lat="30.508582" lon="-8.958045"><ele>852</ele></trkpt>
      <trkpt lat="30.508656" lon="-8.960678"><ele>841</ele></trkpt>
      <trkpt lat="30.510616" lon="-8.967360"><ele>832</ele></trkpt>
      <trkpt lat="30.507068" lon="-8.967867"><ele>824</ele></trkpt>
      <trkpt lat="30.503933" lon="-8.970196"><ele>816</ele></trkpt>
      <trkpt lat="30.506194" lon="-8.975332"><ele>808</ele></trkpt>
      <trkpt lat="30.504892" lon="-8.981206"><ele>799</ele></trkpt>
      <trkpt lat="30.505431" lon="-8.985267"><ele>789</ele></trkpt>
      <trkpt lat="30.504917" lon="-8.986932"><ele>777</ele></trkpt>
      <trkpt lat="30.505568" lon="-8.991224"><ele>765</ele></trkpt>
      <trkpt lat="30.506550" lon="-8.994147"><ele>751</ele></trkpt>
      <trkpt lat="30.507621" lon="-8.997477"><ele>737</ele></trkpt>
      <trkpt lat="30.504943" lon="-8.999075"><ele>724</ele></trkpt>
      <trkpt lat="30.503555" lon="-9.002173"><ele>713</ele></trkpt>
      <trkpt lat="30.501597" lon="-9.004556"><ele>703</ele></trkpt>
      <trkpt lat="30.498836" lon="-9.008821"><ele>696</ele></trkpt>
      <trkpt lat="30.496864" lon="-9.015007"><ele>691</ele></trkpt>
      <trkpt lat="30.496097" lon="-9.021484"><ele>689</ele></trkpt>
      <trkpt lat="30.496892" lon="-9.023970"><ele>690</ele></trkpt>
      <trkpt lat="30.496380" lon="-9.024582"><ele>694</ele></trkpt>
      <trkpt lat="30.495944" lon="-9.030508"><ele>699</ele></trkpt>
      <trkpt lat="30.493962" lon="-9.033653"><ele>705</ele></trkpt>
      <trkpt lat="30.493022" lon="-9.038199"><ele>711</ele></trkpt>
      <trkpt lat="30.492129" lon="-9.041855"><ele>717</ele></trkpt>
      <trkpt lat="30.491895" lon="-9.045177"><ele>722</ele></trkpt>
      <trkpt lat="30.490636" lon="-9.048832"><ele>726</ele></trkpt>
      <trkpt lat="30.490717" lon="-9.052118"><ele>729</ele></trkpt>
      <trkpt lat="30.487774" lon="-9.054466"><ele>731</ele></trkpt>
      <trkpt lat="30.488268" lon="-9.055540"><ele>732</ele></trkpt>
      <trkpt lat="30.486085" lon="-9.058912"><ele>733</ele></trkpt>
      <trkpt lat="30.482970" lon="-9.059732"><ele>735</ele></trkpt>
      <trkpt lat="30.483528" lon="-9.063025"><ele>738</ele></trkpt>
      <trkpt lat="30.485670" lon="-9.065326"><ele>744</ele></trkpt>
      <trkpt lat="30.482969" lon="-9.067057"><ele>752</ele></trkpt>
      <trkpt lat="30.479885" lon="-9.068835"><ele>763</ele></trkpt>
      <trkpt lat="30.477085" lon="-9.071582"><ele>776</ele></trkpt>
      <trkpt lat="30.477586" lon="-9.076678"><ele>792</ele></trkpt>
      <trkpt lat="30.476653" lon="-9.082090"><ele>810</ele></trkpt>
      <trkpt lat="30.477425" lon="-9.085641"><ele>830</ele></trkpt>
      <trkpt lat="30.477928" lon="-9.087412"><ele>850</ele></trkpt>
      <trkpt lat="30.479275" lon="-9.090174"><ele>869</ele></trkpt>
      <trkpt lat="30.477889" lon="-9.092192"><ele>888</ele></trkpt>
      <trkpt lat="30.478683" lon="-9.095445"><ele>906</ele></trkpt>
      <trkpt lat="30.479153" lon="-9.101633"><ele>923</ele></trkpt>
      <trkpt lat="30.478198" lon="-9.105945"><ele>938</ele></trkpt>
      <trkpt lat="30.477750" lon="-9.111648"><ele>951</ele></trkpt>
      <trkpt lat="30.479771" lon="-9.114658"><ele>964</ele></trkpt>
      <trkpt lat="30.480341" lon="-9.117882"><ele>977</ele></trkpt>
      <trkpt lat="30.479641" lon="-9.119495"><ele>991</ele></trkpt>
      <trkpt lat="30.479467" lon="-9.123971"><ele>1005</ele></trkpt>
      <trkpt lat="30.481432" lon="-9.128895"><ele>1021</ele></trkpt>
      <trkpt lat="30.480991" lon="-9.131843"><ele>1040</ele></trkpt>
      <trkpt lat="30.482473" lon="-9.136120"><ele>1061</ele></trkpt>
      <trkpt lat="30.481170" lon="-9.139958"><ele>1084</ele></trkpt>
      <trkpt lat="30.480178" lon="-9.145732"><ele>1109</ele></trkpt>
      <trkpt lat="30.479082" lon="-9.149462"><ele>1135</ele></trkpt>
      <trkpt lat="30.478286" lon="-9.152337"><ele>1162</ele></trkpt>
      <trkpt lat="30.479947" lon="-9.157656"><ele>1189</ele></trkpt>
      <trkpt lat="30.480801" lon="-9.159823"><ele>1216</ele></trkpt>
      <trkpt lat="30.479667" lon="-9.162187"><ele>1240</ele></trkpt>
      <trkpt lat="30.480145" lon="-9.164048"><ele>1263</ele></trkpt>
      <trkpt lat="30.480983" lon="-9.167795"><ele>1284</ele></trkpt>
      <trkpt lat="30.482436" lon="-9.171124"><ele>1303</ele></trkpt>
      <trkpt lat="30.481427" lon="-9.175402"><ele>1320</ele></trkpt>
      <trkpt lat="30.478833" lon="-9.177673"><ele>1336</ele></trkpt>
      <trkpt lat="30.476665" lon="-9.182159"><ele>1352</ele></trkpt>
      <trkpt lat="30.474896" lon="-9.184180"><ele>1367</ele></trkpt>
      <trkpt lat="30.472596" lon="-9.187919"><ele>1384</ele></trkpt>
      <trkpt lat="30.470556" lon="-9.192357"><ele>1402</ele></trkpt>
      <trkpt lat="30.470741" lon="-9.193894"><ele>1421</ele></trkpt>
      <trkpt lat="30.469729" lon="-9.199366"><ele>1442</ele></trkpt>
      <trkpt lat="30.468972" lon="-9.202208"><ele>1465</ele></trkpt>
      <trkpt lat="30.468277" lon="-9.207899"><ele>1489</ele></trkpt>
      <trkpt lat="30.469466" lon="-9.210092"><ele>1514</ele></trkpt>
      <trkpt lat="30.469883" lon="-9.213189"><ele>1538</ele></trkpt>
      <trkpt lat="30.468745" lon="-9.217781"><ele>1562</ele></trkpt>
      <trkpt lat="30.468538" lon="-9.220176"><ele>1584</ele></trkpt>
      <trkpt lat="30.467344" lon="-9.225531"><ele>1604</ele></trkpt>
      <trkpt lat="30.466782" lon="-9.228762"><ele>1622</ele></trkpt>
      <trkpt lat="30.467795" lon="-9.233685"><ele>1637</ele></trkpt>
      <trkpt lat="30.465841" lon="-9.236553"><ele>1649</ele></trkpt>
      <trkpt lat="30.464394" lon="-9.241141"><ele>1660</ele></trkpt>
      <trkpt lat="30.463998" lon="-9.246579"><ele>1669</ele></trkpt>
      <trkpt lat="30.463410" lon="-9.249708"><ele>1677</ele></trkpt>
      <trkpt lat="30.464195" lon="-9.253713"><ele>1684</ele></trkpt>
      <trkpt lat="30.464442" lon="-9.257359"><ele>1693</ele></trkpt>
      <trkpt lat="30.463664" lon="-9.261072"><ele>1702</ele></trkpt>
      <trkpt lat="30.463973" lon="-9.265616"><ele>1712</ele></trkpt>
      <trkpt lat="30.461958" lon="-9.270199"><ele>1724</ele></trkpt>
      <trkpt lat="30.463112" lon="-9.275483"><ele>1737</ele></trkpt>
      <trkpt lat="30.463685" lon="-9.278345"><ele>1750</ele></trkpt>
      <trkpt lat="30.462389" lon="-9.281491"><ele>1764</ele></trkpt>
      <trkpt lat="30.461854" lon="-9.283470"><ele>1777</ele></trkpt>
      <trkpt lat="30.463000" lon="-9.287443"><ele>1788</ele></trkpt>
      <trkpt lat="30.460927" lon="-9.291833"><ele>1798</ele></trkpt>
      <trkpt lat="30.459695" lon="-9.294776"><ele>1805</ele></trkpt>
      <trkpt lat="30.458220" lon="-9.297257"><ele>1809</ele></trkpt>
      <trkpt lat="30.458039" lon="-9.301588"><ele>1811</ele></trkpt>
      <trkpt lat="30.456381" lon="-9.306109"><ele>1809</ele></trkpt>
      <trkpt lat="30.456911" lon="-9.309923"><ele>1806</ele></trkpt>
      <trkpt lat="30.455176" lon="-9.313701"><ele>1801</ele></trkpt>
      <trkpt lat="30.454701" lon="-9.316450"><ele>1794</ele></trkpt>
      <trkpt lat="30.453132" lon="-9.318762"><ele>1788</ele></trkpt>
      <trkpt lat="30.451393" lon="-9.323164"><ele>1782</ele></trkpt>
      <trkpt lat="30.451211" lon="-9.325781"><ele>1777</ele></trkpt>
      <trkpt lat="30.449794" lon="-9.329942"><ele>1774</ele></trkpt>
      <trkpt lat="30.449849" lon="-9.332295"><ele>1771</ele></trkpt>
      <trkpt lat="30.448802" lon="-9.334818"><ele>1769</ele></trkpt>
      <trkpt lat="30.448612" lon="-9.337873"><ele>1768</ele></trkpt>
      <trkpt lat="30.448028" lon="-9.342626"><ele>1767</ele></trkpt>
      <trkpt lat="30.448574" lon="-9.345342"><ele>1765</ele></trkpt>
      <trkpt lat="30.448445" lon="-9.350305"><ele>1761</ele></trkpt>
      <trkpt lat="30.448883" lon="-9.353859"><ele>1755</ele></trkpt>
      <trkpt lat="30.447228" lon="-9.358420"><ele>1747</ele></trkpt>
      <trkpt lat="30.446963" lon="-9.362681"><ele>1736</ele></trkpt>
      <trkpt lat="30.447110" lon="-9.367286"><ele>1722</ele></trkpt>
      <trkpt lat="30.446775" lon="-9.370133"><ele>1706</ele></trkpt>
      <trkpt lat="30.447018" lon="-9.372931"><ele>1688</ele></trkpt>
      <trkpt lat="30.447616" lon="-9.375681"><ele>1668</ele></trkpt>
      <trkpt lat="30.446532" lon="-9.380033"><ele>1648</ele></trkpt>
      <trkpt lat="30.445710" lon="-9.383922"><ele>1629</ele></trkpt>
      <trkpt lat="30.445755" lon="-9.388528"><ele>1610</ele></trkpt>
      <trkpt lat="30.444703" lon="-9.392085"><ele>1592</ele></trkpt>
      <trkpt lat="30.445252" lon="-9.394622"><ele>1576</ele></trkpt>
      <trkpt lat="30.444865" lon="-9.397410"><ele>1561</ele></trkpt>
      <trkpt lat="30.445492" lon="-9.399974"><ele>1547</ele></trkpt>
      <trkpt lat="30.444037" lon="-9.403844"><ele>1534</ele></trkpt>
      <trkpt lat="30.444396" lon="-9.407361"><ele>1522</ele></trkpt>
      <trkpt lat="30.444251" lon="-9.411922"><ele>1508</ele></trkpt>
      <trkpt lat="30.444064" lon="-9.416056"><ele>1493</ele></trkpt>
      <trkpt lat="30.443928" lon="-9.420261"><ele>1477</ele></trkpt>
      <trkpt lat="30.442958" lon="-9.423341"><ele>1458</ele></trkpt>
      <trkpt lat="30.442302" lon="-9.427261"><ele>1437</ele></trkpt>
      <trkpt lat="30.442710" lon="-9.430371"><ele>1414</ele></trkpt>
      <trkpt lat="30.441443" lon="-9.434055"><ele>1389</ele></trkpt>
      <trkpt lat="30.441787" lon="-9.438517"><ele>1362</ele></trkpt>
      <trkpt lat="30.441764" lon="-9.442246"><ele>1335</ele></trkpt>
      <trkpt lat="30.440498" lon="-9.446266"><ele>1308</ele></trkpt>
      <trkpt lat="30.440484" lon="-9.449209"><ele>1282</ele></trkpt>
      <trkpt lat="30.439658" lon="-9.452488"><ele>1257</ele></trkpt>
      <trkpt lat="30.439339" lon="-9.455544"><ele>1235</ele></trkpt>
      <trkpt lat="30.439193" lon="-9.459898"><ele>1214</ele></trkpt>
      <trkpt lat="30.438682" lon="-9.463115"><ele>1195</ele></trkpt>
      <trkpt lat="30.437576" lon="-9.467160"><ele>1178</ele></trkpt>
      <trkpt lat="30.436974" lon="-9.470447"><ele>1162</ele></trkpt>
      <trkpt lat="30.436776" lon="-9.473885"><ele>1147</ele></trkpt>
      <trkpt lat="30.436504" lon="-9.477639"><ele>1131</ele></trkpt>
      <trkpt lat="30.436517" lon="-9.481315"><ele>1114</ele></trkpt>
      <trkpt lat="30.436005" lon="-9.484998"><ele>1096</ele></trkpt>
      <trkpt lat="30.435192" lon="-9.488156"><ele>1077</ele></trkpt>
      <trkpt lat="30.434843" lon="-9.491532"><ele>1056</ele></trkpt>
      <trkpt lat="30.434834" lon="-9.494580"><ele>1033</ele></trkpt>
      <trkpt lat="30.434199" lon="-9.498191"><ele>1009</ele></trkpt>
      <trkpt lat="30.433998" lon="-9.501874"><ele>984</ele></trkpt>
      <trkpt lat="30.433905" lon="-9.505235"><ele>960</ele></trkpt>
      <trkpt lat="30.433670" lon="-9.508627"><ele>936</ele></trkpt>
      <trkpt lat="30.433261" lon="-9.512269"><ele>914</ele></trkpt>
      <trkpt lat="30.432565" lon="-9.516154"><ele>894</ele></trkpt>
      <trkpt lat="30.432417" lon="-9.519784"><ele>877</ele></trkpt>
      <trkpt lat="30.431502" lon="-9.523709"><ele>862</ele></trkpt>
      <trkpt lat="30.431257" lon="-9.527053"><ele>850</ele></trkpt>
      <trkpt lat="30.430833" lon="-9.530365"><ele>839</ele></trkpt>
      <trkpt lat="30.429923" lon="-9.534084"><ele>831</ele></trkpt>
      <trkpt lat="30.429441" lon="-9.538071"><ele>823</ele></trkpt>
      <trkpt lat="30.428688" lon="-9.541408"><ele>815</ele></trkpt>
      <trkpt lat="30.428097" lon="-9.545068"><ele>807</ele></trkpt>
      <trkpt lat="30.427557" lon="-9.548841"><ele>797</ele></trkpt>
      <trkpt lat="30.427153" lon="-9.552328"><ele>787</ele></trkpt>
      <trkpt lat="30.426736" lon="-9.556100"><ele>775</ele></trkpt>
      <trkpt lat="30.426296" lon="-9.559562"><ele>762</ele></trkpt>
      <trkpt lat="30.425747" lon="-9.563379"><ele>748</ele></trkpt>
      <trkpt lat="30.425146" lon="-9.566950"><ele>735</ele></trkpt>
      <trkpt lat="30.424441" lon="-9.570692"><ele>722</ele></trkpt>
      <trkpt lat="30.423831" lon="-9.574243"><ele>711</ele></trkpt>
      <trkpt lat="30.423172" lon="-9.578030"><ele>701</ele></trkpt>
      <trkpt lat="30.422691" lon="-9.581772"><ele>694</ele></trkpt>
      <trkpt lat="30.422225" lon="-9.585363"><ele>690</ele></trkpt>
      <trkpt lat="30.421643" lon="-9.589016"><ele>689</ele></trkpt>
      <trkpt lat="30.421103" lon="-9.592704"><ele>691</ele></trkpt>
      <trkpt lat="30.420564" lon="-9.596361"><ele>695</ele></trkpt>
      <trkpt lat="30.420000" lon="-9.600000"><ele>700</ele></trkpt>
    </trkseg>
  </trk>
</gpx>
