<?xml version="1.0" encoding="UTF-8"?>
<gpx version="1.1" creator="Bikepacking-Planer seed script" xmlns="http://www.topografix.com/GPX/1/1">
  <trk>
    <name>Peak & Planes</name>
    <trkseg>
      <trkpt lat="46.520000" lon="7.980000"><ele>600</ele></trkpt>
      <trkpt lat="46.519871" lon="7.982021"><ele>609</ele></trkpt>
      <trkpt lat="46.519763" lon="7.984017"><ele>617</ele></trkpt>
      <trkpt lat="46.519597" lon="7.985979"><ele>626</ele></trkpt>
      <trkpt lat="46.519456" lon="7.987998"><ele>632</ele></trkpt>
      <trkpt lat="46.519408" lon="7.989879"><ele>637</ele></trkpt>
      <trkpt lat="46.519255" lon="7.991803"><ele>640</ele></trkpt>
      <trkpt lat="46.518991" lon="7.993670"><ele>642</ele></trkpt>
      <trkpt lat="46.518979" lon="7.995468"><ele>644</ele></trkpt>
      <trkpt lat="46.518719" lon="7.997467"><ele>646</ele></trkpt>
      <trkpt lat="46.518400" lon="7.999343"><ele>650</ele></trkpt>
      <trkpt lat="46.518476" lon="8.001025"><ele>656</ele></trkpt>
      <trkpt lat="46.518176" lon="8.003047"><ele>666</ele></trkpt>
      <trkpt lat="46.518187" lon="8.004814"><ele>680</ele></trkpt>
      <trkpt lat="46.517959" lon="8.006972"><ele>697</ele></trkpt>
      <trkpt lat="46.517803" lon="8.008704"><ele>719</ele></trkpt>
      <trkpt lat="46.517597" lon="8.010630"><ele>743</ele></trkpt>
      <trkpt lat="46.517061" lon="8.012572"><ele>770</ele></trkpt>
      <trkpt lat="46.516440" lon="8.014706"><ele>798</ele></trkpt>
      <trkpt lat="46.516333" lon="8.016471"><ele>826</ele></trkpt>
      <trkpt lat="46.515682" lon="8.018123"><ele>853</ele></trkpt>
      <trkpt lat="46.515204" lon="8.019831"><ele>879</ele></trkpt>
      <trkpt lat="46.514520" lon="8.021302"><ele>902</ele></trkpt>
      <trkpt lat="46.513847" lon="8.023477"><ele>923</ele></trkpt>
      <trkpt lat="46.513072" lon="8.025106"><ele>942</ele></trkpt>
      <trkpt lat="46.512571" lon="8.027278"><ele>961</ele></trkpt>
      <trkpt lat="46.512372" lon="8.029664"><ele>979</ele></trkpt>
      <trkpt lat="46.511471" lon="8.031446"><ele>998</ele></trkpt>
      <trkpt lat="46.511259" lon="8.033214"><ele>1018</ele></trkpt>
      <trkpt lat="46.510555" lon="8.035378"><ele>1042</ele></trkpt>
      <trkpt lat="46.510161" lon="8.037228"><ele>1068</ele></trkpt>
      <trkpt lat="46.509247" lon="8.039433"><ele>1098</ele></trkpt>
      <trkpt lat="46.509183" lon="8.040805"><ele>1132</ele></trkpt>
      <trkpt lat="46.509346" lon="8.043465"><ele>1167</ele></trkpt>
      <trkpt lat="46.508542" lon="8.045708"><ele>1205</ele></trkpt>
      <trkpt lat="46.508279" lon="8.047068"><ele>1243</ele></trkpt>
      <trkpt lat="46.508842" lon="8.049098"><ele>1281</ele></trkpt>
      <trkpt lat="46.508573" lon="8.051812"><ele>1317</ele></trkpt>
      <trkpt lat="46.508475" lon="8.053978"><ele>1351</ele></trkpt>
      <trkpt lat="46.507809" lon="8.056520"><ele>1382</ele></trkpt>
      <trkpt lat="46.507026" lon="8.058858"><ele>1410</ele></trkpt>
      <trkpt lat="46.505839" lon="8.061363"><ele>1435</ele></trkpt>
      <trkpt lat="46.505897" lon="8.063362"><ele>1459</ele></trkpt>
      <trkpt lat="46.505547" lon="8.065658"><ele>1481</ele></trkpt>
      <trkpt lat="46.504828" lon="8.067480"><ele>1502</ele></trkpt>
      <trkpt lat="46.505019" lon="8.068861"><ele>1525</ele></trkpt>
      <trkpt lat="46.504077" lon="8.071521"><ele>1549</ele></trkpt>
      <trkpt lat="46.502965" lon="8.072890"><ele>1576</ele></trkpt>
      <trkpt lat="46.502378" lon="8.074270"><ele>1605</ele></trkpt>
      <trkpt lat="46.501981" lon="8.075221"><ele>1637</ele></trkpt>
      <trkpt lat="46.501434" lon="8.076362"><ele>1670</ele></trkpt>
      <trkpt lat="46.500708" lon="8.078239"><ele>1705</ele></trkpt>
      <trkpt lat="46.500941" lon="8.079089"><ele>1739</ele></trkpt>
      <trkpt lat="46.499467" lon="8.082221"><ele>1773</ele></trkpt>
      <trkpt lat="46.500064" lon="8.084789"><ele>1804</ele></trkpt>
      <trkpt lat="46.499950" lon="8.085576"><ele>1833</ele></trkpt>
      <trkpt lat="46.499443" lon="8.086605"><ele>1857</ele></trkpt>
      <trkpt lat="46.499994" lon="8.089533"><ele>1878</ele></trkpt>
      <trkpt lat="46.500739" lon="8.090323"><ele>1896</ele></trkpt>
      <trkpt lat="46.500173" lon="8.092466"><ele>1910</ele></trkpt>
      <trkpt lat="46.500842" lon="8.093197"><ele>1922</ele></trkpt>
      <trkpt lat="46.499520" lon="8.094220"><ele>1934</ele></trkpt>
      <trkpt lat="46.498195" lon="8.096934"><ele>1945</ele></trkpt>
      <trkpt lat="46.498419" lon="8.100177"><ele>1957</ele></trkpt>
      <trkpt lat="46.499221" lon="8.102977"><ele>1970</ele></trkpt>
      <trkpt lat="46.497927" lon="8.104914"><ele>1985</ele></trkpt>
      <trkpt lat="46.498577" lon="8.106264"><ele>2002</ele></trkpt>
      <trkpt lat="46.498543" lon="8.108626"><ele>2021</ele></trkpt>
      <trkpt lat="46.496603" lon="8.110736"><ele>2040</ele></trkpt>
      <trkpt lat="46.497376" lon="8.112339"><ele>2059</ele></trkpt>
      <trkpt lat="46.496529" lon="8.115626"><ele>2076</ele></trkpt>
      <trkpt lat="46.496589" lon="8.117401"><ele>2091</ele></trkpt>
      <trkpt lat="46.496362" lon="8.118969"><ele>2103</ele></trkpt>
      <trkpt lat="46.497348" lon="8.121084"><ele>2111</ele></trkpt>
      <trkpt lat="46.497372" lon="8.123187"><ele>2114</ele></trkpt>
      <trkpt lat="46.496039" lon="8.125784"><ele>2114</ele></trkpt>
      <trkpt lat="46.496721" lon="8.126160"><ele>2110</ele></trkpt>
      <trkpt lat="46.497940" lon="8.129270"><ele>2103</ele></trkpt>
      <trkpt lat="46.496973" lon="8.132416"><ele>2095</ele></trkpt>
      <trkpt lat="46.496277" lon="8.136134"><ele>2086</ele></trkpt>
      <trkpt lat="46.494364" lon="8.138105"><ele>2077</ele></trkpt>
      <trkpt lat="46.495965" lon="8.138760"><ele>2070</ele></trkpt>
      <trkpt lat="46.496002" lon="8.139672"><ele>2064</ele></trkpt>
      <trkpt lat="46.497580" lon="8.142307"><ele>2061</ele></trkpt>
      <trkpt lat="46.499124" lon="8.146250"><ele>2058</ele></trkpt>
      <trkpt lat="46.497161" lon="8.146715"><ele>2057</ele></trkpt>
      <trkpt lat="46.495402" lon="8.146665"><ele>2055</ele></trkpt>
      <trkpt lat="46.496087" lon="8.150412"><ele>2052</ele></trkpt>
      <trkpt lat="46.494655" lon="8.153327"><ele>2046</ele></trkpt>
      <trkpt lat="46.494252" lon="8.156372"><ele>2038</ele></trkpt>
      <trkpt lat="46.493369" lon="8.159203"><ele>2026</ele></trkpt>
      <trkpt lat="46.493034" lon="8.159121"><ele>2010</ele></trkpt>
      <trkpt lat="46.491015" lon="8.159941"><ele>1990</ele></trkpt>
      <trkpt lat="46.491810" lon="8.160031"><ele>1966</ele></trkpt>
      <trkpt lat="46.490511" lon="8.163645"><ele>1940</ele></trkpt>
      <trkpt lat="46.491457" lon="8.166175"><ele>1912</ele></trkpt>
      <trkpt lat="46.493493" lon="8.170176"><ele>1884</ele></trkpt>
      <trkpt lat="46.494734" lon="8.171875"><ele>1857</ele></trkpt>
      <trkpt lat="46.492546" lon="8.171757"><ele>1831</ele></trkpt>
      <trkpt lat="46.491852" lon="8.172522"><ele>1807</ele></trkpt>
      <trkpt lat="46.493503" lon="8.175142"><ele>1785</ele></trkpt>
      <trkpt lat="46.494088" lon="8.179168"><ele>1765</ele></trkpt>
      <trkpt lat="46.495863" lon="8.181539"><ele>1746</ele></trkpt>
      <trkpt lat="46.498081" lon="8.184178"><ele>1728</ele></trkpt>
      <trkpt lat="46.495929" lon="8.185212"><ele>1710</ele></trkpt>
      <trkpt lat="46.497595" lon="8.188444"><ele>1690</ele></trkpt>
      <trkpt lat="46.498976" lon="8.190134"><ele>1667</ele></trkpt>
      <trkpt lat="46.496272" lon="8.191567"><ele>1642</ele></trkpt>
      <trkpt lat="46.494549" lon="8.194865"><ele>1613</ele></trkpt>
      <trkpt lat="46.496788" lon="8.194295"><ele>1581</ele></trkpt>
      <trkpt lat="46.495253" lon="8.195660"><ele>1546</ele></trkpt>
      <trkpt lat="46.497484" lon="8.197148"><ele>1509</ele></trkpt>
      <trkpt lat="46.496191" lon="8.198458"><ele>1471</ele></trkpt>
      <trkpt lat="46.496891" lon="8.198046"><ele>1433</ele></trkpt>
      <trkpt lat="46.498007" lon="8.202367"><ele>1396</ele></trkpt>
      <trkpt lat="46.495606" lon="8.205420"><ele>1362</ele></trkpt>
      <trkpt lat="46.496152" lon="8.205011"><ele>1329</ele></trkpt>
      <trkpt lat="46.497737" lon="8.206492"><ele>1300</ele></trkpt>
      <trkpt lat="46.499637" lon="8.208600"><ele>1274</ele></trkpt>
      <trkpt lat="46.497551" lon="8.212629"><ele>1250</ele></trkpt>
      <trkpt lat="46.497713" lon="8.212246"><ele>1228</ele></trkpt>
      <trkpt lat="46.496012" lon="8.212730"><ele>1206</ele></trkpt>
      <trkpt lat="46.496513" lon="8.215845"><ele>1184</ele></trkpt>
      <trkpt lat="46.498038" lon="8.215657"><ele>1160</ele></trkpt>
      <trkpt lat="46.499064" lon="8.214843"><ele>1134</ele></trkpt>
      <trkpt lat="46.497748" lon="8.216361"><ele>1106</ele></trkpt>
      <trkpt lat="46.500555" lon="8.217382"><ele>1075</ele></trkpt>
      <trkpt lat="46.502340" lon="8.221793"><ele>1043</ele></trkpt>
      <trkpt lat="46.502421" lon="8.226032"><ele>1008</ele></trkpt>
      <trkpt lat="46.501811" lon="8.226006"><ele>974</ele></trkpt>
      <trkpt lat="46.504725" lon="8.225065"><ele>940</ele></trkpt>
      <trkpt lat="46.503755" lon="8.229810"><ele>907</ele></trkpt>
      <trkpt lat="46.501900" lon="8.229200"><ele>878</ele></trkpt>
      <trkpt lat="46.500090" lon="8.229041"><ele>852</ele></trkpt>
      <trkpt lat="46.502084" lon="8.230009"><ele>829</ele></trkpt>
      <trkpt lat="46.503230" lon="8.229058"><ele>810</ele></trkpt>
      <trkpt lat="46.504898" lon="8.232488"><ele>795</ele></trkpt>
      <trkpt lat="46.506001" lon="8.233261"><ele>782</ele></trkpt>
      <trkpt lat="46.506275" lon="8.234495"><ele>770</ele></trkpt>
      <trkpt lat="46.503080" lon="8.234966"><ele>760</ele></trkpt>
      <trkpt lat="46.503452" lon="8.238655"><ele>748</ele></trkpt>
      <trkpt lat="46.506143" lon="8.237882"><ele>735</ele></trkpt>
      <trkpt lat="46.508557" lon="8.238105"><ele>721</ele></trkpt>
      <trkpt lat="46.511275" lon="8.242544"><ele>704</ele></trkpt>
      <trkpt lat="46.508481" lon="8.242878"><ele>686</ele></trkpt>
      <trkpt lat="46.511337" lon="8.243473"><ele>667</ele></trkpt>
      <trkpt lat="46.510762" lon="8.245552"><ele>648</ele></trkpt>
      <trkpt lat="46.512411" lon="8.248290"><ele>630</ele></trkpt>
      <trkpt lat="46.509277" lon="8.252004"><ele>614</ele></trkpt>
      <trkpt lat="46.506213" lon="8.254691"><ele>601</ele></trkpt>
      <trkpt lat="46.504113" lon="8.253461"><ele>592</ele></trkpt>
      <trkpt lat="46.505903" lon="8.257064"><ele>587</ele></trkpt>
      <trkpt lat="46.508014" lon="8.260528"><ele>586</ele></trkpt>
      <trkpt lat="46.506623" lon="8.262144"><ele>588</ele></trkpt>
      <trkpt lat="46.506362" lon="8.263829"><ele>594</ele></trkpt>
      <trkpt lat="46.503491" lon="8.265719"><ele>602</ele></trkpt>
      <trkpt lat="46.500793" lon="8.270776"><ele>611</ele></trkpt>
      <trkpt lat="46.500440" lon="8.273630"><ele>620</ele></trkpt>
      <trkpt lat="46.502646" lon="8.272604"><ele>627</ele></trkpt>
      <trkpt lat="46.502720" lon="8.272416"><ele>634</ele></trkpt>
      <trkpt lat="46.500202" lon="8.271569"><ele>638</ele></trkpt>
      <trkpt lat="46.496593" lon="8.272586"><ele>641</ele></trkpt>
      <trkpt lat="46.497609" lon="8.275435"><ele>643</ele></trkpt>
      <trkpt lat="46.493994" lon="8.280547"><ele>645</ele></trkpt>
      <trkpt lat="46.496396" lon="8.282064"><ele>647</ele></trkpt>
      <trkpt lat="46.499422" lon="8.280933"><ele>651</ele></trkpt>
      <trkpt lat="46.502627" lon="8.280069"><ele>658</ele></trkpt>
      <trkpt lat="46.500598" lon="8.283220"><ele>669</ele></trkpt>
      <trkpt lat="46.500746" lon="8.283279"><ele>684</ele></trkpt>
      <trkpt lat="46.497912" lon="8.285267"><ele>702</ele></trkpt>
      <trkpt lat="46.496230" lon="8.289974"><ele>725</ele></trkpt>
      <trkpt lat="46.497258" lon="8.288737"><ele>750</ele></trkpt>
      <trkpt lat="46.493466" lon="8.292571"><ele>777</ele></trkpt>
      <trkpt lat="46.489535" lon="8.294987"><ele>805</ele></trkpt>
      <trkpt lat="46.488090" lon="8.296053"><ele>833</ele></trkpt>
      <trkpt lat="46.488694" lon="8.301127"><ele>860</ele></trkpt>
      <trkpt lat="46.490838" lon="8.305335"><ele>885</ele></trkpt>
      <trkpt lat="46.490155" lon="8.308823"><ele>907</ele></trkpt>
      <trkpt lat="46.489277" lon="8.311113"><ele>928</ele></trkpt>
      <trkpt lat="46.486268" lon="8.315120"><ele>947</ele></trkpt>
      <trkpt lat="46.487344" lon="8.318890"><ele>965</ele></trkpt>
      <trkpt lat="46.490150" lon="8.323319"><ele>983</ele></trkpt>
      <trkpt lat="46.490749" lon="8.326317"><ele>1003</ele></trkpt>
      <trkpt lat="46.492061" lon="8.329552"><ele>1024</ele></trkpt>
      <trkpt lat="46.492973" lon="8.330080"><ele>1048</ele></trkpt>
      <trkpt lat="46.490059" lon="8.334003"><ele>1076</ele></trkpt>
      <trkpt lat="46.486013" lon="8.336582"><ele>1106</ele></trkpt>
      <trkpt lat="46.485561" lon="8.342601"><ele>1140</ele></trkpt>
      <trkpt lat="46.482940" lon="8.346206"><ele>1177</ele></trkpt>
      <trkpt lat="46.479373" lon="8.346723"><ele>1214</ele></trkpt>
      <trkpt lat="46.479147" lon="8.346206"><ele>1253</ele></trkpt>
      <trkpt lat="46.481558" lon="8.345338"><ele>1290</ele></trkpt>
      <trkpt lat="46.484159" lon="8.346530"><ele>1326</ele></trkpt>
      <trkpt lat="46.487161" lon="8.352393"><ele>1359</ele></trkpt>
      <trkpt lat="46.486743" lon="8.354408"><ele>1389</ele></trkpt>
      <trkpt lat="46.484480" lon="8.357392"><ele>1416</ele></trkpt>
      <trkpt lat="46.487387" lon="8.359313"><ele>1441</ele></trkpt>
      <trkpt lat="46.486579" lon="8.364583"><ele>1464</ele></trkpt>
      <trkpt lat="46.484550" lon="8.363141"><ele>1486</ele></trkpt>
      <trkpt lat="46.483225" lon="8.366862"><ele>1508</ele></trkpt>
      <trkpt lat="46.484166" lon="8.370283"><ele>1531</ele></trkpt>
      <trkpt lat="46.482297" lon="8.374772"><ele>1556</ele></trkpt>
      <trkpt lat="46.484075" lon="8.377347"><ele>1583</ele></trkpt>
      <trkpt lat="46.484393" lon="8.382008"><ele>1613</ele></trkpt>
      <trkpt lat="46.488195" lon="8.384272"><ele>1645</ele></trkpt>
      <trkpt lat="46.489690" lon="8.383635"><ele>1679</ele></trkpt>
      <trkpt lat="46.493620" lon="8.381751"><ele>1713</ele></trkpt>
      <trkpt lat="46.493157" lon="8.379432"><ele>1748</ele></trkpt>
      <trkpt lat="46.496049" lon="8.381105"><ele>1781</ele></trkpt>
      <trkpt lat="46.490766" lon="8.377911"><ele>1812</ele></trkpt>
      <trkpt lat="46.491347" lon="8.378833"><ele>1839</ele></trkpt>
      <trkpt lat="46.492023" lon="8.379007"><ele>1863</ele></trkpt>
      <trkpt lat="46.487969" lon="8.380988"><ele>1883</ele></trkpt>
      <trkpt lat="46.487059" lon="8.378216"><ele>1900</ele></trkpt>
      <trkpt lat="46.487580" lon="8.377656"><ele>1913</ele></trkpt>
      <trkpt lat="46.484218" lon="8.380277"><ele>1925</ele></trkpt>
      <trkpt lat="46.486384" lon="8.381840"><ele>1936</ele></trkpt>
      <trkpt lat="46.484820" lon="8.382388"><ele>1948</ele></trkpt>
      <trkpt lat="46.484297" lon="8.384285"><ele>1960</ele></trkpt>
      <trkpt lat="46.479841" lon="8.385317"><ele>1974</ele></trkpt>
      <trkpt lat="46.482447" lon="8.382012"><ele>1989</ele></trkpt>
      <trkpt lat="46.479098" lon="8.379744"><ele>2007</ele></trkpt>
      <trkpt lat="46.482386" lon="8.374254"><ele>2026</ele></trkpt>
      <trkpt lat="46.484545" lon="8.374393"><ele>2045</ele></trkpt>
      <trkpt lat="46.485418" lon="8.375316"><ele>2063</ele></trkpt>
      <trkpt lat="46.484325" lon="8.370519"><ele>2080</ele></trkpt>
      <trkpt lat="46.479245" lon="8.369659"><ele>2095</ele></trkpt>
      <trkpt lat="46.474505" lon="8.370134"><ele>2105</ele></trkpt>
      <trkpt lat="46.474489" lon="8.366685"><ele>2112</ele></trkpt>
      <trkpt lat="46.474537" lon="8.360969"><ele>2114</ele></trkpt>
      <trkpt lat="46.469976" lon="8.361201"><ele>2113</ele></trkpt>
      <trkpt lat="46.464640" lon="8.361051"><ele>2108</ele></trkpt>
      <trkpt lat="46.464049" lon="8.355563"><ele>2101</ele></trkpt>
      <trkpt lat="46.462728" lon="8.357910"><ele>2092</ele></trkpt>
      <trkpt lat="46.464383" lon="8.356092"><ele>2084</ele></trkpt>
      <trkpt lat="46.464408" lon="8.356580"><ele>2075</ele></trkpt>
      <trkpt lat="46.459000" lon="8.352508"><ele>2069</ele></trkpt>
      <trkpt lat="46.459677" lon="8.355718"><ele>2063</ele></trkpt>
      <trkpt lat="46.457554" lon="8.356428"><ele>2060</ele></trkpt>
      <trkpt lat="46.457024" lon="8.359309"><ele>2058</ele></trkpt>
      <trkpt lat="46.455279" lon="8.358261"><ele>2056</ele></trkpt>
      <trkpt lat="46.457669" lon="8.355429"><ele>2054</ele></trkpt>
      <trkpt lat="46.457345" lon="8.350942"><ele>2051</ele></trkpt>
      <trkpt lat="46.453357" lon="8.346205"><ele>2045</ele></trkpt>
      <trkpt lat="46.452968" lon="8.343368"><ele>2035</ele></trkpt>
      <trkpt lat="46.452679" lon="8.344280"><ele>2022</ele></trkpt>
      <trkpt lat="46.450978" lon="8.342406"><ele>2005</ele></trkpt>
      <trkpt lat="46.446216" lon="8.337958"><ele>1984</ele></trkpt>
      <trkpt lat="46.446889" lon="8.335681"><ele>1960</ele></trkpt>
      <trkpt lat="46.442634" lon="8.331360"><ele>1933</ele></trkpt>
      <trkpt lat="46.443689" lon="8.328837"><ele>1905</ele></trkpt>
      <trkpt lat="46.444006" lon="8.323974"><ele>1877</ele></trkpt>
      <trkpt lat="46.443815" lon="8.326225"><ele>1850</ele></trkpt>
      <trkpt lat="46.441251" lon="8.329312"><ele>1824</ele></trkpt>
      <trkpt lat="46.440789" lon="8.325118"><ele>1801</ele></trkpt>
      <trkpt lat="46.436059" lon="8.327193"><ele>1779</ele></trkpt>
      <trkpt lat="46.432837" lon="8.324620"><ele>1760</ele></trkpt>
      <trkpt lat="46.433321" lon="8.320541"><ele>1742</ele></trkpt>
      <trkpt lat="46.430868" lon="8.322961"><ele>1723</ele></trkpt>
      <trkpt lat="46.434160" lon="8.317513"><ele>1705</ele></trkpt>
      <trkpt lat="46.435274" lon="8.311630"><ele>1684</ele></trkpt>
      <trkpt lat="46.436421" lon="8.306956"><ele>1661</ele></trkpt>
      <trkpt lat="46.431067" lon="8.305727"><ele>1635</ele></trkpt>
      <trkpt lat="46.430486" lon="8.300752"><ele>1606</ele></trkpt>
      <trkpt lat="46.425465" lon="8.301262"><ele>1573</ele></trkpt>
      <trkpt lat="46.422186" lon="8.302683"><ele>1537</ele></trkpt>
      <trkpt lat="46.423459" lon="8.303234"><ele>1500</ele></trkpt>
      <trkpt lat="46.417777" lon="8.299128"><ele>1462</ele></trkpt>
      <trkpt lat="46.413661" lon="8.293919"><ele>1424</ele></trkpt>
      <trkpt lat="46.407864" lon="8.289499"><ele>1387</ele></trkpt>
      <trkpt lat="46.406632" lon="8.284295"><ele>1353</ele></trkpt>
      <trkpt lat="46.407776" lon="8.280492"><ele>1322</ele></trkpt>
      <trkpt lat="46.404328" lon="8.276409"><ele>1293</ele></trkpt>
      <trkpt lat="46.401806" lon="8.274086"><ele>1268</ele></trkpt>
      <trkpt lat="46.401463" lon="8.268151"><ele>1244</ele></trkpt>
      <trkpt lat="46.400936" lon="8.264077"><ele>1222</ele></trkpt>
      <trkpt lat="46.395860" lon="8.263091"><ele>1200</ele></trkpt>
      <trkpt lat="46.398108" lon="8.265129"><ele>1178</ele></trkpt>
      <trkpt lat="46.392178" lon="8.268739"><ele>1154</ele></trkpt>
      <trkpt lat="46.387563" lon="8.264268"><ele>1127</ele></trkpt>
      <trkpt lat="46.385967" lon="8.262907"><ele>1099</ele></trkpt>
      <trkpt lat="46.384892" lon="8.259468"><ele>1067</ele></trkpt>
      <trkpt lat="46.382006" lon="8.257786"><ele>1034</ele></trkpt>
      <trkpt lat="46.383826" lon="8.258813"><ele>1000</ele></trkpt>
      <trkpt lat="46.385331" lon="8.262176"><ele>965</ele></trkpt>
      <trkpt lat="46.388866" lon="8.260034"><ele>931</ele></trkpt>
      <trkpt lat="46.389836" lon="8.259309"><ele>900</ele></trkpt>
      <trkpt lat="46.386487" lon="8.254453"><ele>871</ele></trkpt>
      <trkpt lat="46.382458" lon="8.256012"><ele>846</ele></trkpt>
      <trkpt lat="46.380138" lon="8.259061"><ele>824</ele></trkpt>
      <trkpt lat="46.378994" lon="8.261930"><ele>806</ele></trkpt>
      <trkpt lat="46.376755" lon="8.265038"><ele>791</ele></trkpt>
      <trkpt lat="46.370979" lon="8.261986"><ele>779</ele></trkpt>
      <trkpt lat="46.366345" lon="8.258210"><ele>768</ele></trkpt>
      <trkpt lat="46.369028" lon="8.257412"><ele>757</ele></trkpt>
      <trkpt lat="46.366759" lon="8.252843"><ele>745</ele></trkpt>
      <trkpt lat="46.363088" lon="8.248206"><ele>732</ele></trkpt>
      <trkpt lat="46.362074" lon="8.248779"><ele>717</ele></trkpt>
      <trkpt lat="46.356058" lon="8.250180"><ele>700</ele></trkpt>
      <trkpt lat="46.351697" lon="8.245149"><ele>682</ele></trkpt>
      <trkpt lat="46.351311" lon="8.247162"><ele>662</ele></trkpt>
      <trkpt lat="46.354171" lon="8.243951"><ele>643</ele></trkpt>
      <trkpt lat="46.351682" lon="8.239782"><ele>626</ele></trkpt>
      <trkpt lat="46.349062" lon="8.240396"><ele>610</ele></trkpt>
      <trkpt lat="46.350648" lon="8.239644"><ele>598</ele></trkpt>
      <trkpt lat="46.345683" lon="8.236012"><ele>590</ele></trkpt>
      <trkpt lat="46.344112" lon="8.238601"><ele>586</ele></trkpt>
      <trkpt lat="46.338182" lon="8.234671"><ele>586</ele></trkpt>
      <trkpt lat="46.334137" lon="8.229639"><ele>590</ele></trkpt>
      <trkpt lat="46.331364" lon="8.230640"><ele>596</ele></trkpt>
      <trkpt lat="46.333641" lon="8.227507"><ele>604</ele></trkpt>
      <trkpt lat="46.332162" lon="8.221906"><ele>613</ele></trkpt>
      <trkpt lat="46.333989" lon="8.223680"><ele>622</ele></trkpt>
      <trkpt lat="46.336926" lon="8.221062"><ele>629</ele></trkpt>
      <trkpt lat="46.335157" lon="8.221855"><ele>635</ele></trkpt>
      <trkpt lat="46.335039" lon="8.220086"><ele>639</ele></trkpt>
      <trkpt lat="46.331021" lon="8.216737"><ele>642</ele></trkpt>
      <trkpt lat="46.334619" lon="8.214447"><ele>643</ele></trkpt>
      <trkpt lat="46.330074" lon="8.210424"><ele>645</ele></trkpt>
      <trkpt lat="46.326475" lon="8.205980"><ele>648</ele></trkpt>
      <trkpt lat="46.324746" lon="8.207275"><ele>653</ele></trkpt>
      <trkpt lat="46.327659" lon="8.203079"><ele>661</ele></trkpt>
      <trkpt lat="46.330214" lon="8.199718"><ele>672</ele></trkpt>
      <trkpt lat="46.326495" lon="8.200842"><ele>688</ele></trkpt>
      <trkpt lat="46.326653" lon="8.203922"><ele>708</ele></trkpt>
      <trkpt lat="46.325950" lon="8.202742"><ele>731</ele></trkpt>
      <trkpt lat="46.326177" lon="8.206105"><ele>756</ele></trkpt>
      <trkpt lat="46.322883" lon="8.209645"><ele>784</ele></trkpt>
      <trkpt lat="46.319298" lon="8.206309"><ele>812</ele></trkpt>
      <trkpt lat="46.315730" lon="8.200991"><ele>840</ele></trkpt>
      <trkpt lat="46.312656" lon="8.198599"><ele>866</ele></trkpt>
      <trkpt lat="46.313599" lon="8.196566"><ele>891</ele></trkpt>
      <trkpt lat="46.313395" lon="8.192684"><ele>913</ele></trkpt>
      <trkpt lat="46.315296" lon="8.187640"><ele>933</ele></trkpt>
      <trkpt lat="46.312982" lon="8.184163"><ele>952</ele></trkpt>
      <trkpt lat="46.316619" lon="8.178461"><ele>970</ele></trkpt>
      <trkpt lat="46.315735" lon="8.176284"><ele>988</ele></trkpt>
      <trkpt lat="46.310004" lon="8.179771"><ele>1008</ele></trkpt>
      <trkpt lat="46.306226" lon="8.178491"><ele>1030</ele></trkpt>
      <trkpt lat="46.300526" lon="8.179568"><ele>1055</ele></trkpt>
      <trkpt lat="46.300664" lon="8.173548"><ele>1083</ele></trkpt>
      <trkpt lat="46.298164" lon="8.174458"><ele>1115</ele></trkpt>
      <trkpt lat="46.297986" lon="8.175032"><ele>1149</ele></trkpt>
      <trkpt lat="46.296274" lon="8.170516"><ele>1186</ele></trkpt>
      <trkpt lat="46.296088" lon="8.166974"><ele>1224</ele></trkpt>
      <trkpt lat="46.290763" lon="8.161099"><ele>1262</ele></trkpt>
      <trkpt lat="46.288653" lon="8.164143"><ele>1299</ele></trkpt>
      <trkpt lat="46.285933" lon="8.161837"><ele>1334</ele></trkpt>
      <trkpt lat="46.289398" lon="8.163606"><ele>1367</ele></trkpt>
      <trkpt lat="46.287919" lon="8.165214"><ele>1396</ele></trkpt>
      <trkpt lat="46.290689" lon="8.164551"><ele>1423</ele></trkpt>
      <trkpt lat="46.286997" lon="8.166940"><ele>1447</ele></trkpt>
      <trkpt lat="46.282638" lon="8.163506"><ele>1470</ele></trkpt>
      <trkpt lat="46.283983" lon="8.159199"><ele>1491</ele></trkpt>
      <trkpt lat="46.279144" lon="8.161786"><ele>1514</ele></trkpt>
      <trkpt lat="46.279023" lon="8.157077"><ele>1537</ele></trkpt>
      <trkpt lat="46.281454" lon="8.159705"><ele>1562</ele></trkpt>
      <trkpt lat="46.283574" lon="8.157241"><ele>1590</ele></trkpt>
      <trkpt lat="46.283655" lon="8.152863"><ele>1621</ele></trkpt>
      <trkpt lat="46.280027" lon="8.146972"><ele>1653</ele></trkpt>
      <trkpt lat="46.280129" lon="8.142212"><ele>1687</ele></trkpt>
      <trkpt lat="46.282207" lon="8.143176"><ele>1722</ele></trkpt>
      <trkpt lat="46.281878" lon="8.141916"><ele>1756</ele></trkpt>
      <trkpt lat="46.281035" lon="8.139235"><ele>1789</ele></trkpt>
      <trkpt lat="46.283832" lon="8.137182"><ele>1819</ele></trkpt>
      <trkpt lat="46.282403" lon="8.137171"><ele>1845</ele></trkpt>
      <trkpt lat="46.277931" lon="8.138664"><ele>1868</ele></trkpt>
      <trkpt lat="46.276121" lon="8.136056"><ele>1887</ele></trkpt>
      <trkpt lat="46.273459" lon="8.138703"><ele>1903</ele></trkpt>
      <trkpt lat="46.269967" lon="8.140602"><ele>1917</ele></trkpt>
      <trkpt lat="46.265777" lon="8.142965"><ele>1928</ele></trkpt>
      <trkpt lat="46.263027" lon="8.141984"><ele>1939</ele></trkpt>
      <trkpt lat="46.260293" lon="8.139506"><ele>1950</ele></trkpt>
      <trkpt lat="46.258799" lon="8.137163"><ele>1963</ele></trkpt>
      <trkpt lat="46.254892" lon="8.137418"><ele>1977</ele></trkpt>
      <trkpt lat="46.255624" lon="8.132114"><ele>1994</ele></trkpt>
      <trkpt lat="46.259051" lon="8.126818"><ele>2011</ele></trkpt>
      <trkpt lat="46.262209" lon="8.122091"><ele>2030</ele></trkpt>
      <trkpt lat="46.263859" lon="8.118318"><ele>2050</ele></trkpt>
      <trkpt lat="46.263035" lon="8.121116"><ele>2068</ele></trkpt>
      <trkpt lat="46.260214" lon="8.122088"><ele>2084</ele></trkpt>
      <trkpt lat="46.261866" lon="8.122992"><ele>2098</ele></trkpt>
      <trkpt lat="46.257628" lon="8.118712"><ele>2107</ele></trkpt>
      <trkpt lat="46.258033" lon="8.116186"><ele>2113</ele></trkpt>
      <trkpt lat="46.260027" lon="8.115875"><ele>2114</ele></trkpt>
      <trkpt lat="46.260609" lon="8.112717"><ele>2112</ele></trkpt>
      <trkpt lat="46.256148" lon="8.114907"><ele>2107</ele></trkpt>
      <trkpt lat="46.257915" lon="8.109874"><ele>2099</ele></trkpt>
      <trkpt lat="46.255292" lon="8.108588"><ele>2090</ele></trkpt>
      <trkpt lat="46.251303" lon="8.107783"><ele>2081</ele></trkpt>
      <trkpt lat="46.249241" lon="8.109871"><ele>2074</ele></trkpt>
      <trkpt lat="46.248197" lon="8.113181"><ele>2067</ele></trkpt>
      <trkpt lat="46.243593" lon="8.116581"><ele>2062</ele></trkpt>
      <trkpt lat="46.245361" lon="8.115946"><ele>2059</ele></trkpt>
      <trkpt lat="46.240181" lon="8.112924"><ele>2057</ele></trkpt>
      <trkpt lat="46.241735" lon="8.110767"><ele>2056</ele></trkpt>
      <trkpt lat="46.239996" lon="8.111419"><ele>2053</ele></trkpt>
      <trkpt lat="46.242253" lon="8.106461"><ele>2049</ele></trkpt>
      <trkpt lat="46.241510" lon="8.104946"><ele>2043</ele></trkpt>
      <trkpt lat="46.242677" lon="8.107114"><ele>2033</ele></trkpt>
      <trkpt lat="46.239599" lon="8.105200"><ele>2018</ele></trkpt>
      <trkpt lat="46.235376" lon="8.102659"><ele>2000</ele></trkpt>
      <trkpt lat="46.237057" lon="8.099603"><ele>1978</ele></trkpt>
      <trkpt lat="46.239118" lon="8.099862"><ele>1953</ele></trkpt>
      <trkpt lat="46.238315" lon="8.099421"><ele>1926</ele></trkpt>
      <trkpt lat="46.236535" lon="8.098585"><ele>1898</ele></trkpt>
      <trkpt lat="46.238435" lon="8.093216"><ele>1870</ele></trkpt>
      <trkpt lat="46.233766" lon="8.092955"><ele>1843</ele></trkpt>
      <trkpt lat="46.231157" lon="8.093056"><ele>1818</ele></trkpt>
      <trkpt lat="46.232211" lon="8.094150"><ele>1795</ele></trkpt>
      <trkpt lat="46.230693" lon="8.096528"><ele>1774</ele></trkpt>
      <trkpt lat="46.233619" lon="8.096817"><ele>1755</ele></trkpt>
      <trkpt lat="46.235113" lon="8.095953"><ele>1737</ele></trkpt>
      <trkpt lat="46.234687" lon="8.097198"><ele>1719</ele></trkpt>
      <trkpt lat="46.233256" lon="8.104707"><ele>1700</ele></trkpt>
      <trkpt lat="46.229771" lon="8.104635"><ele>1679</ele></trkpt>
      <trkpt lat="46.225587" lon="8.106088"><ele>1655</ele></trkpt>
      <trkpt lat="46.226386" lon="8.107250"><ele>1628</ele></trkpt>
      <trkpt lat="46.221783" lon="8.112021"><ele>1598</ele></trkpt>
      <trkpt lat="46.220460" lon="8.117994"><ele>1564</ele></trkpt>
      <trkpt lat="46.222808" lon="8.119729"><ele>1528</ele></trkpt>
      <trkpt lat="46.217792" lon="8.127502"><ele>1490</ele></trkpt>
      <trkpt lat="46.218944" lon="8.135011"><ele>1452</ele></trkpt>
      <trkpt lat="46.218592" lon="8.141940"><ele>1415</ele></trkpt>
      <trkpt lat="46.219528" lon="8.145513"><ele>1379</ele></trkpt>
      <trkpt lat="46.214609" lon="8.152157"><ele>1345</ele></trkpt>
      <trkpt lat="46.210883" lon="8.153998"><ele>1314</ele></trkpt>
      <trkpt lat="46.213208" lon="8.156274"><ele>1287</ele></trkpt>
      <trkpt lat="46.210723" lon="8.161863"><ele>1262</ele></trkpt>
      <trkpt lat="46.207637" lon="8.169902"><ele>1239</ele></trkpt>
      <trkpt lat="46.207976" lon="8.172201"><ele>1217</ele></trkpt>
      <trkpt lat="46.205067" lon="8.173087"><ele>1195</ele></trkpt>
      <trkpt lat="46.205447" lon="8.177646"><ele>1172</ele></trkpt>
      <trkpt lat="46.203435" lon="8.180220"><ele>1147</ele></trkpt>
      <trkpt lat="46.205724" lon="8.182161"><ele>1121</ele></trkpt>
      <trkpt lat="46.207450" lon="8.185665"><ele>1091</ele></trkpt>
      <trkpt lat="46.208210" lon="8.188153"><ele>1059</ele></trkpt>
      <trkpt lat="46.205619" lon="8.190178"><ele>1026</ele></trkpt>
      <trkpt lat="46.208074" lon="8.196829"><ele>991</ele></trkpt>
      <trkpt lat="46.209207" lon="8.203614"><ele>956</ele></trkpt>
      <trkpt lat="46.206396" lon="8.209013"><ele>923</ele></trkpt>
      <trkpt lat="46.208556" lon="8.211202"><ele>892</ele></trkpt>
      <trkpt lat="46.207214" lon="8.215584"><ele>864</ele></trkpt>
      <trkpt lat="46.207445" lon="8.219452"><ele>840</ele></trkpt>
      <trkpt lat="46.204097" lon="8.226818"><ele>819</ele></trkpt>
      <trkpt lat="46.204338" lon="8.234631"><ele>802</ele></trkpt>
      <trkpt lat="46.203309" lon="8.241714"><ele>788</ele></trkpt>
      <trkpt lat="46.204781" lon="8.246114"><ele>776</ele></trkpt>
      <trkpt lat="46.199931" lon="8.252939"><ele>765</ele></trkpt>
      <trkpt lat="46.195868" lon="8.258876"><ele>754</ele></trkpt>
      <trkpt lat="46.193592" lon="8.264542"><ele>742</ele></trkpt>
      <trkpt lat="46.191788" lon="8.268752"><ele>728</ele></trkpt>
      <trkpt lat="46.191831" lon="8.275911"><ele>713</ele></trkpt>
      <trkpt lat="46.187216" lon="8.282112"><ele>695</ele></trkpt>
      <trkpt lat="46.188114" lon="8.286412"><ele>677</ele></trkpt>
      <trkpt lat="46.184907" lon="8.292763"><ele>658</ele></trkpt>
      <trkpt lat="46.185589" lon="8.295288"><ele>639</ele></trkpt>
      <trkpt lat="46.185008" lon="8.302824"><ele>622</ele></trkpt>
      <trkpt lat="46.185104" lon="8.303429"><ele>607</ele></trkpt>
      <trkpt lat="46.184165" lon="8.304144"><ele>596</ele></trkpt>
      <trkpt lat="46.186707" lon="8.306249"><ele>589</ele></trkpt>
      <trkpt lat="46.182614" lon="8.307547"><ele>586</ele></trkpt>
      <trkpt lat="46.184336" lon="8.311740"><ele>587</ele></trkpt>
      <trkpt lat="46.183490" lon="8.318484"><ele>591</ele></trkpt>
      <trkpt lat="46.179416" lon="8.320658"><ele>598</ele></trkpt>
      <trkpt lat="46.180572" lon="8.326830"><ele>606</ele></trkpt>
      <trkpt lat="46.179423" lon="8.330968"><ele>615</ele></trkpt>
      <trkpt lat="46.180097" lon="8.334419"><ele>624</ele></trkpt>
      <trkpt lat="46.179836" lon="8.338193"><ele>631</ele></trkpt>
      <trkpt lat="46.178022" lon="8.344609"><ele>636</ele></trkpt>
      <trkpt lat="46.174693" lon="8.347784"><ele>640</ele></trkpt>
      <trkpt lat="46.170902" lon="8.349439"><ele>642</ele></trkpt>
      <trkpt lat="46.171226" lon="8.350827"><ele>644</ele></trkpt>
      <trkpt lat="46.167717" lon="8.353311"><ele>646</ele></trkpt>
      <trkpt lat="46.164376" lon="8.360621"><ele>649</ele></trkpt>
      <trkpt lat="46.166109" lon="8.364586"><ele>654</ele></trkpt>
      <trkpt lat="46.165504" lon="8.371249"><ele>663</ele></trkpt>
      <trkpt lat="46.162294" lon="8.377539"><ele>676</ele></trkpt>
      <trkpt lat="46.159974" lon="8.381503"><ele>692</ele></trkpt>
      <trkpt lat="46.160211" lon="8.387572"><ele>713</ele></trkpt>
      <trkpt lat="46.160120" lon="8.392120"><ele>737</ele></trkpt>
      <trkpt lat="46.158246" lon="8.394238"><ele>763</ele></trkpt>
      <trkpt lat="46.157570" lon="8.395986"><ele>791</ele></trkpt>
      <trkpt lat="46.157854" lon="8.397810"><ele>819</ele></trkpt>
      <trkpt lat="46.159509" lon="8.402414"><ele>847</ele></trkpt>
      <trkpt lat="46.155861" lon="8.406705"><ele>872</ele></trkpt>
      <trkpt lat="46.156087" lon="8.408608"><ele>896</ele></trkpt>
      <trkpt lat="46.154315" lon="8.411821"><ele>918</ele></trkpt>
      <trkpt lat="46.153978" lon="8.416655"><ele>938</ele></trkpt>
      <trkpt lat="46.154310" lon="8.422492"><ele>956</ele></trkpt>
      <trkpt lat="46.152975" lon="8.427428"><ele>974</ele></trkpt>
      <trkpt lat="46.152095" lon="8.433947"><ele>993</ele></trkpt>
      <trkpt lat="46.148711" lon="8.437575"><ele>1013</ele></trkpt>
      <trkpt lat="46.145244" lon="8.441514"><ele>1036</ele></trkpt>
      <trkpt lat="46.146128" lon="8.446357"><ele>1061</ele></trkpt>
      <trkpt lat="46.144208" lon="8.448535"><ele>1091</ele></trkpt>
      <trkpt lat="46.142065" lon="8.452937"><ele>1123</ele></trkpt>
      <trkpt lat="46.141608" lon="8.454559"><ele>1158</ele></trkpt>
      <trkpt lat="46.142411" lon="8.456483"><ele>1195</ele></trkpt>
      <trkpt lat="46.140183" lon="8.460085"><ele>1234</ele></trkpt>
      <trkpt lat="46.137371" lon="8.462519"><ele>1271</ele></trkpt>
      <trkpt lat="46.134832" lon="8.468900"><ele>1308</ele></trkpt>
      <trkpt lat="46.133621" lon="8.471426"><ele>1343</ele></trkpt>
      <trkpt lat="46.133677" lon="8.473347"><ele>1374</ele></trkpt>
      <trkpt lat="46.133936" lon="8.475484"><ele>1403</ele></trkpt>
      <trkpt lat="46.132251" lon="8.480246"><ele>1429</ele></trkpt>
      <trkpt lat="46.129139" lon="8.483310"><ele>1453</ele></trkpt>
      <trkpt lat="46.126705" lon="8.485108"><ele>1475</ele></trkpt>
      <trkpt lat="46.123933" lon="8.490074"><ele>1497</ele></trkpt>
      <trkpt lat="46.122662" lon="8.493025"><ele>1519</ele></trkpt>
      <trkpt lat="46.119538" lon="8.496158"><ele>1543</ele></trkpt>
      <trkpt lat="46.117208" lon="8.502792"><ele>1569</ele></trkpt>
      <trkpt lat="46.116228" lon="8.507468"><ele>1598</ele></trkpt>
      <trkpt lat="46.114115" lon="8.513885"><ele>1629</ele></trkpt>
      <trkpt lat="46.113839" lon="8.515510"><ele>1662</ele></trkpt>
      <trkpt lat="46.114053" lon="8.519843"><ele>1696</ele></trkpt>
      <trkpt lat="46.112313" lon="8.524053"><ele>1731</ele></trkpt>
      <trkpt lat="46.110859" lon="8.530022"><ele>1765</ele></trkpt>
      <trkpt lat="46.108158" lon="8.533812"><ele>1797</ele></trkpt>
      <trkpt lat="46.106551" lon="8.536437"><ele>1826</ele></trkpt>
      <trkpt lat="46.103893" lon="8.541671"><ele>1851</ele></trkpt>
      <trkpt lat="46.101084" lon="8.544410"><ele>1873</ele></trkpt>
      <trkpt lat="46.101526" lon="8.547438"><ele>1892</ele></trkpt>
      <trkpt lat="46.098772" lon="8.550945"><ele>1907</ele></trkpt>
      <trkpt lat="46.098286" lon="8.555676"><ele>1920</ele></trkpt>
      <trkpt lat="46.096384" lon="8.559072"><ele>1931</ele></trkpt>
      <trkpt lat="46.094768" lon="8.562632"><ele>1942</ele></trkpt>
      <trkpt lat="46.095210" lon="8.565914"><ele>1953</ele></trkpt>
      <trkpt lat="46.094097" lon="8.571903"><ele>1966</ele></trkpt>
      <trkpt lat="46.091557" lon="8.576933"><ele>1981</ele></trkpt>
      <trkpt lat="46.090370" lon="8.580402"><ele>1998</ele></trkpt>
      <trkpt lat="46.089271" lon="8.584494"><ele>2016</ele></trkpt>
      <trkpt lat="46.089114" lon="8.590580"><ele>2035</ele></trkpt>
      <trkpt lat="46.088752" lon="8.593642"><ele>2054</ele></trkpt>
      <trkpt lat="46.089976" lon="8.596368"><ele>2072</ele></trkpt>
      <trkpt lat="46.088789" lon="8.600741"><ele>2088</ele></trkpt>
      <trkpt lat="46.088937" lon="8.603707"><ele>2100</ele></trkpt>
      <trkpt lat="46.089432" lon="8.607535"><ele>2109</ele></trkpt>
      <trkpt lat="46.087223" lon="8.613058"><ele>2114</ele></trkpt>
      <trkpt lat="46.085985" lon="8.618532"><ele>2114</ele></trkpt>
      <trkpt lat="46.085293" lon="8.623361"><ele>2111</ele></trkpt>
      <trkpt lat="46.082855" lon="8.628162"><ele>2105</ele></trkpt>
      <trkpt lat="46.081456" lon="8.631157"><ele>2097</ele></trkpt>
      <trkpt lat="46.079278" lon="8.635046"><ele>2088</ele></trkpt>
      <trkpt lat="46.077498" lon="8.638940"><ele>2079</ele></trkpt>
      <trkpt lat="46.077870" lon="8.643584"><ele>2072</ele></trkpt>
      <trkpt lat="46.077786" lon="8.648470"><ele>2066</ele></trkpt>
      <trkpt lat="46.075362" lon="8.653914"><ele>2061</ele></trkpt>
      <trkpt lat="46.075390" lon="8.657097"><ele>2059</ele></trkpt>
      <trkpt lat="46.074097" lon="8.662052"><ele>2057</ele></trkpt>
      <trkpt lat="46.074558" lon="8.665461"><ele>2055</ele></trkpt>
      <trkpt lat="46.074158" lon="8.668803"><ele>2053</ele></trkpt>
      <trkpt lat="46.072669" lon="8.671865"><ele>2048</ele></trkpt>
      <trkpt lat="46.071866" lon="8.675926"><ele>2041</ele></trkpt>
      <trkpt lat="46.069701" lon="8.679601"><ele>2029</ele></trkpt>
      <trkpt lat="46.069322" lon="8.682662"><ele>2014</ele></trkpt>
      <trkpt lat="46.068722" lon="8.686541"><ele>1995</ele></trkpt>
      <trkpt lat="46.069010" lon="8.689750"><ele>1972</ele></trkpt>
      <trkpt lat="46.068294" lon="8.694571"><ele>1947</ele></trkpt>
      <trkpt lat="46.066420" lon="8.699544"><ele>1920</ele></trkpt>
      <trkpt lat="46.066479" lon="8.704911"><ele>1891</ele></trkpt>
      <trkpt lat="46.064248" lon="8.708892"><ele>1864</ele></trkpt>
      <trkpt lat="46.062216" lon="8.713563"><ele>1837</ele></trkpt>
      <trkpt lat="46.061174" lon="8.718918"><ele>1812</ele></trkpt>
      <trkpt lat="46.060418" lon="8.722623"><ele>1790</ele></trkpt>
      <trkpt lat="46.059877" lon="8.727946"><ele>1769</ele></trkpt>
      <trkpt lat="46.058283" lon="8.731362"><ele>1751</ele></trkpt>
      <trkpt lat="46.057307" lon="8.735656"><ele>1733</ele></trkpt>
      <trkpt lat="46.056246" lon="8.741046"><ele>1714</ele></trkpt>
      <trkpt lat="46.056668" lon="8.743920"><ele>1695</ele></trkpt>
      <trkpt lat="46.055671" lon="8.747196"><ele>1673</ele></trkpt>
      <trkpt lat="46.054818" lon="8.751698"><ele>1649</ele></trkpt>
      <trkpt lat="46.054031" lon="8.756248"><ele>1621</ele></trkpt>
      <trkpt lat="46.054373" lon="8.760753"><ele>1589</ele></trkpt>
      <trkpt lat="46.054359" lon="8.764388"><ele>1555</ele></trkpt>
      <trkpt lat="46.053241" lon="8.769253"><ele>1519</ele></trkpt>
      <trkpt lat="46.053184" lon="8.774048"><ele>1481</ele></trkpt>
      <trkpt lat="46.051928" lon="8.777481"><ele>1443</ele></trkpt>
      <trkpt lat="46.050474" lon="8.782359"><ele>1405</ele></trkpt>
      <trkpt lat="46.049757" lon="8.786581"><ele>1370</ele></trkpt>
      <trkpt lat="46.048427" lon="8.790727"><ele>1337</ele></trkpt>
      <trkpt lat="46.047982" lon="8.794496"><ele>1307</ele></trkpt>
      <trkpt lat="46.048062" lon="8.799356"><ele>1280</ele></trkpt>
      <trkpt lat="46.048075" lon="8.803977"><ele>1256</ele></trkpt>
      <trkpt lat="46.047042" lon="8.808538"><ele>1233</ele></trkpt>
      <trkpt lat="46.045431" lon="8.811816"><ele>1211</ele></trkpt>
      <trkpt lat="46.043969" lon="8.816064"><ele>1189</ele></trkpt>
      <trkpt lat="46.043670" lon="8.819764"><ele>1166</ele></trkpt>
      <trkpt lat="46.042871" lon="8.824021"><ele>1141</ele></trkpt>
      <trkpt lat="46.041831" lon="8.828527"><ele>1113</ele></trkpt>
      <trkpt lat="46.041514" lon="8.833133"><ele>1083</ele></trkpt>
      <trkpt lat="46.041462" lon="8.836926"><ele>1051</ele></trkpt>
      <trkpt lat="46.041262" lon="8.840864"><ele>1017</ele></trkpt>
      <trkpt lat="46.040025" lon="8.844705"><ele>982</ele></trkpt>
      <trkpt lat="46.039588" lon="8.849262"><ele>948</ele></trkpt>
      <trkpt lat="46.038977" lon="8.853053"><ele>915</ele></trkpt>
      <trkpt lat="46.038113" lon="8.856859"><ele>885</ele></trkpt>
      <trkpt lat="46.037241" lon="8.860689"><ele>858</ele></trkpt>
      <trkpt lat="46.036685" lon="8.865014"><ele>834</ele></trkpt>
      <trkpt lat="46.035413" lon="8.869046"><ele>815</ele></trkpt>
      <trkpt lat="46.034635" lon="8.873035"><ele>799</ele></trkpt>
      <trkpt lat="46.033812" lon="8.876639"><ele>785</ele></trkpt>
      <trkpt lat="46.032737" lon="8.880362"><ele>773</ele></trkpt>
      <trkpt lat="46.032117" lon="8.884570"><ele>762</ele></trkpt>
      <trkpt lat="46.030990" lon="8.888756"><ele>751</ele></trkpt>
      <trkpt lat="46.030030" lon="8.892580"><ele>739</ele></trkpt>
      <trkpt lat="46.029320" lon="8.896960"><ele>725</ele></trkpt>
      <trkpt lat="46.028318" lon="8.900783"><ele>709</ele></trkpt>
      <trkpt lat="46.027597" lon="8.905028"><ele>691</ele></trkpt>
      <trkpt lat="46.026732" lon="8.909254"><ele>672</ele></trkpt>
      <trkpt lat="46.026140" lon="8.913283"><ele>653</ele></trkpt>
      <trkpt lat="46.025344" lon="8.917287"><ele>634</ele></trkpt>
      <trkpt lat="46.024536" lon="8.921351"><ele>618</ele></trkpt>
      <trkpt lat="46.023795" lon="8.925325"><ele>604</ele></trkpt>
      <trkpt lat="46.023204" lon="8.929489"><ele>594</ele></trkpt>
      <trkpt lat="46.022516" lon="8.933542"><ele>588</ele></trkpt>
      <trkpt lat="46.021937" lon="8.937673"><ele>586</ele></trkpt>
      <trkpt lat="46.021338" lon="8.941801"><ele>587</ele></trkpt>
      <trkpt lat="46.020680" lon="8.945925"><ele>593</ele></trkpt>
      <trkpt lat="46.020000" lon="8.950000"><ele>600</ele></trkpt>
    </trkseg>
  </trk>
</gpx>
