<?xml version="1.0" encoding="UTF-8"?>
<gpx version="1.1" creator="Bikepacking-Planer seed script" xmlns="http://www.topografix.com/GPX/1/1">
  <trk>
    <name>RAAM 2025 — solo</name>
    <trkseg>
      <trkpt lat="33.200000" lon="-117.380000"><ele>250</ele></trkpt>
      <trkpt lat="33.208332" lon="-117.356105"><ele>270</ele></trkpt>
      <trkpt lat="33.216675" lon="-117.332198"><ele>277</ele></trkpt>
      <trkpt lat="33.225048" lon="-117.308283"><ele>292</ele></trkpt>
      <trkpt lat="33.233411" lon="-117.284360"><ele>344</ele></trkpt>
      <trkpt lat="33.241700" lon="-117.260469"><ele>412</ele></trkpt>
      <trkpt lat="33.250113" lon="-117.236568"><ele>464</ele></trkpt>
      <trkpt lat="33.258414" lon="-117.212643"><ele>514</ele></trkpt>
      <trkpt lat="33.266776" lon="-117.188758"><ele>591</ele></trkpt>
      <trkpt lat="33.275143" lon="-117.164828"><ele>684</ele></trkpt>
      <trkpt lat="33.283516" lon="-117.140919"><ele>755</ele></trkpt>
      <trkpt lat="33.292008" lon="-117.117058"><ele>811</ele></trkpt>
      <trkpt lat="33.300324" lon="-117.093112"><ele>883</ele></trkpt>
      <trkpt lat="33.308697" lon="-117.069349"><ele>967</ele></trkpt>
      <trkpt lat="33.317224" lon="-117.045284"><ele>1026</ele></trkpt>
      <trkpt lat="33.325426" lon="-117.021558"><ele>1056</ele></trkpt>
      <trkpt lat="33.333899" lon="-116.997690"><ele>1092</ele></trkpt>
      <trkpt lat="33.342136" lon="-116.973956"><ele>1138</ele></trkpt>
      <trkpt lat="33.350462" lon="-116.950055"><ele>1159</ele></trkpt>
      <trkpt lat="33.358954" lon="-116.925937"><ele>1144</ele></trkpt>
      <trkpt lat="33.367180" lon="-116.902170"><ele>1127</ele></trkpt>
      <trkpt lat="33.375443" lon="-116.878371"><ele>1122</ele></trkpt>
      <trkpt lat="33.384063" lon="-116.854713"><ele>1097</ele></trkpt>
      <trkpt lat="33.392298" lon="-116.831072"><ele>1038</ele></trkpt>
      <trkpt lat="33.400623" lon="-116.807106"><ele>972</ele></trkpt>
      <trkpt lat="33.409174" lon="-116.783427"><ele>924</ele></trkpt>
      <trkpt lat="33.417528" lon="-116.759261"><ele>869</ele></trkpt>
      <trkpt lat="33.425770" lon="-116.735170"><ele>784</ele></trkpt>
      <trkpt lat="33.434459" lon="-116.711240"><ele>694</ele></trkpt>
      <trkpt lat="33.443007" lon="-116.687514"><ele>630</ele></trkpt>
      <trkpt lat="33.451073" lon="-116.663622"><ele>572</ele></trkpt>
      <trkpt lat="33.459131" lon="-116.639755"><ele>494</ele></trkpt>
      <trkpt lat="33.467503" lon="-116.616286"><ele>414</ele></trkpt>
      <trkpt lat="33.476191" lon="-116.592780"><ele>365</ele></trkpt>
      <trkpt lat="33.484241" lon="-116.568693"><ele>336</ele></trkpt>
      <trkpt lat="33.492770" lon="-116.544880"><ele>295</ele></trkpt>
      <trkpt lat="33.500980" lon="-116.520984"><ele>253</ele></trkpt>
      <trkpt lat="33.509140" lon="-116.497496"><ele>243</ele></trkpt>
      <trkpt lat="33.517975" lon="-116.474130"><ele>261</ele></trkpt>
      <trkpt lat="33.526299" lon="-116.450082"><ele>275</ele></trkpt>
      <trkpt lat="33.535170" lon="-116.426648"><ele>281</ele></trkpt>
      <trkpt lat="33.543384" lon="-116.403265"><ele>316</ele></trkpt>
      <trkpt lat="33.551984" lon="-116.379498"><ele>381</ele></trkpt>
      <trkpt lat="33.560005" lon="-116.355223"><ele>442</ele></trkpt>
      <trkpt lat="33.568084" lon="-116.331287"><ele>488</ele></trkpt>
      <trkpt lat="33.575930" lon="-116.308012"><ele>551</ele></trkpt>
      <trkpt lat="33.584346" lon="-116.284654"><ele>641</ele></trkpt>
      <trkpt lat="33.592271" lon="-116.261121"><ele>725</ele></trkpt>
      <trkpt lat="33.600917" lon="-116.236924"><ele>785</ele></trkpt>
      <trkpt lat="33.609566" lon="-116.212982"><ele>846</ele></trkpt>
      <trkpt lat="33.617540" lon="-116.189178"><ele>929</ele></trkpt>
      <trkpt lat="33.626226" lon="-116.165124"><ele>1003</ele></trkpt>
      <trkpt lat="33.634357" lon="-116.141757"><ele>1044</ele></trkpt>
      <trkpt lat="33.643252" lon="-116.118122"><ele>1073</ele></trkpt>
      <trkpt lat="33.652154" lon="-116.094107"><ele>1117</ele></trkpt>
      <trkpt lat="33.660258" lon="-116.070002"><ele>1154</ele></trkpt>
      <trkpt lat="33.668482" lon="-116.045762"><ele>1154</ele></trkpt>
      <trkpt lat="33.676925" lon="-116.022374"><ele>1133</ele></trkpt>
      <trkpt lat="33.684870" lon="-115.997895"><ele>1124</ele></trkpt>
      <trkpt lat="33.692874" lon="-115.973576"><ele>1113</ele></trkpt>
      <trkpt lat="33.701814" lon="-115.950059"><ele>1069</ele></trkpt>
      <trkpt lat="33.710633" lon="-115.925914"><ele>1001</ele></trkpt>
      <trkpt lat="33.718204" lon="-115.902435"><ele>945</ele></trkpt>
      <trkpt lat="33.726799" lon="-115.878452"><ele>898</ele></trkpt>
      <trkpt lat="33.734512" lon="-115.855326"><ele>827</ele></trkpt>
      <trkpt lat="33.743050" lon="-115.831200"><ele>734</ele></trkpt>
      <trkpt lat="33.751720" lon="-115.806561"><ele>657</ele></trkpt>
      <trkpt lat="33.760675" lon="-115.781879"><ele>601</ele></trkpt>
      <trkpt lat="33.769186" lon="-115.758629"><ele>533</ele></trkpt>
      <trkpt lat="33.776979" lon="-115.734269"><ele>449</ele></trkpt>
      <trkpt lat="33.785725" lon="-115.711151"><ele>383</ele></trkpt>
      <trkpt lat="33.794540" lon="-115.686983"><ele>349</ele></trkpt>
      <trkpt lat="33.802638" lon="-115.662878"><ele>316</ele></trkpt>
      <trkpt lat="33.810632" lon="-115.639820"><ele>271</ele></trkpt>
      <trkpt lat="33.819373" lon="-115.616030"><ele>242</ele></trkpt>
      <trkpt lat="33.827018" lon="-115.592187"><ele>251</ele></trkpt>
      <trkpt lat="33.835202" lon="-115.568048"><ele>271</ele></trkpt>
      <trkpt lat="33.843080" lon="-115.543710"><ele>277</ele></trkpt>
      <trkpt lat="33.851157" lon="-115.520530"><ele>295</ele></trkpt>
      <trkpt lat="33.859319" lon="-115.495871"><ele>348</ele></trkpt>
      <trkpt lat="33.868213" lon="-115.471111"><ele>416</ele></trkpt>
      <trkpt lat="33.877498" lon="-115.446559"><ele>467</ele></trkpt>
      <trkpt lat="33.885518" lon="-115.422503"><ele>518</ele></trkpt>
      <trkpt lat="33.894218" lon="-115.398748"><ele>597</ele></trkpt>
      <trkpt lat="33.902327" lon="-115.373917"><ele>689</ele></trkpt>
      <trkpt lat="33.910225" lon="-115.351014"><ele>759</ele></trkpt>
      <trkpt lat="33.919074" lon="-115.328034"><ele>815</ele></trkpt>
      <trkpt lat="33.928497" lon="-115.304251"><ele>888</ele></trkpt>
      <trkpt lat="33.937888" lon="-115.280420"><ele>972</ele></trkpt>
      <trkpt lat="33.945264" lon="-115.256035"><ele>1028</ele></trkpt>
      <trkpt lat="33.953621" lon="-115.232708"><ele>1058</ele></trkpt>
      <trkpt lat="33.961117" lon="-115.208431"><ele>1095</ele></trkpt>
      <trkpt lat="33.969213" lon="-115.185698"><ele>1140</ele></trkpt>
      <trkpt lat="33.978555" lon="-115.161526"><ele>1159</ele></trkpt>
      <trkpt lat="33.987496" lon="-115.137434"><ele>1143</ele></trkpt>
      <trkpt lat="33.996074" lon="-115.112553"><ele>1127</ele></trkpt>
      <trkpt lat="34.003904" lon="-115.088879"><ele>1121</ele></trkpt>
      <trkpt lat="34.012873" lon="-115.066100"><ele>1095</ele></trkpt>
      <trkpt lat="34.021610" lon="-115.041314"><ele>1033</ele></trkpt>
      <trkpt lat="34.030590" lon="-115.016371"><ele>969</ele></trkpt>
      <trkpt lat="34.037685" lon="-114.992973"><ele>921</ele></trkpt>
      <trkpt lat="34.045904" lon="-114.968072"><ele>864</ele></trkpt>
      <trkpt lat="34.053936" lon="-114.945431"><ele>778</ele></trkpt>
      <trkpt lat="34.062431" lon="-114.922425"><ele>689</ele></trkpt>
      <trkpt lat="34.071444" lon="-114.899763"><ele>626</ele></trkpt>
      <trkpt lat="34.080858" lon="-114.875462"><ele>568</ele></trkpt>
      <trkpt lat="34.089754" lon="-114.851146"><ele>489</ele></trkpt>
      <trkpt lat="34.098044" lon="-114.826390"><ele>410</ele></trkpt>
      <trkpt lat="34.105857" lon="-114.803438"><ele>363</ele></trkpt>
      <trkpt lat="34.113472" lon="-114.778670"><ele>334</ele></trkpt>
      <trkpt lat="34.121628" lon="-114.756221"><ele>292</ele></trkpt>
      <trkpt lat="34.130368" lon="-114.731990"><ele>251</ele></trkpt>
      <trkpt lat="34.139316" lon="-114.708298"><ele>243</ele></trkpt>
      <trkpt lat="34.147926" lon="-114.683171"><ele>263</ele></trkpt>
      <trkpt lat="34.157080" lon="-114.659377"><ele>275</ele></trkpt>
      <trkpt lat="34.165256" lon="-114.636927"><ele>282</ele></trkpt>
      <trkpt lat="34.174083" lon="-114.613111"><ele>319</ele></trkpt>
      <trkpt lat="34.183742" lon="-114.590683"><ele>385</ele></trkpt>
      <trkpt lat="34.191594" lon="-114.565623"><ele>445</ele></trkpt>
      <trkpt lat="34.199541" lon="-114.542753"><ele>491</ele></trkpt>
      <trkpt lat="34.208695" lon="-114.517516"><ele>556</ele></trkpt>
      <trkpt lat="34.216721" lon="-114.492271"><ele>647</ele></trkpt>
      <trkpt lat="34.223691" lon="-114.469479"><ele>730</ele></trkpt>
      <trkpt lat="34.230992" lon="-114.446582"><ele>788</ele></trkpt>
      <trkpt lat="34.239574" lon="-114.423573"><ele>851</ele></trkpt>
      <trkpt lat="34.248922" lon="-114.398749"><ele>934</ele></trkpt>
      <trkpt lat="34.258735" lon="-114.374999"><ele>1006</ele></trkpt>
      <trkpt lat="34.266605" lon="-114.351800"><ele>1045</ele></trkpt>
      <trkpt lat="34.275011" lon="-114.326941"><ele>1076</ele></trkpt>
      <trkpt lat="34.283826" lon="-114.303136"><ele>1120</ele></trkpt>
      <trkpt lat="34.292467" lon="-114.280214"><ele>1155</ele></trkpt>
      <trkpt lat="34.302305" lon="-114.257590"><ele>1153</ele></trkpt>
      <trkpt lat="34.310659" lon="-114.235291"><ele>1132</ele></trkpt>
      <trkpt lat="34.317693" lon="-114.212484"><ele>1124</ele></trkpt>
      <trkpt lat="34.325844" lon="-114.189128"><ele>1112</ele></trkpt>
      <trkpt lat="34.334568" lon="-114.166652"><ele>1065</ele></trkpt>
      <trkpt lat="34.342729" lon="-114.142230"><ele>997</ele></trkpt>
      <trkpt lat="34.352036" lon="-114.119733"><ele>942</ele></trkpt>
      <trkpt lat="34.358841" lon="-114.096403"><ele>895</ele></trkpt>
      <trkpt lat="34.365675" lon="-114.071507"><ele>821</ele></trkpt>
      <trkpt lat="34.374387" lon="-114.046789"><ele>729</ele></trkpt>
      <trkpt lat="34.382006" lon="-114.024494"><ele>653</ele></trkpt>
      <trkpt lat="34.388572" lon="-113.999875"><ele>597</ele></trkpt>
      <trkpt lat="34.398175" lon="-113.976279"><ele>528</ele></trkpt>
      <trkpt lat="34.407080" lon="-113.953533"><ele>444</ele></trkpt>
      <trkpt lat="34.415922" lon="-113.930534"><ele>380</ele></trkpt>
      <trkpt lat="34.424883" lon="-113.908407"><ele>347</ele></trkpt>
      <trkpt lat="34.432332" lon="-113.884960"><ele>314</ele></trkpt>
      <trkpt lat="34.441215" lon="-113.859389"><ele>268</ele></trkpt>
      <trkpt lat="34.449299" lon="-113.836828"><ele>242</ele></trkpt>
      <trkpt lat="34.458693" lon="-113.812192"><ele>253</ele></trkpt>
      <trkpt lat="34.468267" lon="-113.786943"><ele>271</ele></trkpt>
      <trkpt lat="34.477507" lon="-113.762660"><ele>277</ele></trkpt>
      <trkpt lat="34.487076" lon="-113.739701"><ele>297</ele></trkpt>
      <trkpt lat="34.496949" lon="-113.717620"><ele>353</ele></trkpt>
      <trkpt lat="34.506783" lon="-113.694065"><ele>420</ele></trkpt>
      <trkpt lat="34.516097" lon="-113.669672"><ele>470</ele></trkpt>
      <trkpt lat="34.524228" lon="-113.647216"><ele>522</ele></trkpt>
      <trkpt lat="34.532753" lon="-113.624901"><ele>603</ele></trkpt>
      <trkpt lat="34.541487" lon="-113.599744"><ele>694</ele></trkpt>
      <trkpt lat="34.549970" lon="-113.577009"><ele>763</ele></trkpt>
      <trkpt lat="34.560005" lon="-113.553572"><ele>819</ele></trkpt>
      <trkpt lat="34.567572" lon="-113.531611"><ele>894</ele></trkpt>
      <trkpt lat="34.574936" lon="-113.506779"><ele>976</ele></trkpt>
      <trkpt lat="34.581972" lon="-113.482421"><ele>1031</ele></trkpt>
      <trkpt lat="34.590053" lon="-113.457698"><ele>1060</ele></trkpt>
      <trkpt lat="34.598885" lon="-113.432203"><ele>1098</ele></trkpt>
      <trkpt lat="34.608821" lon="-113.407805"><ele>1143</ele></trkpt>
      <trkpt lat="34.619281" lon="-113.385816"><ele>1158</ele></trkpt>
      <trkpt lat="34.629265" lon="-113.364132"><ele>1142</ele></trkpt>
      <trkpt lat="34.637299" lon="-113.341844"><ele>1126</ele></trkpt>
      <trkpt lat="34.643820" lon="-113.317467"><ele>1120</ele></trkpt>
      <trkpt lat="34.651201" lon="-113.294792"><ele>1092</ele></trkpt>
      <trkpt lat="34.657562" lon="-113.270605"><ele>1029</ele></trkpt>
      <trkpt lat="34.666553" lon="-113.245926"><ele>965</ele></trkpt>
      <trkpt lat="34.674218" lon="-113.221936"><ele>918</ele></trkpt>
      <trkpt lat="34.684686" lon="-113.198708"><ele>860</ele></trkpt>
      <trkpt lat="34.692329" lon="-113.175015"><ele>772</ele></trkpt>
      <trkpt lat="34.700556" lon="-113.151381"><ele>685</ele></trkpt>
      <trkpt lat="34.709305" lon="-113.125993"><ele>623</ele></trkpt>
      <trkpt lat="34.715946" lon="-113.100799"><ele>564</ele></trkpt>
      <trkpt lat="34.725246" lon="-113.076357"><ele>484</ele></trkpt>
      <trkpt lat="34.733210" lon="-113.052581"><ele>406</ele></trkpt>
      <trkpt lat="34.743635" lon="-113.027212"><ele>361</ele></trkpt>
      <trkpt lat="34.749900" lon="-113.004783"><ele>332</ele></trkpt>
      <trkpt lat="34.760074" lon="-112.981397"><ele>290</ele></trkpt>
      <trkpt lat="34.767210" lon="-112.956695"><ele>249</ele></trkpt>
      <trkpt lat="34.777930" lon="-112.931855"><ele>244</ele></trkpt>
      <trkpt lat="34.786102" lon="-112.909231"><ele>264</ele></trkpt>
      <trkpt lat="34.796853" lon="-112.883435"><ele>275</ele></trkpt>
      <trkpt lat="34.805971" lon="-112.861594"><ele>284</ele></trkpt>
      <trkpt lat="34.812997" lon="-112.835961"><ele>323</ele></trkpt>
      <trkpt lat="34.820421" lon="-112.809820"><ele>389</ele></trkpt>
      <trkpt lat="34.828356" lon="-112.785532"><ele>448</ele></trkpt>
      <trkpt lat="34.838470" lon="-112.760959"><ele>495</ele></trkpt>
      <trkpt lat="34.848097" lon="-112.738810"><ele>561</ele></trkpt>
      <trkpt lat="34.856224" lon="-112.714310"><ele>653</ele></trkpt>
      <trkpt lat="34.866774" lon="-112.689334"><ele>734</ele></trkpt>
      <trkpt lat="34.876949" lon="-112.664465"><ele>792</ele></trkpt>
      <trkpt lat="34.885711" lon="-112.642257"><ele>856</ele></trkpt>
      <trkpt lat="34.892506" lon="-112.620566"><ele>939</ele></trkpt>
      <trkpt lat="34.900275" lon="-112.598685"><ele>1010</ele></trkpt>
      <trkpt lat="34.909356" lon="-112.573003"><ele>1047</ele></trkpt>
      <trkpt lat="34.919449" lon="-112.547861"><ele>1078</ele></trkpt>
      <trkpt lat="34.927863" lon="-112.522722"><ele>1123</ele></trkpt>
      <trkpt lat="34.935192" lon="-112.497856"><ele>1156</ele></trkpt>
      <trkpt lat="34.941525" lon="-112.473675"><ele>1152</ele></trkpt>
      <trkpt lat="34.950672" lon="-112.450236"><ele>1131</ele></trkpt>
      <trkpt lat="34.957852" lon="-112.427321"><ele>1124</ele></trkpt>
      <trkpt lat="34.964549" lon="-112.404057"><ele>1110</ele></trkpt>
      <trkpt lat="34.974807" lon="-112.382190"><ele>1061</ele></trkpt>
      <trkpt lat="34.981061" lon="-112.356442"><ele>993</ele></trkpt>
      <trkpt lat="34.987291" lon="-112.331730"><ele>939</ele></trkpt>
      <trkpt lat="34.997731" lon="-112.306195"><ele>891</ele></trkpt>
      <trkpt lat="35.007852" lon="-112.282855"><ele>816</ele></trkpt>
      <trkpt lat="35.016734" lon="-112.258461"><ele>723</ele></trkpt>
      <trkpt lat="35.023086" lon="-112.233880"><ele>649</ele></trkpt>
      <trkpt lat="35.031051" lon="-112.211346"><ele>593</ele></trkpt>
      <trkpt lat="35.040005" lon="-112.190119"><ele>523</ele></trkpt>
      <trkpt lat="35.048722" lon="-112.165723"><ele>439</ele></trkpt>
      <trkpt lat="35.057443" lon="-112.143195"><ele>378</ele></trkpt>
      <trkpt lat="35.068334" lon="-112.119241"><ele>346</ele></trkpt>
      <trkpt lat="35.077856" lon="-112.097757"><ele>311</ele></trkpt>
      <trkpt lat="35.085678" lon="-112.076589"><ele>265</ele></trkpt>
      <trkpt lat="35.091721" lon="-112.052544"><ele>241</ele></trkpt>
      <trkpt lat="35.098812" lon="-112.031446"><ele>254</ele></trkpt>
      <trkpt lat="35.107561" lon="-112.007466"><ele>272</ele></trkpt>
      <trkpt lat="35.117392" lon="-111.981065"><ele>278</ele></trkpt>
      <trkpt lat="35.128255" lon="-111.955386"><ele>299</ele></trkpt>
      <trkpt lat="35.136094" lon="-111.930195"><ele>357</ele></trkpt>
      <trkpt lat="35.143928" lon="-111.908734"><ele>423</ele></trkpt>
      <trkpt lat="35.150538" lon="-111.885696"><ele>472</ele></trkpt>
      <trkpt lat="35.156390" lon="-111.860501"><ele>526</ele></trkpt>
      <trkpt lat="35.165939" lon="-111.836731"><ele>609</ele></trkpt>
      <trkpt lat="35.176296" lon="-111.812320"><ele>699</ele></trkpt>
      <trkpt lat="35.187598" lon="-111.786421"><ele>766</ele></trkpt>
      <trkpt lat="35.197447" lon="-111.761794"><ele>823</ele></trkpt>
      <trkpt lat="35.203720" lon="-111.735179"><ele>899</ele></trkpt>
      <trkpt lat="35.211589" lon="-111.713232"><ele>981</ele></trkpt>
      <trkpt lat="35.220300" lon="-111.687729"><ele>1033</ele></trkpt>
      <trkpt lat="35.227934" lon="-111.658634"><ele>1062</ele></trkpt>
      <trkpt lat="35.238028" lon="-111.616168"><ele>1101</ele></trkpt>
      <trkpt lat="35.247438" lon="-111.570477"><ele>1145</ele></trkpt>
      <trkpt lat="35.256616" lon="-111.527624"><ele>1158</ele></trkpt>
      <trkpt lat="35.266359" lon="-111.483189"><ele>1140</ele></trkpt>
      <trkpt lat="35.273474" lon="-111.439383"><ele>1126</ele></trkpt>
      <trkpt lat="35.283453" lon="-111.392409"><ele>1120</ele></trkpt>
      <trkpt lat="35.293408" lon="-111.345018"><ele>1088</ele></trkpt>
      <trkpt lat="35.301974" lon="-111.302605"><ele>1025</ele></trkpt>
      <trkpt lat="35.309588" lon="-111.254939"><ele>962</ele></trkpt>
      <trkpt lat="35.318886" lon="-111.211806"><ele>915</ele></trkpt>
      <trkpt lat="35.328602" lon="-111.164645"><ele>855</ele></trkpt>
      <trkpt lat="35.334148" lon="-111.122023"><ele>766</ele></trkpt>
      <trkpt lat="35.339016" lon="-111.076221"><ele>680</ele></trkpt>
      <trkpt lat="35.345873" lon="-111.034088"><ele>619</ele></trkpt>
      <trkpt lat="35.353920" lon="-110.991885"><ele>559</ele></trkpt>
      <trkpt lat="35.360664" lon="-110.946095"><ele>478</ele></trkpt>
      <trkpt lat="35.370606" lon="-110.898917"><ele>402</ele></trkpt>
      <trkpt lat="35.381459" lon="-110.854419"><ele>359</ele></trkpt>
      <trkpt lat="35.391377" lon="-110.812519"><ele>330</ele></trkpt>
      <trkpt lat="35.399488" lon="-110.769336"><ele>287</ele></trkpt>
      <trkpt lat="35.409468" lon="-110.724523"><ele>248</ele></trkpt>
      <trkpt lat="35.418592" lon="-110.679324"><ele>245</ele></trkpt>
      <trkpt lat="35.426035" lon="-110.637056"><ele>265</ele></trkpt>
      <trkpt lat="35.436537" lon="-110.592995"><ele>276</ele></trkpt>
      <trkpt lat="35.444631" lon="-110.548721"><ele>285</ele></trkpt>
      <trkpt lat="35.451900" lon="-110.502840"><ele>326</ele></trkpt>
      <trkpt lat="35.459478" lon="-110.455749"><ele>394</ele></trkpt>
      <trkpt lat="35.468716" lon="-110.411132"><ele>451</ele></trkpt>
      <trkpt lat="35.479186" lon="-110.368045"><ele>498</ele></trkpt>
      <trkpt lat="35.489355" lon="-110.322394"><ele>566</ele></trkpt>
      <trkpt lat="35.494607" lon="-110.277035"><ele>659</ele></trkpt>
      <trkpt lat="35.502182" lon="-110.233364"><ele>738</ele></trkpt>
      <trkpt lat="35.509918" lon="-110.191724"><ele>795</ele></trkpt>
      <trkpt lat="35.517133" lon="-110.150323"><ele>860</ele></trkpt>
      <trkpt lat="35.526305" lon="-110.103488"><ele>944</ele></trkpt>
      <trkpt lat="35.536400" lon="-110.059825"><ele>1013</ele></trkpt>
      <trkpt lat="35.546508" lon="-110.017612"><ele>1049</ele></trkpt>
      <trkpt lat="35.555124" lon="-109.972261"><ele>1080</ele></trkpt>
      <trkpt lat="35.560257" lon="-109.924889"><ele>1126</ele></trkpt>
      <trkpt lat="35.567985" lon="-109.882877"><ele>1157</ele></trkpt>
      <trkpt lat="35.574668" lon="-109.841339"><ele>1150</ele></trkpt>
      <trkpt lat="35.583514" lon="-109.794441"><ele>1130</ele></trkpt>
      <trkpt lat="35.589710" lon="-109.748560"><ele>1123</ele></trkpt>
      <trkpt lat="35.597448" lon="-109.702698"><ele>1108</ele></trkpt>
      <trkpt lat="35.602908" lon="-109.659101"><ele>1057</ele></trkpt>
      <trkpt lat="35.610629" lon="-109.615372"><ele>989</ele></trkpt>
      <trkpt lat="35.617174" lon="-109.572676"><ele>937</ele></trkpt>
      <trkpt lat="35.627049" lon="-109.528723"><ele>887</ele></trkpt>
      <trkpt lat="35.636645" lon="-109.482406"><ele>810</ele></trkpt>
      <trkpt lat="35.647462" lon="-109.437844"><ele>718</ele></trkpt>
      <trkpt lat="35.657406" lon="-109.392816"><ele>645</ele></trkpt>
      <trkpt lat="35.664602" lon="-109.350127"><ele>590</ele></trkpt>
      <trkpt lat="35.672675" lon="-109.308373"><ele>518</ele></trkpt>
      <trkpt lat="35.680431" lon="-109.267138"><ele>434</ele></trkpt>
      <trkpt lat="35.686914" lon="-109.221806"><ele>375</ele></trkpt>
      <trkpt lat="35.693437" lon="-109.176271"><ele>344</ele></trkpt>
      <trkpt lat="35.703451" lon="-109.131634"><ele>308</ele></trkpt>
      <trkpt lat="35.714558" lon="-109.085498"><ele>263</ele></trkpt>
      <trkpt lat="35.721220" lon="-109.037369"><ele>241</ele></trkpt>
      <trkpt lat="35.728038" lon="-108.995084"><ele>255</ele></trkpt>
      <trkpt lat="35.733694" lon="-108.949687"><ele>273</ele></trkpt>
      <trkpt lat="35.744880" lon="-108.906057"><ele>278</ele></trkpt>
      <trkpt lat="35.753257" lon="-108.864267"><ele>302</ele></trkpt>
      <trkpt lat="35.763422" lon="-108.820069"><ele>361</ele></trkpt>
      <trkpt lat="35.769012" lon="-108.773694"><ele>427</ele></trkpt>
      <trkpt lat="35.774562" lon="-108.730680"><ele>475</ele></trkpt>
      <trkpt lat="35.781954" lon="-108.689406"><ele>530</ele></trkpt>
      <trkpt lat="35.792627" lon="-108.642958"><ele>615</ele></trkpt>
      <trkpt lat="35.797917" lon="-108.599818"><ele>704</ele></trkpt>
      <trkpt lat="35.805169" lon="-108.555165"><ele>770</ele></trkpt>
      <trkpt lat="35.815872" lon="-108.508646"><ele>827</ele></trkpt>
      <trkpt lat="35.826325" lon="-108.465640"><ele>904</ele></trkpt>
      <trkpt lat="35.834545" lon="-108.424199"><ele>985</ele></trkpt>
      <trkpt lat="35.842879" lon="-108.379571"><ele>1035</ele></trkpt>
      <trkpt lat="35.851822" lon="-108.336777"><ele>1064</ele></trkpt>
      <trkpt lat="35.857484" lon="-108.290040"><ele>1104</ele></trkpt>
      <trkpt lat="35.865696" lon="-108.243818"><ele>1147</ele></trkpt>
      <trkpt lat="35.871819" lon="-108.199908"><ele>1158</ele></trkpt>
      <trkpt lat="35.880553" lon="-108.153747"><ele>1139</ele></trkpt>
      <trkpt lat="35.888111" lon="-108.105693"><ele>1125</ele></trkpt>
      <trkpt lat="35.898688" lon="-108.062721"><ele>1119</ele></trkpt>
      <trkpt lat="35.906236" lon="-108.015399"><ele>1085</ele></trkpt>
      <trkpt lat="35.915802" lon="-107.968231"><ele>1020</ele></trkpt>
      <trkpt lat="35.926681" lon="-107.925575"><ele>959</ele></trkpt>
      <trkpt lat="35.938235" lon="-107.879466"><ele>912</ele></trkpt>
      <trkpt lat="35.947696" lon="-107.835387"><ele>850</ele></trkpt>
      <trkpt lat="35.951822" lon="-107.792936"><ele>760</ele></trkpt>
      <trkpt lat="35.956086" lon="-107.750288"><ele>676</ele></trkpt>
      <trkpt lat="35.965367" lon="-107.705839"><ele>616</ele></trkpt>
      <trkpt lat="35.972230" lon="-107.661106"><ele>555</ele></trkpt>
      <trkpt lat="35.983871" lon="-107.615287"><ele>473</ele></trkpt>
      <trkpt lat="35.994477" lon="-107.568606"><ele>398</ele></trkpt>
      <trkpt lat="36.004794" lon="-107.525005"><ele>357</ele></trkpt>
      <trkpt lat="36.012856" lon="-107.477180"><ele>327</ele></trkpt>
      <trkpt lat="36.020788" lon="-107.430678"><ele>284</ele></trkpt>
      <trkpt lat="36.025512" lon="-107.387201"><ele>246</ele></trkpt>
      <trkpt lat="36.033239" lon="-107.345638"><ele>246</ele></trkpt>
      <trkpt lat="36.043314" lon="-107.298048"><ele>266</ele></trkpt>
      <trkpt lat="36.052208" lon="-107.254930"><ele>276</ele></trkpt>
      <trkpt lat="36.063925" lon="-107.211578"><ele>286</ele></trkpt>
      <trkpt lat="36.071417" lon="-107.169008"><ele>330</ele></trkpt>
      <trkpt lat="36.082161" lon="-107.122344"><ele>398</ele></trkpt>
      <trkpt lat="36.086993" lon="-107.081300"><ele>454</ele></trkpt>
      <trkpt lat="36.092283" lon="-107.035970"><ele>501</ele></trkpt>
      <trkpt lat="36.103608" lon="-106.987414"><ele>572</ele></trkpt>
      <trkpt lat="36.115353" lon="-106.945089"><ele>664</ele></trkpt>
      <trkpt lat="36.127133" lon="-106.903006"><ele>742</ele></trkpt>
      <trkpt lat="36.131916" lon="-106.856639"><ele>799</ele></trkpt>
      <trkpt lat="36.141206" lon="-106.813948"><ele>865</ele></trkpt>
      <trkpt lat="36.145912" lon="-106.765768"><ele>950</ele></trkpt>
      <trkpt lat="36.154789" lon="-106.723708"><ele>1016</ele></trkpt>
      <trkpt lat="36.163056" lon="-106.676086"><ele>1050</ele></trkpt>
      <trkpt lat="36.169242" lon="-106.631550"><ele>1083</ele></trkpt>
      <trkpt lat="36.180136" lon="-106.590004"><ele>1129</ele></trkpt>
      <trkpt lat="36.191456" lon="-106.545119"><ele>1158</ele></trkpt>
      <trkpt lat="36.200764" lon="-106.503629"><ele>1149</ele></trkpt>
      <trkpt lat="36.212586" lon="-106.455987"><ele>1130</ele></trkpt>
      <trkpt lat="36.221240" lon="-106.414329"><ele>1123</ele></trkpt>
      <trkpt lat="36.225200" lon="-106.368836"><ele>1106</ele></trkpt>
      <trkpt lat="36.229886" lon="-106.325813"><ele>1053</ele></trkpt>
      <trkpt lat="36.238594" lon="-106.281889"><ele>985</ele></trkpt>
      <trkpt lat="36.248523" lon="-106.239897"><ele>934</ele></trkpt>
      <trkpt lat="36.253041" lon="-106.194888"><ele>883</ele></trkpt>
      <trkpt lat="36.262408" lon="-106.149057"><ele>804</ele></trkpt>
      <trkpt lat="36.273356" lon="-106.107638"><ele>712</ele></trkpt>
      <trkpt lat="36.281646" lon="-106.065535"><ele>642</ele></trkpt>
      <trkpt lat="36.291079" lon="-106.022983"><ele>586</ele></trkpt>
      <trkpt lat="36.295837" lon="-105.976673"><ele>513</ele></trkpt>
      <trkpt lat="36.300577" lon="-105.934349"><ele>430</ele></trkpt>
      <trkpt lat="36.305615" lon="-105.889952"><ele>372</ele></trkpt>
      <trkpt lat="36.311247" lon="-105.846255"><ele>342</ele></trkpt>
      <trkpt lat="36.318381" lon="-105.805708"><ele>306</ele></trkpt>
      <trkpt lat="36.323320" lon="-105.760328"><ele>260</ele></trkpt>
      <trkpt lat="36.333678" lon="-105.713204"><ele>241</ele></trkpt>
      <trkpt lat="36.344376" lon="-105.668341"><ele>257</ele></trkpt>
      <trkpt lat="36.348825" lon="-105.625938"><ele>273</ele></trkpt>
      <trkpt lat="36.357080" lon="-105.585395"><ele>279</ele></trkpt>
      <trkpt lat="36.366391" lon="-105.543636"><ele>305</ele></trkpt>
      <trkpt lat="36.374650" lon="-105.500972"><ele>366</ele></trkpt>
      <trkpt lat="36.380617" lon="-105.452609"><ele>430</ele></trkpt>
      <trkpt lat="36.386319" lon="-105.406661"><ele>478</ele></trkpt>
      <trkpt lat="36.395312" lon="-105.357957"><ele>535</ele></trkpt>
      <trkpt lat="36.405194" lon="-105.313658"><ele>621</ele></trkpt>
      <trkpt lat="36.413412" lon="-105.265677"><ele>709</ele></trkpt>
      <trkpt lat="36.420303" lon="-105.220147"><ele>773</ele></trkpt>
      <trkpt lat="36.430243" lon="-105.179593"><ele>831</ele></trkpt>
      <trkpt lat="36.442098" lon="-105.134893"><ele>910</ele></trkpt>
      <trkpt lat="36.450937" lon="-105.087081"><ele>989</ele></trkpt>
      <trkpt lat="36.459193" lon="-105.043430"><ele>1037</ele></trkpt>
      <trkpt lat="36.467921" lon="-104.997255"><ele>1066</ele></trkpt>
      <trkpt lat="36.471967" lon="-104.950945"><ele>1107</ele></trkpt>
      <trkpt lat="36.482767" lon="-104.909392"><ele>1149</ele></trkpt>
      <trkpt lat="36.488300" lon="-104.863835"><ele>1157</ele></trkpt>
      <trkpt lat="36.496012" lon="-104.823187"><ele>1138</ele></trkpt>
      <trkpt lat="36.503698" lon="-104.777645"><ele>1125</ele></trkpt>
      <trkpt lat="36.511766" lon="-104.733810"><ele>1118</ele></trkpt>
      <trkpt lat="36.521269" lon="-104.687775"><ele>1082</ele></trkpt>
      <trkpt lat="36.527593" lon="-104.644828"><ele>1016</ele></trkpt>
      <trkpt lat="36.532444" lon="-104.599435"><ele>956</ele></trkpt>
      <trkpt lat="36.536070" lon="-104.555697"><ele>909</ele></trkpt>
      <trkpt lat="36.540280" lon="-104.511386"><ele>845</ele></trkpt>
      <trkpt lat="36.547904" lon="-104.462845"><ele>754</ele></trkpt>
      <trkpt lat="36.555047" lon="-104.420024"><ele>671</ele></trkpt>
      <trkpt lat="36.564231" lon="-104.371550"><ele>613</ele></trkpt>
      <trkpt lat="36.575407" lon="-104.328993"><ele>550</ele></trkpt>
      <trkpt lat="36.581592" lon="-104.285985"><ele>467</ele></trkpt>
      <trkpt lat="36.588854" lon="-104.243450"><ele>395</ele></trkpt>
      <trkpt lat="36.596996" lon="-104.197411"><ele>355</ele></trkpt>
      <trkpt lat="36.606363" lon="-104.152535"><ele>325</ele></trkpt>
      <trkpt lat="36.615159" lon="-104.105047"><ele>281</ele></trkpt>
      <trkpt lat="36.625761" lon="-104.059589"><ele>245</ele></trkpt>
      <trkpt lat="36.629448" lon="-104.017560"><ele>247</ele></trkpt>
      <trkpt lat="36.634676" lon="-103.969505"><ele>267</ele></trkpt>
      <trkpt lat="36.644962" lon="-103.922512"><ele>276</ele></trkpt>
      <trkpt lat="36.653905" lon="-103.876424"><ele>288</ele></trkpt>
      <trkpt lat="36.658855" lon="-103.835848"><ele>334</ele></trkpt>
      <trkpt lat="36.669117" lon="-103.794537"><ele>402</ele></trkpt>
      <trkpt lat="36.680285" lon="-103.748964"><ele>457</ele></trkpt>
      <trkpt lat="36.689653" lon="-103.700761"><ele>505</ele></trkpt>
      <trkpt lat="36.700647" lon="-103.653198"><ele>577</ele></trkpt>
      <trkpt lat="36.712356" lon="-103.610803"><ele>670</ele></trkpt>
      <trkpt lat="36.719741" lon="-103.562707"><ele>746</ele></trkpt>
      <trkpt lat="36.723996" lon="-103.516812"><ele>802</ele></trkpt>
      <trkpt lat="36.734403" lon="-103.473699"><ele>870</ele></trkpt>
      <trkpt lat="36.742191" lon="-103.428043"><ele>955</ele></trkpt>
      <trkpt lat="36.747198" lon="-103.381735"><ele>1019</ele></trkpt>
      <trkpt lat="36.753305" lon="-103.341354"><ele>1052</ele></trkpt>
      <trkpt lat="36.759658" lon="-103.293072"><ele>1085</ele></trkpt>
      <trkpt lat="36.770642" lon="-103.251899"><ele>1131</ele></trkpt>
      <trkpt lat="36.777324" lon="-103.206119"><ele>1158</ele></trkpt>
      <trkpt lat="36.782319" lon="-103.157076"><ele>1148</ele></trkpt>
      <trkpt lat="36.786784" lon="-103.111906"><ele>1129</ele></trkpt>
      <trkpt lat="36.795610" lon="-103.067788"><ele>1123</ele></trkpt>
      <trkpt lat="36.800522" lon="-103.023463"><ele>1104</ele></trkpt>
      <trkpt lat="36.809690" lon="-102.980944"><ele>1048</ele></trkpt>
      <trkpt lat="36.817398" lon="-102.935854"><ele>981</ele></trkpt>
      <trkpt lat="36.825692" lon="-102.892257"><ele>931</ele></trkpt>
      <trkpt lat="36.835673" lon="-102.850107"><ele>879</ele></trkpt>
      <trkpt lat="36.843393" lon="-102.805307"><ele>799</ele></trkpt>
      <trkpt lat="36.852807" lon="-102.760056"><ele>707</ele></trkpt>
      <trkpt lat="36.864043" lon="-102.717975"><ele>638</ele></trkpt>
      <trkpt lat="36.867699" lon="-102.669525"><ele>582</ele></trkpt>
      <trkpt lat="36.875960" lon="-102.625195"><ele>508</ele></trkpt>
      <trkpt lat="36.887878" lon="-102.580870"><ele>425</ele></trkpt>
      <trkpt lat="36.898175" lon="-102.539500"><ele>370</ele></trkpt>
      <trkpt lat="36.907657" lon="-102.492270"><ele>340</ele></trkpt>
      <trkpt lat="36.912642" lon="-102.451085"><ele>303</ele></trkpt>
      <trkpt lat="36.919785" lon="-102.405858"><ele>258</ele></trkpt>
      <trkpt lat="36.925914" lon="-102.358661"><ele>242</ele></trkpt>
      <trkpt lat="36.932110" lon="-102.317288"><ele>258</ele></trkpt>
      <trkpt lat="36.936226" lon="-102.276522"><ele>274</ele></trkpt>
      <trkpt lat="36.946661" lon="-102.231827"><ele>279</ele></trkpt>
      <trkpt lat="36.956062" lon="-102.185073"><ele>308</ele></trkpt>
      <trkpt lat="36.960181" lon="-102.137644"><ele>370</ele></trkpt>
      <trkpt lat="36.966822" lon="-102.089821"><ele>434</ele></trkpt>
      <trkpt lat="36.976744" lon="-102.043434"><ele>481</ele></trkpt>
      <trkpt lat="36.985260" lon="-102.001369"><ele>539</ele></trkpt>
      <trkpt lat="36.995203" lon="-101.952458"><ele>626</ele></trkpt>
      <trkpt lat="37.007208" lon="-101.910223"><ele>714</ele></trkpt>
      <trkpt lat="37.013304" lon="-101.868037"><ele>776</ele></trkpt>
      <trkpt lat="37.018165" lon="-101.820692"><ele>835</ele></trkpt>
      <trkpt lat="37.025765" lon="-101.773514"><ele>915</ele></trkpt>
      <trkpt lat="37.031936" lon="-101.725030"><ele>993</ele></trkpt>
      <trkpt lat="37.035743" lon="-101.679731"><ele>1039</ele></trkpt>
      <trkpt lat="37.040687" lon="-101.639650"><ele>1068</ele></trkpt>
      <trkpt lat="37.052723" lon="-101.595826"><ele>1110</ele></trkpt>
      <trkpt lat="37.061518" lon="-101.548270"><ele>1150</ele></trkpt>
      <trkpt lat="37.073294" lon="-101.503666"><ele>1156</ele></trkpt>
      <trkpt lat="37.079226" lon="-101.460414"><ele>1136</ele></trkpt>
      <trkpt lat="37.088641" lon="-101.413707"><ele>1125</ele></trkpt>
      <trkpt lat="37.099778" lon="-101.365939"><ele>1117</ele></trkpt>
      <trkpt lat="37.111619" lon="-101.317547"><ele>1078</ele></trkpt>
      <trkpt lat="37.123633" lon="-101.277524"><ele>1012</ele></trkpt>
      <trkpt lat="37.131237" lon="-101.233891"><ele>953</ele></trkpt>
      <trkpt lat="37.141461" lon="-101.189743"><ele>906</ele></trkpt>
      <trkpt lat="37.152610" lon="-101.140753"><ele>840</ele></trkpt>
      <trkpt lat="37.159424" lon="-101.092485"><ele>749</ele></trkpt>
      <trkpt lat="37.169567" lon="-101.045236"><ele>667</ele></trkpt>
      <trkpt lat="37.178330" lon="-101.001155"><ele>609</ele></trkpt>
      <trkpt lat="37.185949" lon="-100.952014"><ele>546</ele></trkpt>
      <trkpt lat="37.189057" lon="-100.906954"><ele>462</ele></trkpt>
      <trkpt lat="37.194774" lon="-100.865532"><ele>391</ele></trkpt>
      <trkpt lat="37.202102" lon="-100.819235"><ele>353</ele></trkpt>
      <trkpt lat="37.204343" lon="-100.772709"><ele>323</ele></trkpt>
      <trkpt lat="37.211267" lon="-100.729596"><ele>278</ele></trkpt>
      <trkpt lat="37.220547" lon="-100.682791"><ele>244</ele></trkpt>
      <trkpt lat="37.225770" lon="-100.633755"><ele>248</ele></trkpt>
      <trkpt lat="37.234409" lon="-100.591175"><ele>268</ele></trkpt>
      <trkpt lat="37.244881" lon="-100.546687"><ele>276</ele></trkpt>
      <trkpt lat="37.249004" lon="-100.497835"><ele>290</ele></trkpt>
      <trkpt lat="37.251173" lon="-100.448970"><ele>338</ele></trkpt>
      <trkpt lat="37.261794" lon="-100.401860"><ele>406</ele></trkpt>
      <trkpt lat="37.271098" lon="-100.359490"><ele>460</ele></trkpt>
      <trkpt lat="37.279332" lon="-100.313829"><ele>508</ele></trkpt>
      <trkpt lat="37.284578" lon="-100.273274"><ele>583</ele></trkpt>
      <trkpt lat="37.293173" lon="-100.232834"><ele>676</ele></trkpt>
      <trkpt lat="37.300530" lon="-100.190249"><ele>750</ele></trkpt>
      <trkpt lat="37.309346" lon="-100.146168"><ele>806</ele></trkpt>
      <trkpt lat="37.313414" lon="-100.099869"><ele>875</ele></trkpt>
      <trkpt lat="37.317355" lon="-100.053361"><ele>960</ele></trkpt>
      <trkpt lat="37.324226" lon="-100.005800"><ele>1022</ele></trkpt>
      <trkpt lat="37.335240" lon="-99.963876"><ele>1054</ele></trkpt>
      <trkpt lat="37.343089" lon="-99.914587"><ele>1088</ele></trkpt>
      <trkpt lat="37.354196" lon="-99.866620"><ele>1134</ele></trkpt>
      <trkpt lat="37.365106" lon="-99.826154"><ele>1158</ele></trkpt>
      <trkpt lat="37.373251" lon="-99.781857"><ele>1146</ele></trkpt>
      <trkpt lat="37.381718" lon="-99.738681"><ele>1128</ele></trkpt>
      <trkpt lat="37.391465" lon="-99.697370"><ele>1122</ele></trkpt>
      <trkpt lat="37.400914" lon="-99.649807"><ele>1101</ele></trkpt>
      <trkpt lat="37.408785" lon="-99.602908"><ele>1044</ele></trkpt>
      <trkpt lat="37.413101" lon="-99.558753"><ele>978</ele></trkpt>
      <trkpt lat="37.424246" lon="-99.518730"><ele>928</ele></trkpt>
      <trkpt lat="37.431594" lon="-99.472469"><ele>875</ele></trkpt>
      <trkpt lat="37.439892" lon="-99.428488"><ele>793</ele></trkpt>
      <trkpt lat="37.448044" lon="-99.383274"><ele>702</ele></trkpt>
      <trkpt lat="37.454775" lon="-99.339164"><ele>635</ele></trkpt>
      <trkpt lat="37.461708" lon="-99.291067"><ele>578</ele></trkpt>
      <trkpt lat="37.472631" lon="-99.249123"><ele>502</ele></trkpt>
      <trkpt lat="37.481778" lon="-99.200555"><ele>420</ele></trkpt>
      <trkpt lat="37.483783" lon="-99.156448"><ele>368</ele></trkpt>
      <trkpt lat="37.486931" lon="-99.109869"><ele>339</ele></trkpt>
      <trkpt lat="37.489479" lon="-99.060630"><ele>300</ele></trkpt>
      <trkpt lat="37.495552" lon="-99.020267"><ele>256</ele></trkpt>
      <trkpt lat="37.505454" lon="-98.979848"><ele>242</ele></trkpt>
      <trkpt lat="37.516624" lon="-98.936489"><ele>259</ele></trkpt>
      <trkpt lat="37.520469" lon="-98.894286"><ele>274</ele></trkpt>
      <trkpt lat="37.525266" lon="-98.850074"><ele>280</ele></trkpt>
      <trkpt lat="37.528208" lon="-98.801225"><ele>311</ele></trkpt>
      <trkpt lat="37.537172" lon="-98.755339"><ele>374</ele></trkpt>
      <trkpt lat="37.545647" lon="-98.711125"><ele>437</ele></trkpt>
      <trkpt lat="37.554498" lon="-98.662960"><ele>484</ele></trkpt>
      <trkpt lat="37.565035" lon="-98.620171"><ele>544</ele></trkpt>
      <trkpt lat="37.575294" lon="-98.574240"><ele>632</ele></trkpt>
      <trkpt lat="37.583636" lon="-98.530459"><ele>719</ele></trkpt>
      <trkpt lat="37.586862" lon="-98.480869"><ele>780</ele></trkpt>
      <trkpt lat="37.595434" lon="-98.432693"><ele>840</ele></trkpt>
      <trkpt lat="37.598738" lon="-98.384863"><ele>921</ele></trkpt>
      <trkpt lat="37.606092" lon="-98.339254"><ele>997</ele></trkpt>
      <trkpt lat="37.616212" lon="-98.297189"><ele>1041</ele></trkpt>
      <trkpt lat="37.619638" lon="-98.249633"><ele>1070</ele></trkpt>
      <trkpt lat="37.630316" lon="-98.201415"><ele>1113</ele></trkpt>
      <trkpt lat="37.634240" lon="-98.152754"><ele>1152</ele></trkpt>
      <trkpt lat="37.644192" lon="-98.110526"><ele>1155</ele></trkpt>
      <trkpt lat="37.650422" lon="-98.063558"><ele>1135</ele></trkpt>
      <trkpt lat="37.654708" lon="-98.017656"><ele>1124</ele></trkpt>
      <trkpt lat="37.665640" lon="-97.968266"><ele>1115</ele></trkpt>
      <trkpt lat="37.668956" lon="-97.920057"><ele>1075</ele></trkpt>
      <trkpt lat="37.673906" lon="-97.879978"><ele>1007</ele></trkpt>
      <trkpt lat="37.684902" lon="-97.837471"><ele>950</ele></trkpt>
      <trkpt lat="37.689569" lon="-97.796825"><ele>903</ele></trkpt>
      <trkpt lat="37.696782" lon="-97.748961"><ele>835</ele></trkpt>
      <trkpt lat="37.700642" lon="-97.701941"><ele>743</ele></trkpt>
      <trkpt lat="37.704604" lon="-97.658182"><ele>663</ele></trkpt>
      <trkpt lat="37.715053" lon="-97.612209"><ele>606</ele></trkpt>
      <trkpt lat="37.719725" lon="-97.564603"><ele>541</ele></trkpt>
      <trkpt lat="37.721581" lon="-97.524664"><ele>457</ele></trkpt>
      <trkpt lat="37.726423" lon="-97.483144"><ele>388</ele></trkpt>
      <trkpt lat="37.734576" lon="-97.442710"><ele>352</ele></trkpt>
      <trkpt lat="37.741029" lon="-97.400333"><ele>320</ele></trkpt>
      <trkpt lat="37.749566" lon="-97.357718"><ele>275</ele></trkpt>
      <trkpt lat="37.760387" lon="-97.311670"><ele>243</ele></trkpt>
      <trkpt lat="37.764722" lon="-97.265997"><ele>249</ele></trkpt>
      <trkpt lat="37.771565" lon="-97.220188"><ele>269</ele></trkpt>
      <trkpt lat="37.780289" lon="-97.172917"><ele>277</ele></trkpt>
      <trkpt lat="37.784188" lon="-97.123506"><ele>291</ele></trkpt>
      <trkpt lat="37.787546" lon="-97.081572"><ele>342</ele></trkpt>
      <trkpt lat="37.789558" lon="-97.040144"><ele>410</ele></trkpt>
      <trkpt lat="37.794189" lon="-96.994148"><ele>463</ele></trkpt>
      <trkpt lat="37.797437" lon="-96.945086"><ele>512</ele></trkpt>
      <trkpt lat="37.803842" lon="-96.900421"><ele>588</ele></trkpt>
      <trkpt lat="37.805517" lon="-96.856495"><ele>681</ele></trkpt>
      <trkpt lat="37.812068" lon="-96.808398"><ele>754</ele></trkpt>
      <trkpt lat="37.823317" lon="-96.766097"><ele>809</ele></trkpt>
      <trkpt lat="37.831910" lon="-96.718602"><ele>881</ele></trkpt>
      <trkpt lat="37.835886" lon="-96.676971"><ele>964</ele></trkpt>
      <trkpt lat="37.837518" lon="-96.633760"><ele>1024</ele></trkpt>
      <trkpt lat="37.839786" lon="-96.592505"><ele>1056</ele></trkpt>
      <trkpt lat="37.843969" lon="-96.552096"><ele>1091</ele></trkpt>
      <trkpt lat="37.847302" lon="-96.502943"><ele>1137</ele></trkpt>
      <trkpt lat="37.857824" lon="-96.463132"><ele>1159</ele></trkpt>
      <trkpt lat="37.862272" lon="-96.414525"><ele>1145</ele></trkpt>
      <trkpt lat="37.872228" lon="-96.370884"><ele>1127</ele></trkpt>
      <trkpt lat="37.883687" lon="-96.329892"><ele>1122</ele></trkpt>
      <trkpt lat="37.886193" lon="-96.280384"><ele>1099</ele></trkpt>
      <trkpt lat="37.891231" lon="-96.236547"><ele>1040</ele></trkpt>
      <trkpt lat="37.898024" lon="-96.189220"><ele>974</ele></trkpt>
      <trkpt lat="37.899604" lon="-96.143754"><ele>925</ele></trkpt>
      <trkpt lat="37.907976" lon="-96.096822"><ele>871</ele></trkpt>
      <trkpt lat="37.916455" lon="-96.056776"><ele>787</ele></trkpt>
      <trkpt lat="37.925671" lon="-96.010163"><ele>697</ele></trkpt>
      <trkpt lat="37.931309" lon="-95.960614"><ele>631</ele></trkpt>
      <trkpt lat="37.933069" lon="-95.915476"><ele>574</ele></trkpt>
      <trkpt lat="37.940869" lon="-95.873925"><ele>497</ele></trkpt>
      <trkpt lat="37.944072" lon="-95.831462"><ele>416</ele></trkpt>
      <trkpt lat="37.948854" lon="-95.787326"><ele>366</ele></trkpt>
      <trkpt lat="37.957245" lon="-95.740539"><ele>337</ele></trkpt>
      <trkpt lat="37.966317" lon="-95.698534"><ele>297</ele></trkpt>
      <trkpt lat="37.968350" lon="-95.650437"><ele>254</ele></trkpt>
      <trkpt lat="37.971209" lon="-95.610424"><ele>242</ele></trkpt>
      <trkpt lat="37.974754" lon="-95.569563"><ele>261</ele></trkpt>
      <trkpt lat="37.983773" lon="-95.526394"><ele>275</ele></trkpt>
      <trkpt lat="37.994081" lon="-95.485356"><ele>281</ele></trkpt>
      <trkpt lat="37.997166" lon="-95.440913"><ele>314</ele></trkpt>
      <trkpt lat="38.004778" lon="-95.395881"><ele>379</ele></trkpt>
      <trkpt lat="38.010512" lon="-95.351581"><ele>440</ele></trkpt>
      <trkpt lat="38.016584" lon="-95.310794"><ele>487</ele></trkpt>
      <trkpt lat="38.024411" lon="-95.262421"><ele>549</ele></trkpt>
      <trkpt lat="38.034204" lon="-95.218778"><ele>638</ele></trkpt>
      <trkpt lat="38.036731" lon="-95.176602"><ele>723</ele></trkpt>
      <trkpt lat="38.047801" lon="-95.134475"><ele>783</ele></trkpt>
      <trkpt lat="38.059319" lon="-95.090213"><ele>844</ele></trkpt>
      <trkpt lat="38.069226" lon="-95.048882"><ele>926</ele></trkpt>
      <trkpt lat="38.074124" lon="-95.007140"><ele>1001</ele></trkpt>
      <trkpt lat="38.083249" lon="-94.963103"><ele>1043</ele></trkpt>
      <trkpt lat="38.089942" lon="-94.918559"><ele>1072</ele></trkpt>
      <trkpt lat="38.098288" lon="-94.876307"><ele>1116</ele></trkpt>
      <trkpt lat="38.108920" lon="-94.828939"><ele>1153</ele></trkpt>
      <trkpt lat="38.111569" lon="-94.784678"><ele>1154</ele></trkpt>
      <trkpt lat="38.114711" lon="-94.743972"><ele>1134</ele></trkpt>
      <trkpt lat="38.118843" lon="-94.699017"><ele>1124</ele></trkpt>
      <trkpt lat="38.121893" lon="-94.654243"><ele>1114</ele></trkpt>
      <trkpt lat="38.129136" lon="-94.604783"><ele>1071</ele></trkpt>
      <trkpt lat="38.139320" lon="-94.561803"><ele>1003</ele></trkpt>
      <trkpt lat="38.150399" lon="-94.518923"><ele>947</ele></trkpt>
      <trkpt lat="38.157678" lon="-94.475418"><ele>900</ele></trkpt>
      <trkpt lat="38.162182" lon="-94.434345"><ele>830</ele></trkpt>
      <trkpt lat="38.164330" lon="-94.393622"><ele>737</ele></trkpt>
      <trkpt lat="38.166551" lon="-94.353175"><ele>659</ele></trkpt>
      <trkpt lat="38.176376" lon="-94.313054"><ele>602</ele></trkpt>
      <trkpt lat="38.179230" lon="-94.266448"><ele>536</ele></trkpt>
      <trkpt lat="38.185988" lon="-94.223148"><ele>452</ele></trkpt>
      <trkpt lat="38.188054" lon="-94.178366"><ele>385</ele></trkpt>
      <trkpt lat="38.199162" lon="-94.136461"><ele>350</ele></trkpt>
      <trkpt lat="38.205703" lon="-94.089595"><ele>318</ele></trkpt>
      <trkpt lat="38.212682" lon="-94.047843"><ele>272</ele></trkpt>
      <trkpt lat="38.219992" lon="-94.004674"><ele>243</ele></trkpt>
      <trkpt lat="38.231191" lon="-93.963327"><ele>251</ele></trkpt>
      <trkpt lat="38.234054" lon="-93.914834"><ele>270</ele></trkpt>
      <trkpt lat="38.239723" lon="-93.873909"><ele>277</ele></trkpt>
      <trkpt lat="38.245275" lon="-93.828016"><ele>294</ele></trkpt>
      <trkpt lat="38.253957" lon="-93.786934"><ele>346</ele></trkpt>
      <trkpt lat="38.261189" lon="-93.744559"><ele>414</ele></trkpt>
      <trkpt lat="38.264728" lon="-93.702224"><ele>465</ele></trkpt>
      <trkpt lat="38.266706" lon="-93.657207"><ele>516</ele></trkpt>
      <trkpt lat="38.269320" lon="-93.607693"><ele>594</ele></trkpt>
      <trkpt lat="38.276125" lon="-93.560343"><ele>686</ele></trkpt>
      <trkpt lat="38.286233" lon="-93.512732"><ele>757</ele></trkpt>
      <trkpt lat="38.290562" lon="-93.464295"><ele>813</ele></trkpt>
      <trkpt lat="38.298058" lon="-93.416978"><ele>886</ele></trkpt>
      <trkpt lat="38.299853" lon="-93.376787"><ele>969</ele></trkpt>
      <trkpt lat="38.307973" lon="-93.334055"><ele>1027</ele></trkpt>
      <trkpt lat="38.314068" lon="-93.294006"><ele>1057</ele></trkpt>
      <trkpt lat="38.315968" lon="-93.250011"><ele>1094</ele></trkpt>
      <trkpt lat="38.321010" lon="-93.209801"><ele>1139</ele></trkpt>
      <trkpt lat="38.331441" lon="-93.167427"><ele>1159</ele></trkpt>
      <trkpt lat="38.339029" lon="-93.122757"><ele>1144</ele></trkpt>
      <trkpt lat="38.348176" lon="-93.077237"><ele>1127</ele></trkpt>
      <trkpt lat="38.358195" lon="-93.036700"><ele>1121</ele></trkpt>
      <trkpt lat="38.368972" lon="-92.991149"><ele>1096</ele></trkpt>
      <trkpt lat="38.374297" lon="-92.951203"><ele>1035</ele></trkpt>
      <trkpt lat="38.376971" lon="-92.908518"><ele>970</ele></trkpt>
      <trkpt lat="38.383647" lon="-92.864235"><ele>923</ele></trkpt>
      <trkpt lat="38.390814" lon="-92.822604"><ele>867</ele></trkpt>
      <trkpt lat="38.400099" lon="-92.780337"><ele>781</ele></trkpt>
      <trkpt lat="38.402724" lon="-92.730923"><ele>692</ele></trkpt>
      <trkpt lat="38.407820" lon="-92.684159"><ele>628</ele></trkpt>
      <trkpt lat="38.416187" lon="-92.637738"><ele>570</ele></trkpt>
      <trkpt lat="38.425056" lon="-92.597892"><ele>492</ele></trkpt>
      <trkpt lat="38.432346" lon="-92.554934"><ele>412</ele></trkpt>
      <trkpt lat="38.440271" lon="-92.511805"><ele>364</ele></trkpt>
      <trkpt lat="38.444407" lon="-92.471557"><ele>335</ele></trkpt>
      <trkpt lat="38.450609" lon="-92.431409"><ele>294</ele></trkpt>
      <trkpt lat="38.457509" lon="-92.388614"><ele>252</ele></trkpt>
      <trkpt lat="38.468201" lon="-92.347199"><ele>243</ele></trkpt>
      <trkpt lat="38.475685" lon="-92.302604"><ele>262</ele></trkpt>
      <trkpt lat="38.483669" lon="-92.258811"><ele>275</ele></trkpt>
      <trkpt lat="38.493802" lon="-92.216559"><ele>282</ele></trkpt>
      <trkpt lat="38.503868" lon="-92.174793"><ele>317</ele></trkpt>
      <trkpt lat="38.505489" lon="-92.132889"><ele>383</ele></trkpt>
      <trkpt lat="38.511320" lon="-92.088975"><ele>444</ele></trkpt>
      <trkpt lat="38.516252" lon="-92.039839"><ele>490</ele></trkpt>
      <trkpt lat="38.526487" lon="-91.998860"><ele>554</ele></trkpt>
      <trkpt lat="38.534303" lon="-91.955417"><ele>644</ele></trkpt>
      <trkpt lat="38.538115" lon="-91.914691"><ele>728</ele></trkpt>
      <trkpt lat="38.548731" lon="-91.866294"><ele>786</ele></trkpt>
      <trkpt lat="38.556523" lon="-91.823841"><ele>849</ele></trkpt>
      <trkpt lat="38.565767" lon="-91.783839"><ele>931</ele></trkpt>
      <trkpt lat="38.570641" lon="-91.741899"><ele>1005</ele></trkpt>
      <trkpt lat="38.576516" lon="-91.698127"><ele>1044</ele></trkpt>
      <trkpt lat="38.580790" lon="-91.655817"><ele>1074</ele></trkpt>
      <trkpt lat="38.586093" lon="-91.614512"><ele>1119</ele></trkpt>
      <trkpt lat="38.591438" lon="-91.565339"><ele>1155</ele></trkpt>
      <trkpt lat="38.597827" lon="-91.524147"><ele>1153</ele></trkpt>
      <trkpt lat="38.604749" lon="-91.483599"><ele>1133</ele></trkpt>
      <trkpt lat="38.614722" lon="-91.435964"><ele>1124</ele></trkpt>
      <trkpt lat="38.621751" lon="-91.395636"><ele>1113</ele></trkpt>
      <trkpt lat="38.630527" lon="-91.352890"><ele>1067</ele></trkpt>
      <trkpt lat="38.638825" lon="-91.305059"><ele>999</ele></trkpt>
      <trkpt lat="38.643742" lon="-91.263233"><ele>944</ele></trkpt>
      <trkpt lat="38.651814" lon="-91.218579"><ele>896</ele></trkpt>
      <trkpt lat="38.657871" lon="-91.177300"><ele>824</ele></trkpt>
      <trkpt lat="38.660900" lon="-91.127958"><ele>731</ele></trkpt>
      <trkpt lat="38.663270" lon="-91.078511"><ele>655</ele></trkpt>
      <trkpt lat="38.664999" lon="-91.029926"><ele>599</ele></trkpt>
      <trkpt lat="38.670826" lon="-90.985299"><ele>531</ele></trkpt>
      <trkpt lat="38.673256" lon="-90.943345"><ele>447</ele></trkpt>
      <trkpt lat="38.677493" lon="-90.898512"><ele>382</ele></trkpt>
      <trkpt lat="38.679668" lon="-90.855448"><ele>348</ele></trkpt>
      <trkpt lat="38.682801" lon="-90.812988"><ele>315</ele></trkpt>
      <trkpt lat="38.691525" lon="-90.765525"><ele>269</ele></trkpt>
      <trkpt lat="38.694763" lon="-90.724153"><ele>242</ele></trkpt>
      <trkpt lat="38.705405" lon="-90.677516"><ele>252</ele></trkpt>
      <trkpt lat="38.710090" lon="-90.636335"><ele>271</ele></trkpt>
      <trkpt lat="38.717162" lon="-90.591518"><ele>277</ele></trkpt>
      <trkpt lat="38.723288" lon="-90.544473"><ele>296</ele></trkpt>
      <trkpt lat="38.732292" lon="-90.496802"><ele>351</ele></trkpt>
      <trkpt lat="38.740226" lon="-90.455109"><ele>418</ele></trkpt>
      <trkpt lat="38.743833" lon="-90.412677"><ele>468</ele></trkpt>
      <trkpt lat="38.746179" lon="-90.372229"><ele>520</ele></trkpt>
      <trkpt lat="38.754382" lon="-90.332912"><ele>600</ele></trkpt>
      <trkpt lat="38.755897" lon="-90.300928"><ele>692</ele></trkpt>
      <trkpt lat="38.758912" lon="-90.275057"><ele>761</ele></trkpt>
      <trkpt lat="38.760581" lon="-90.246967"><ele>817</ele></trkpt>
      <trkpt lat="38.762213" lon="-90.216328"><ele>891</ele></trkpt>
      <trkpt lat="38.764077" lon="-90.181934"><ele>974</ele></trkpt>
      <trkpt lat="38.772522" lon="-90.149889"><ele>1029</ele></trkpt>
      <trkpt lat="38.775716" lon="-90.117658"><ele>1059</ele></trkpt>
      <trkpt lat="38.784050" lon="-90.084422"><ele>1097</ele></trkpt>
      <trkpt lat="38.791051" lon="-90.058169"><ele>1141</ele></trkpt>
      <trkpt lat="38.801235" lon="-90.032659"><ele>1159</ele></trkpt>
      <trkpt lat="38.806760" lon="-90.004050"><ele>1142</ele></trkpt>
      <trkpt lat="38.809276" lon="-89.978376"><ele>1126</ele></trkpt>
      <trkpt lat="38.810660" lon="-89.952257"><ele>1121</ele></trkpt>
      <trkpt lat="38.811786" lon="-89.921789"><ele>1093</ele></trkpt>
      <trkpt lat="38.812819" lon="-89.891267"><ele>1031</ele></trkpt>
      <trkpt lat="38.815984" lon="-89.859069"><ele>967</ele></trkpt>
      <trkpt lat="38.821586" lon="-89.827321"><ele>920</ele></trkpt>
      <trkpt lat="38.825596" lon="-89.793172"><ele>862</ele></trkpt>
      <trkpt lat="38.831279" lon="-89.758811"><ele>775</ele></trkpt>
      <trkpt lat="38.840357" lon="-89.732608"><ele>687</ele></trkpt>
      <trkpt lat="38.847892" lon="-89.702091"><ele>624</ele></trkpt>
      <trkpt lat="38.852029" lon="-89.668910"><ele>566</ele></trkpt>
      <trkpt lat="38.860459" lon="-89.641040"><ele>486</ele></trkpt>
      <trkpt lat="38.869050" lon="-89.608230"><ele>408</ele></trkpt>
      <trkpt lat="38.878662" lon="-89.579602"><ele>362</ele></trkpt>
      <trkpt lat="38.881228" lon="-89.551300"><ele>333</ele></trkpt>
      <trkpt lat="38.889273" lon="-89.524834"><ele>291</ele></trkpt>
      <trkpt lat="38.895015" lon="-89.494404"><ele>250</ele></trkpt>
      <trkpt lat="38.898731" lon="-89.460412"><ele>244</ele></trkpt>
      <trkpt lat="38.900311" lon="-89.426739"><ele>263</ele></trkpt>
      <trkpt lat="38.906098" lon="-89.400458"><ele>275</ele></trkpt>
      <trkpt lat="38.913327" lon="-89.374513"><ele>283</ele></trkpt>
      <trkpt lat="38.918182" lon="-89.343649"><ele>321</ele></trkpt>
      <trkpt lat="38.925341" lon="-89.316879"><ele>387</ele></trkpt>
      <trkpt lat="38.926439" lon="-89.284407"><ele>447</ele></trkpt>
      <trkpt lat="38.934356" lon="-89.252192"><ele>493</ele></trkpt>
      <trkpt lat="38.938720" lon="-89.223096"><ele>559</ele></trkpt>
      <trkpt lat="38.940996" lon="-89.190250"><ele>650</ele></trkpt>
      <trkpt lat="38.949650" lon="-89.157872"><ele>732</ele></trkpt>
      <trkpt lat="38.952163" lon="-89.124934"><ele>790</ele></trkpt>
      <trkpt lat="38.961457" lon="-89.094426"><ele>853</ele></trkpt>
      <trkpt lat="38.962613" lon="-89.064333"><ele>937</ele></trkpt>
      <trkpt lat="38.967482" lon="-89.030463"><ele>1008</ele></trkpt>
      <trkpt lat="38.971731" lon="-89.004037"><ele>1046</ele></trkpt>
      <trkpt lat="38.973580" lon="-88.970968"><ele>1077</ele></trkpt>
      <trkpt lat="38.983294" lon="-88.936214"><ele>1122</ele></trkpt>
      <trkpt lat="38.988896" lon="-88.905626"><ele>1156</ele></trkpt>
      <trkpt lat="38.995963" lon="-88.877692"><ele>1152</ele></trkpt>
      <trkpt lat="38.998129" lon="-88.851239"><ele>1132</ele></trkpt>
      <trkpt lat="39.001487" lon="-88.824739"><ele>1124</ele></trkpt>
      <trkpt lat="39.010752" lon="-88.792842"><ele>1111</ele></trkpt>
      <trkpt lat="39.011991" lon="-88.760817"><ele>1063</ele></trkpt>
      <trkpt lat="39.018275" lon="-88.727497"><ele>995</ele></trkpt>
      <trkpt lat="39.020937" lon="-88.693888"><ele>941</ele></trkpt>
      <trkpt lat="39.028058" lon="-88.664221"><ele>893</ele></trkpt>
      <trkpt lat="39.032792" lon="-88.629509"><ele>819</ele></trkpt>
      <trkpt lat="39.041913" lon="-88.595954"><ele>726</ele></trkpt>
      <trkpt lat="39.043991" lon="-88.562784"><ele>651</ele></trkpt>
      <trkpt lat="39.049022" lon="-88.533564"><ele>595</ele></trkpt>
      <trkpt lat="39.051917" lon="-88.500157"><ele>526</ele></trkpt>
      <trkpt lat="39.054896" lon="-88.466322"><ele>442</ele></trkpt>
      <trkpt lat="39.060748" lon="-88.438290"><ele>379</ele></trkpt>
      <trkpt lat="39.063689" lon="-88.411809"><ele>347</ele></trkpt>
      <trkpt lat="39.067204" lon="-88.380113"><ele>313</ele></trkpt>
      <trkpt lat="39.072520" lon="-88.350806"><ele>267</ele></trkpt>
      <trkpt lat="39.080570" lon="-88.321633"><ele>242</ele></trkpt>
      <trkpt lat="39.084749" lon="-88.291061"><ele>253</ele></trkpt>
      <trkpt lat="39.093910" lon="-88.259736"><ele>272</ele></trkpt>
      <trkpt lat="39.103127" lon="-88.231103"><ele>278</ele></trkpt>
      <trkpt lat="39.109952" lon="-88.205159"><ele>298</ele></trkpt>
      <trkpt lat="39.119666" lon="-88.171567"><ele>355</ele></trkpt>
      <trkpt lat="39.126029" lon="-88.142143"><ele>421</ele></trkpt>
      <trkpt lat="39.134263" lon="-88.115794"><ele>471</ele></trkpt>
      <trkpt lat="39.142090" lon="-88.083611"><ele>524</ele></trkpt>
      <trkpt lat="39.148702" lon="-88.049330"><ele>606</ele></trkpt>
      <trkpt lat="39.154456" lon="-88.019949"><ele>697</ele></trkpt>
      <trkpt lat="39.160144" lon="-87.991167"><ele>764</ele></trkpt>
      <trkpt lat="39.168584" lon="-87.959802"><ele>821</ele></trkpt>
      <trkpt lat="39.171487" lon="-87.933045"><ele>896</ele></trkpt>
      <trkpt lat="39.172744" lon="-87.902746"><ele>978</ele></trkpt>
      <trkpt lat="39.181803" lon="-87.874909"><ele>1032</ele></trkpt>
      <trkpt lat="39.188666" lon="-87.842739"><ele>1061</ele></trkpt>
      <trkpt lat="39.192287" lon="-87.809497"><ele>1099</ele></trkpt>
      <trkpt lat="39.198836" lon="-87.779326"><ele>1144</ele></trkpt>
      <trkpt lat="39.200298" lon="-87.751629"><ele>1158</ele></trkpt>
      <trkpt lat="39.209583" lon="-87.719202"><ele>1141</ele></trkpt>
      <trkpt lat="39.217073" lon="-87.685836"><ele>1126</ele></trkpt>
      <trkpt lat="39.220210" lon="-87.651961"><ele>1120</ele></trkpt>
      <trkpt lat="39.222499" lon="-87.623454"><ele>1090</ele></trkpt>
      <trkpt lat="39.232107" lon="-87.591543"><ele>1027</ele></trkpt>
      <trkpt lat="39.238529" lon="-87.558752"><ele>964</ele></trkpt>
      <trkpt lat="39.246194" lon="-87.527181"><ele>917</ele></trkpt>
      <trkpt lat="39.255582" lon="-87.499078"><ele>857</ele></trkpt>
      <trkpt lat="39.257807" lon="-87.466657"><ele>769</ele></trkpt>
      <trkpt lat="39.262364" lon="-87.438318"><ele>682</ele></trkpt>
      <trkpt lat="39.270872" lon="-87.404961"><ele>621</ele></trkpt>
      <trkpt lat="39.276012" lon="-87.372356"><ele>561</ele></trkpt>
      <trkpt lat="39.285607" lon="-87.338209"><ele>481</ele></trkpt>
      <trkpt lat="39.291245" lon="-87.304501"><ele>404</ele></trkpt>
      <trkpt lat="39.295079" lon="-87.272713"><ele>360</ele></trkpt>
      <trkpt lat="39.301766" lon="-87.239042"><ele>331</ele></trkpt>
      <trkpt lat="39.308553" lon="-87.210456"><ele>288</ele></trkpt>
      <trkpt lat="39.312010" lon="-87.180728"><ele>248</ele></trkpt>
      <trkpt lat="39.315358" lon="-87.151747"><ele>244</ele></trkpt>
      <trkpt lat="39.324167" lon="-87.122941"><ele>265</ele></trkpt>
      <trkpt lat="39.329429" lon="-87.093328"><ele>275</ele></trkpt>
      <trkpt lat="39.337811" lon="-87.060334"><ele>284</ele></trkpt>
      <trkpt lat="39.341315" lon="-87.026341"><ele>324</ele></trkpt>
      <trkpt lat="39.347170" lon="-86.993417"><ele>392</ele></trkpt>
      <trkpt lat="39.355226" lon="-86.959819"><ele>450</ele></trkpt>
      <trkpt lat="39.356636" lon="-86.929189"><ele>496</ele></trkpt>
      <trkpt lat="39.360011" lon="-86.896937"><ele>564</ele></trkpt>
      <trkpt lat="39.367278" lon="-86.864139"><ele>656</ele></trkpt>
      <trkpt lat="39.373486" lon="-86.837164"><ele>736</ele></trkpt>
      <trkpt lat="39.380453" lon="-86.804422"><ele>793</ele></trkpt>
      <trkpt lat="39.382345" lon="-86.770234"><ele>858</ele></trkpt>
      <trkpt lat="39.388396" lon="-86.736959"><ele>942</ele></trkpt>
      <trkpt lat="39.394648" lon="-86.706705"><ele>1011</ele></trkpt>
      <trkpt lat="39.397686" lon="-86.672975"><ele>1048</ele></trkpt>
      <trkpt lat="39.399611" lon="-86.643807"><ele>1079</ele></trkpt>
      <trkpt lat="39.407364" lon="-86.614418"><ele>1124</ele></trkpt>
      <trkpt lat="39.414100" lon="-86.582393"><ele>1157</ele></trkpt>
      <trkpt lat="39.420735" lon="-86.550039"><ele>1151</ele></trkpt>
      <trkpt lat="39.425225" lon="-86.523679"><ele>1131</ele></trkpt>
      <trkpt lat="39.429720" lon="-86.495395"><ele>1123</ele></trkpt>
      <trkpt lat="39.435897" lon="-86.469168"><ele>1109</ele></trkpt>
      <trkpt lat="39.442245" lon="-86.441885"><ele>1059</ele></trkpt>
      <trkpt lat="39.444129" lon="-86.415419"><ele>991</ele></trkpt>
      <trkpt lat="39.452535" lon="-86.384535"><ele>938</ele></trkpt>
      <trkpt lat="39.461777" lon="-86.356081"><ele>889</ele></trkpt>
      <trkpt lat="39.465095" lon="-86.326872"><ele>813</ele></trkpt>
      <trkpt lat="39.474107" lon="-86.296109"><ele>720</ele></trkpt>
      <trkpt lat="39.481098" lon="-86.265496"><ele>647</ele></trkpt>
      <trkpt lat="39.488614" lon="-86.232555"><ele>592</ele></trkpt>
      <trkpt lat="39.494304" lon="-86.198866"><ele>521</ele></trkpt>
      <trkpt lat="39.499998" lon="-86.168079"><ele>437</ele></trkpt>
      <trkpt lat="39.509226" lon="-86.139622"><ele>376</ele></trkpt>
      <trkpt lat="39.515796" lon="-86.108953"><ele>345</ele></trkpt>
      <trkpt lat="39.518172" lon="-86.082038"><ele>310</ele></trkpt>
      <trkpt lat="39.522723" lon="-86.048150"><ele>264</ele></trkpt>
      <trkpt lat="39.529161" lon="-86.015969"><ele>241</ele></trkpt>
      <trkpt lat="39.532996" lon="-85.985083"><ele>255</ele></trkpt>
      <trkpt lat="39.535261" lon="-85.954913"><ele>272</ele></trkpt>
      <trkpt lat="39.541532" lon="-85.924822"><ele>278</ele></trkpt>
      <trkpt lat="39.548254" lon="-85.891891"><ele>301</ele></trkpt>
      <trkpt lat="39.552672" lon="-85.859703"><ele>359</ele></trkpt>
      <trkpt lat="39.557638" lon="-85.831794"><ele>425</ele></trkpt>
      <trkpt lat="39.566736" lon="-85.797904"><ele>474</ele></trkpt>
      <trkpt lat="39.575819" lon="-85.768560"><ele>528</ele></trkpt>
      <trkpt lat="39.580204" lon="-85.738786"><ele>612</ele></trkpt>
      <trkpt lat="39.586034" lon="-85.709999"><ele>702</ele></trkpt>
      <trkpt lat="39.594985" lon="-85.680401"><ele>768</ele></trkpt>
      <trkpt lat="39.598922" lon="-85.652211"><ele>825</ele></trkpt>
      <trkpt lat="39.602542" lon="-85.625656"><ele>902</ele></trkpt>
      <trkpt lat="39.605587" lon="-85.591783"><ele>983</ele></trkpt>
      <trkpt lat="39.611175" lon="-85.562999"><ele>1034</ele></trkpt>
      <trkpt lat="39.616985" lon="-85.532586"><ele>1063</ele></trkpt>
      <trkpt lat="39.626024" lon="-85.499695"><ele>1102</ele></trkpt>
      <trkpt lat="39.632598" lon="-85.470423"><ele>1146</ele></trkpt>
      <trkpt lat="39.639523" lon="-85.438133"><ele>1158</ele></trkpt>
      <trkpt lat="39.644525" lon="-85.404849"><ele>1140</ele></trkpt>
      <trkpt lat="39.651274" lon="-85.371202"><ele>1126</ele></trkpt>
      <trkpt lat="39.656083" lon="-85.339812"><ele>1119</ele></trkpt>
      <trkpt lat="39.658639" lon="-85.311941"><ele>1087</ele></trkpt>
      <trkpt lat="39.663804" lon="-85.279019"><ele>1022</ele></trkpt>
      <trkpt lat="39.671457" lon="-85.252002"><ele>960</ele></trkpt>
      <trkpt lat="39.679749" lon="-85.224210"><ele>914</ele></trkpt>
      <trkpt lat="39.682445" lon="-85.195662"><ele>853</ele></trkpt>
      <trkpt lat="39.685043" lon="-85.168595"><ele>763</ele></trkpt>
      <trkpt lat="39.687018" lon="-85.139595"><ele>678</ele></trkpt>
      <trkpt lat="39.693504" lon="-85.109357"><ele>618</ele></trkpt>
      <trkpt lat="39.702335" lon="-85.076047"><ele>557</ele></trkpt>
      <trkpt lat="39.707568" lon="-85.043573"><ele>475</ele></trkpt>
      <trkpt lat="39.716032" lon="-85.012274"><ele>400</ele></trkpt>
      <trkpt lat="39.723976" lon="-84.980109"><ele>358</ele></trkpt>
      <trkpt lat="39.729930" lon="-84.950112"><ele>328</ele></trkpt>
      <trkpt lat="39.732599" lon="-84.919412"><ele>285</ele></trkpt>
      <trkpt lat="39.738320" lon="-84.889508"><ele>247</ele></trkpt>
      <trkpt lat="39.740962" lon="-84.856534"><ele>245</ele></trkpt>
      <trkpt lat="39.744697" lon="-84.826249"><ele>266</ele></trkpt>
      <trkpt lat="39.748515" lon="-84.796082"><ele>276</ele></trkpt>
      <trkpt lat="39.755370" lon="-84.768568"><ele>286</ele></trkpt>
      <trkpt lat="39.760884" lon="-84.735566"><ele>328</ele></trkpt>
      <trkpt lat="39.764430" lon="-84.706188"><ele>396</ele></trkpt>
      <trkpt lat="39.768898" lon="-84.678847"><ele>453</ele></trkpt>
      <trkpt lat="39.771984" lon="-84.645930"><ele>499</ele></trkpt>
      <trkpt lat="39.774647" lon="-84.616502"><ele>569</ele></trkpt>
      <trkpt lat="39.782734" lon="-84.588942"><ele>662</ele></trkpt>
      <trkpt lat="39.790293" lon="-84.556177"><ele>740</ele></trkpt>
      <trkpt lat="39.796263" lon="-84.526366"><ele>797</ele></trkpt>
      <trkpt lat="39.802089" lon="-84.492975"><ele>863</ele></trkpt>
      <trkpt lat="39.810402" lon="-84.466159"><ele>947</ele></trkpt>
      <trkpt lat="39.813582" lon="-84.438433"><ele>1015</ele></trkpt>
      <trkpt lat="39.817541" lon="-84.405286"><ele>1050</ele></trkpt>
      <trkpt lat="39.821457" lon="-84.373141"><ele>1082</ele></trkpt>
      <trkpt lat="39.825536" lon="-84.341593"><ele>1127</ele></trkpt>
      <trkpt lat="39.831639" lon="-84.309576"><ele>1157</ele></trkpt>
      <trkpt lat="39.839587" lon="-84.278407"><ele>1150</ele></trkpt>
      <trkpt lat="39.846324" lon="-84.250529"><ele>1130</ele></trkpt>
      <trkpt lat="39.854743" lon="-84.217710"><ele>1123</ele></trkpt>
      <trkpt lat="39.860722" lon="-84.190008"><ele>1107</ele></trkpt>
      <trkpt lat="39.866840" lon="-84.161751"><ele>1055</ele></trkpt>
      <trkpt lat="39.875386" lon="-84.133688"><ele>987</ele></trkpt>
      <trkpt lat="39.879782" lon="-84.103135"><ele>935</ele></trkpt>
      <trkpt lat="39.882162" lon="-84.069879"><ele>885</ele></trkpt>
      <trkpt lat="39.888324" lon="-84.040680"><ele>807</ele></trkpt>
      <trkpt lat="39.896783" lon="-84.010590"><ele>715</ele></trkpt>
      <trkpt lat="39.904700" lon="-83.978964"><ele>644</ele></trkpt>
      <trkpt lat="39.911269" lon="-83.949103"><ele>588</ele></trkpt>
      <trkpt lat="39.919462" lon="-83.920672"><ele>516</ele></trkpt>
      <trkpt lat="39.924942" lon="-83.893623"><ele>432</ele></trkpt>
      <trkpt lat="39.927405" lon="-83.861040"><ele>374</ele></trkpt>
      <trkpt lat="39.934215" lon="-83.832626"><ele>343</ele></trkpt>
      <trkpt lat="39.938548" lon="-83.803465"><ele>307</ele></trkpt>
      <trkpt lat="39.941100" lon="-83.770989"><ele>262</ele></trkpt>
      <trkpt lat="39.945870" lon="-83.738649"><ele>241</ele></trkpt>
      <trkpt lat="39.953720" lon="-83.708318"><ele>256</ele></trkpt>
      <trkpt lat="39.955867" lon="-83.675308"><ele>273</ele></trkpt>
      <trkpt lat="39.961437" lon="-83.647227"><ele>279</ele></trkpt>
      <trkpt lat="39.966303" lon="-83.618276"><ele>303</ele></trkpt>
      <trkpt lat="39.973176" lon="-83.588851"><ele>363</ele></trkpt>
      <trkpt lat="39.981075" lon="-83.560990"><ele>429</ele></trkpt>
      <trkpt lat="39.987126" lon="-83.533086"><ele>477</ele></trkpt>
      <trkpt lat="39.989822" lon="-83.500762"><ele>532</ele></trkpt>
      <trkpt lat="39.993925" lon="-83.468345"><ele>618</ele></trkpt>
      <trkpt lat="39.997618" lon="-83.439222"><ele>707</ele></trkpt>
      <trkpt lat="40.001477" lon="-83.405967"><ele>771</ele></trkpt>
      <trkpt lat="40.005531" lon="-83.375581"><ele>829</ele></trkpt>
      <trkpt lat="40.007856" lon="-83.346062"><ele>907</ele></trkpt>
      <trkpt lat="40.012131" lon="-83.315761"><ele>987</ele></trkpt>
      <trkpt lat="40.017765" lon="-83.287489"><ele>1036</ele></trkpt>
      <trkpt lat="40.021175" lon="-83.259493"><ele>1065</ele></trkpt>
      <trkpt lat="40.029342" lon="-83.231510"><ele>1105</ele></trkpt>
      <trkpt lat="40.035602" lon="-83.198892"><ele>1148</ele></trkpt>
      <trkpt lat="40.043083" lon="-83.169187"><ele>1157</ele></trkpt>
      <trkpt lat="40.046037" lon="-83.137056"><ele>1138</ele></trkpt>
      <trkpt lat="40.051671" lon="-83.107400"><ele>1125</ele></trkpt>
      <trkpt lat="40.057175" lon="-83.079141"><ele>1118</ele></trkpt>
      <trkpt lat="40.061626" lon="-83.046169"><ele>1084</ele></trkpt>
      <trkpt lat="40.058764" lon="-83.017043"><ele>1018</ele></trkpt>
      <trkpt lat="40.052123" lon="-82.989682"><ele>957</ele></trkpt>
      <trkpt lat="40.047621" lon="-82.961638"><ele>911</ele></trkpt>
      <trkpt lat="40.043882" lon="-82.930138"><ele>848</ele></trkpt>
      <trkpt lat="40.040120" lon="-82.900658"><ele>757</ele></trkpt>
      <trkpt lat="40.037063" lon="-82.869804"><ele>673</ele></trkpt>
      <trkpt lat="40.030425" lon="-82.842837"><ele>614</ele></trkpt>
      <trkpt lat="40.024815" lon="-82.813394"><ele>553</ele></trkpt>
      <trkpt lat="40.018453" lon="-82.783873"><ele>470</ele></trkpt>
      <trkpt lat="40.010873" lon="-82.755920"><ele>396</ele></trkpt>
      <trkpt lat="40.006423" lon="-82.729704"><ele>356</ele></trkpt>
      <trkpt lat="40.003316" lon="-82.699306"><ele>326</ele></trkpt>
      <trkpt lat="39.997241" lon="-82.667749"><ele>282</ele></trkpt>
      <trkpt lat="39.990319" lon="-82.639521"><ele>246</ele></trkpt>
      <trkpt lat="39.986559" lon="-82.610450"><ele>246</ele></trkpt>
      <trkpt lat="39.980610" lon="-82.582417"><ele>267</ele></trkpt>
      <trkpt lat="39.976887" lon="-82.552538"><ele>276</ele></trkpt>
      <trkpt lat="39.970697" lon="-82.521177"><ele>287</ele></trkpt>
      <trkpt lat="39.963909" lon="-82.492002"><ele>332</ele></trkpt>
      <trkpt lat="39.956281" lon="-82.461460"><ele>400</ele></trkpt>
      <trkpt lat="39.948866" lon="-82.433381"><ele>456</ele></trkpt>
      <trkpt lat="39.945432" lon="-82.406511"><ele>503</ele></trkpt>
      <trkpt lat="39.941516" lon="-82.375630"><ele>575</ele></trkpt>
      <trkpt lat="39.935193" lon="-82.345184"><ele>667</ele></trkpt>
      <trkpt lat="39.928549" lon="-82.313906"><ele>744</ele></trkpt>
      <trkpt lat="39.921001" lon="-82.282349"><ele>800</ele></trkpt>
      <trkpt lat="39.916638" lon="-82.254126"><ele>868</ele></trkpt>
      <trkpt lat="39.910388" lon="-82.223743"><ele>952</ele></trkpt>
      <trkpt lat="39.902830" lon="-82.192392"><ele>1018</ele></trkpt>
      <trkpt lat="39.897408" lon="-82.162983"><ele>1051</ele></trkpt>
      <trkpt lat="39.889958" lon="-82.132217"><ele>1084</ele></trkpt>
      <trkpt lat="39.883017" lon="-82.101651"><ele>1130</ele></trkpt>
      <trkpt lat="39.879052" lon="-82.073893"><ele>1158</ele></trkpt>
      <trkpt lat="39.875958" lon="-82.043008"><ele>1148</ele></trkpt>
      <trkpt lat="39.872668" lon="-82.015019"><ele>1129</ele></trkpt>
      <trkpt lat="39.865397" lon="-81.987192"><ele>1123</ele></trkpt>
      <trkpt lat="39.862566" lon="-81.958459"><ele>1105</ele></trkpt>
      <trkpt lat="39.857159" lon="-81.927861"><ele>1051</ele></trkpt>
      <trkpt lat="39.852592" lon="-81.897078"><ele>983</ele></trkpt>
      <trkpt lat="39.845233" lon="-81.866962"><ele>932</ele></trkpt>
      <trkpt lat="39.842138" lon="-81.836872"><ele>881</ele></trkpt>
      <trkpt lat="39.836086" lon="-81.807780"><ele>801</ele></trkpt>
      <trkpt lat="39.829300" lon="-81.780467"><ele>710</ele></trkpt>
      <trkpt lat="39.825196" lon="-81.749905"><ele>640</ele></trkpt>
      <trkpt lat="39.817948" lon="-81.721261"><ele>584</ele></trkpt>
      <trkpt lat="39.811393" lon="-81.692727"><ele>510</ele></trkpt>
      <trkpt lat="39.804442" lon="-81.663857"><ele>427</ele></trkpt>
      <trkpt lat="39.799637" lon="-81.635961"><ele>371</ele></trkpt>
      <trkpt lat="39.796096" lon="-81.608913"><ele>341</ele></trkpt>
      <trkpt lat="39.793091" lon="-81.580084"><ele>304</ele></trkpt>
      <trkpt lat="39.786167" lon="-81.552466"><ele>259</ele></trkpt>
      <trkpt lat="39.781414" lon="-81.521562"><ele>241</ele></trkpt>
      <trkpt lat="39.778347" lon="-81.494816"><ele>257</ele></trkpt>
      <trkpt lat="39.772853" lon="-81.465476"><ele>273</ele></trkpt>
      <trkpt lat="39.769725" lon="-81.438445"><ele>279</ele></trkpt>
      <trkpt lat="39.762253" lon="-81.408465"><ele>306</ele></trkpt>
      <trkpt lat="39.758234" lon="-81.379554"><ele>368</ele></trkpt>
      <trkpt lat="39.754816" lon="-81.348840"><ele>432</ele></trkpt>
      <trkpt lat="39.748892" lon="-81.318467"><ele>479</ele></trkpt>
      <trkpt lat="39.743836" lon="-81.291505"><ele>537</ele></trkpt>
      <trkpt lat="39.737503" lon="-81.262818"><ele>624</ele></trkpt>
      <trkpt lat="39.732038" lon="-81.235113"><ele>712</ele></trkpt>
      <trkpt lat="39.728427" lon="-81.206632"><ele>775</ele></trkpt>
      <trkpt lat="39.724486" lon="-81.175997"><ele>833</ele></trkpt>
      <trkpt lat="39.721290" lon="-81.145503"><ele>912</ele></trkpt>
      <trkpt lat="39.713920" lon="-81.115883"><ele>991</ele></trkpt>
      <trkpt lat="39.707649" lon="-81.085031"><ele>1038</ele></trkpt>
      <trkpt lat="39.700771" lon="-81.054192"><ele>1067</ele></trkpt>
      <trkpt lat="39.695968" lon="-81.025154"><ele>1108</ele></trkpt>
      <trkpt lat="39.690791" lon="-80.994096"><ele>1149</ele></trkpt>
      <trkpt lat="39.687444" lon="-80.967135"><ele>1157</ele></trkpt>
      <trkpt lat="39.683102" lon="-80.939348"><ele>1137</ele></trkpt>
      <trkpt lat="39.678205" lon="-80.910097"><ele>1125</ele></trkpt>
      <trkpt lat="39.672211" lon="-80.881306"><ele>1117</ele></trkpt>
      <trkpt lat="39.664926" lon="-80.851214"><ele>1080</ele></trkpt>
      <trkpt lat="39.661657" lon="-80.822893"><ele>1014</ele></trkpt>
      <trkpt lat="39.655737" lon="-80.794541"><ele>954</ele></trkpt>
      <trkpt lat="39.649115" lon="-80.766136"><ele>908</ele></trkpt>
      <trkpt lat="39.643163" lon="-80.738582"><ele>843</ele></trkpt>
      <trkpt lat="39.637086" lon="-80.707703"><ele>751</ele></trkpt>
      <trkpt lat="39.631484" lon="-80.680536"><ele>669</ele></trkpt>
      <trkpt lat="39.625062" lon="-80.650179"><ele>611</ele></trkpt>
      <trkpt lat="39.618649" lon="-80.622119"><ele>548</ele></trkpt>
      <trkpt lat="39.611729" lon="-80.593665"><ele>465</ele></trkpt>
      <trkpt lat="39.606098" lon="-80.563566"><ele>393</ele></trkpt>
      <trkpt lat="39.600895" lon="-80.533847"><ele>354</ele></trkpt>
      <trkpt lat="39.593916" lon="-80.503326"><ele>324</ele></trkpt>
      <trkpt lat="39.587054" lon="-80.476134"><ele>279</ele></trkpt>
      <trkpt lat="39.582597" lon="-80.448137"><ele>245</ele></trkpt>
      <trkpt lat="39.578474" lon="-80.420199"><ele>248</ele></trkpt>
      <trkpt lat="39.574158" lon="-80.390440"><ele>268</ele></trkpt>
      <trkpt lat="39.567376" lon="-80.362023"><ele>276</ele></trkpt>
      <trkpt lat="39.560492" lon="-80.334940"><ele>289</ele></trkpt>
      <trkpt lat="39.555274" lon="-80.306873"><ele>336</ele></trkpt>
      <trkpt lat="39.551299" lon="-80.279616"><ele>404</ele></trkpt>
      <trkpt lat="39.547622" lon="-80.251575"><ele>458</ele></trkpt>
      <trkpt lat="39.544080" lon="-80.223626"><ele>506</ele></trkpt>
      <trkpt lat="39.537796" lon="-80.196342"><ele>580</ele></trkpt>
      <trkpt lat="39.532978" lon="-80.168343"><ele>673</ele></trkpt>
      <trkpt lat="39.528334" lon="-80.141044"><ele>748</ele></trkpt>
      <trkpt lat="39.524131" lon="-80.113523"><ele>804</ele></trkpt>
      <trkpt lat="39.518215" lon="-80.085041"><ele>873</ele></trkpt>
      <trkpt lat="39.514429" lon="-80.056051"><ele>957</ele></trkpt>
      <trkpt lat="39.508605" lon="-80.027976"><ele>1020</ele></trkpt>
      <trkpt lat="39.504503" lon="-79.998273"><ele>1053</ele></trkpt>
      <trkpt lat="39.497515" lon="-79.968672"><ele>1087</ele></trkpt>
      <trkpt lat="39.493174" lon="-79.939964"><ele>1133</ele></trkpt>
      <trkpt lat="39.488798" lon="-79.910912"><ele>1158</ele></trkpt>
      <trkpt lat="39.482098" lon="-79.881664"><ele>1147</ele></trkpt>
      <trkpt lat="39.477246" lon="-79.853300"><ele>1128</ele></trkpt>
      <trkpt lat="39.473198" lon="-79.822915"><ele>1123</ele></trkpt>
      <trkpt lat="39.468940" lon="-79.793510"><ele>1103</ele></trkpt>
      <trkpt lat="39.464749" lon="-79.763951"><ele>1046</ele></trkpt>
      <trkpt lat="39.458838" lon="-79.734387"><ele>979</ele></trkpt>
      <trkpt lat="39.454681" lon="-79.704197"><ele>930</ele></trkpt>
      <trkpt lat="39.450797" lon="-79.675409"><ele>877</ele></trkpt>
      <trkpt lat="39.444490" lon="-79.647901"><ele>796</ele></trkpt>
      <trkpt lat="39.440493" lon="-79.618565"><ele>704</ele></trkpt>
      <trkpt lat="39.434828" lon="-79.590359"><ele>636</ele></trkpt>
      <trkpt lat="39.428187" lon="-79.562705"><ele>580</ele></trkpt>
      <trkpt lat="39.421975" lon="-79.532358"><ele>505</ele></trkpt>
      <trkpt lat="39.416019" lon="-79.502642"><ele>423</ele></trkpt>
      <trkpt lat="39.409426" lon="-79.472785"><ele>369</ele></trkpt>
      <trkpt lat="39.404759" lon="-79.442351"><ele>339</ele></trkpt>
      <trkpt lat="39.398059" lon="-79.412986"><ele>301</ele></trkpt>
      <trkpt lat="39.393701" lon="-79.382781"><ele>257</ele></trkpt>
      <trkpt lat="39.387339" lon="-79.354422"><ele>242</ele></trkpt>
      <trkpt lat="39.381917" lon="-79.326090"><ele>259</ele></trkpt>
      <trkpt lat="39.377240" lon="-79.296680"><ele>274</ele></trkpt>
      <trkpt lat="39.371522" lon="-79.266975"><ele>280</ele></trkpt>
      <trkpt lat="39.367587" lon="-79.238121"><ele>309</ele></trkpt>
      <trkpt lat="39.363084" lon="-79.207960"><ele>372</ele></trkpt>
      <trkpt lat="39.358972" lon="-79.178540"><ele>435</ele></trkpt>
      <trkpt lat="39.353310" lon="-79.150537"><ele>482</ele></trkpt>
      <trkpt lat="39.348040" lon="-79.122222"><ele>541</ele></trkpt>
      <trkpt lat="39.341832" lon="-79.094251"><ele>629</ele></trkpt>
      <trkpt lat="39.336421" lon="-79.064177"><ele>716</ele></trkpt>
      <trkpt lat="39.331185" lon="-79.034067"><ele>778</ele></trkpt>
      <trkpt lat="39.325369" lon="-79.004054"><ele>837</ele></trkpt>
      <trkpt lat="39.319968" lon="-78.974511"><ele>918</ele></trkpt>
      <trkpt lat="39.314627" lon="-78.946435"><ele>995</ele></trkpt>
      <trkpt lat="39.309107" lon="-78.917381"><ele>1040</ele></trkpt>
      <trkpt lat="39.303879" lon="-78.888820"><ele>1069</ele></trkpt>
      <trkpt lat="39.298954" lon="-78.859413"><ele>1111</ele></trkpt>
      <trkpt lat="39.294183" lon="-78.830959"><ele>1151</ele></trkpt>
      <trkpt lat="39.289492" lon="-78.801291"><ele>1156</ele></trkpt>
      <trkpt lat="39.284798" lon="-78.772634"><ele>1136</ele></trkpt>
      <trkpt lat="39.280402" lon="-78.743486"><ele>1125</ele></trkpt>
      <trkpt lat="39.274669" lon="-78.714756"><ele>1116</ele></trkpt>
      <trkpt lat="39.270081" lon="-78.685371"><ele>1076</ele></trkpt>
      <trkpt lat="39.264858" lon="-78.656948"><ele>1009</ele></trkpt>
      <trkpt lat="39.260318" lon="-78.628524"><ele>951</ele></trkpt>
      <trkpt lat="39.255436" lon="-78.599665"><ele>905</ele></trkpt>
      <trkpt lat="39.249392" lon="-78.571199"><ele>837</ele></trkpt>
      <trkpt lat="39.244797" lon="-78.541187"><ele>746</ele></trkpt>
      <trkpt lat="39.239208" lon="-78.512288"><ele>665</ele></trkpt>
      <trkpt lat="39.234902" lon="-78.483265"><ele>608</ele></trkpt>
      <trkpt lat="39.230279" lon="-78.454033"><ele>543</ele></trkpt>
      <trkpt lat="39.224188" lon="-78.424287"><ele>460</ele></trkpt>
      <trkpt lat="39.218919" lon="-78.395236"><ele>389</ele></trkpt>
      <trkpt lat="39.213422" lon="-78.366009"><ele>352</ele></trkpt>
      <trkpt lat="39.208126" lon="-78.336460"><ele>321</ele></trkpt>
      <trkpt lat="39.203080" lon="-78.308220"><ele>276</ele></trkpt>
      <trkpt lat="39.198284" lon="-78.279763"><ele>244</ele></trkpt>
      <trkpt lat="39.193192" lon="-78.251672"><ele>249</ele></trkpt>
      <trkpt lat="39.187738" lon="-78.221909"><ele>269</ele></trkpt>
      <trkpt lat="39.183211" lon="-78.192669"><ele>276</ele></trkpt>
      <trkpt lat="39.178135" lon="-78.163564"><ele>291</ele></trkpt>
      <trkpt lat="39.172746" lon="-78.135014"><ele>340</ele></trkpt>
      <trkpt lat="39.167033" lon="-78.106429"><ele>408</ele></trkpt>
      <trkpt lat="39.162081" lon="-78.077761"><ele>461</ele></trkpt>
      <trkpt lat="39.157034" lon="-78.048451"><ele>510</ele></trkpt>
      <trkpt lat="39.150780" lon="-78.019514"><ele>586</ele></trkpt>
      <trkpt lat="39.145595" lon="-77.990294"><ele>678</ele></trkpt>
      <trkpt lat="39.139922" lon="-77.961633"><ele>752</ele></trkpt>
      <trkpt lat="39.134704" lon="-77.932049"><ele>807</ele></trkpt>
      <trkpt lat="39.129983" lon="-77.902966"><ele>878</ele></trkpt>
      <trkpt lat="39.124214" lon="-77.874317"><ele>962</ele></trkpt>
      <trkpt lat="39.119382" lon="-77.845441"><ele>1023</ele></trkpt>
      <trkpt lat="39.114524" lon="-77.816394"><ele>1055</ele></trkpt>
      <trkpt lat="39.108478" lon="-77.786936"><ele>1090</ele></trkpt>
      <trkpt lat="39.103225" lon="-77.757880"><ele>1135</ele></trkpt>
      <trkpt lat="39.097629" lon="-77.729064"><ele>1159</ele></trkpt>
      <trkpt lat="39.092234" lon="-77.700195"><ele>1146</ele></trkpt>
      <trkpt lat="39.087356" lon="-77.671947"><ele>1128</ele></trkpt>
      <trkpt lat="39.082022" lon="-77.643635"><ele>1122</ele></trkpt>
      <trkpt lat="39.077013" lon="-77.614679"><ele>1100</ele></trkpt>
      <trkpt lat="39.071459" lon="-77.585505"><ele>1042</ele></trkpt>
      <trkpt lat="39.065384" lon="-77.556961"><ele>976</ele></trkpt>
      <trkpt lat="39.059730" lon="-77.528509"><ele>927</ele></trkpt>
      <trkpt lat="39.054415" lon="-77.499159"><ele>873</ele></trkpt>
      <trkpt lat="39.049157" lon="-77.469669"><ele>790</ele></trkpt>
      <trkpt lat="39.043901" lon="-77.440164"><ele>699</ele></trkpt>
      <trkpt lat="39.038056" lon="-77.411336"><ele>633</ele></trkpt>
      <trkpt lat="39.032326" lon="-77.382870"><ele>576</ele></trkpt>
      <trkpt lat="39.026652" lon="-77.353460"><ele>500</ele></trkpt>
      <trkpt lat="39.021637" lon="-77.324724"><ele>418</ele></trkpt>
      <trkpt lat="39.016355" lon="-77.295866"><ele>367</ele></trkpt>
      <trkpt lat="39.011158" lon="-77.267203"><ele>338</ele></trkpt>
      <trkpt lat="39.005829" lon="-77.238231"><ele>298</ele></trkpt>
      <trkpt lat="39.000182" lon="-77.209625"><ele>255</ele></trkpt>
      <trkpt lat="38.994370" lon="-77.181074"><ele>242</ele></trkpt>
      <trkpt lat="38.988949" lon="-77.152514"><ele>260</ele></trkpt>
      <trkpt lat="38.983430" lon="-77.123652"><ele>274</ele></trkpt>
      <trkpt lat="38.977926" lon="-77.094966"><ele>281</ele></trkpt>
      <trkpt lat="38.972620" lon="-77.065976"><ele>312</ele></trkpt>
      <trkpt lat="38.967304" lon="-77.036549"><ele>377</ele></trkpt>
      <trkpt lat="38.962097" lon="-77.007822"><ele>439</ele></trkpt>
      <trkpt lat="38.956730" lon="-76.978890"><ele>485</ele></trkpt>
      <trkpt lat="38.951631" lon="-76.949796"><ele>546</ele></trkpt>
      <trkpt lat="38.946109" lon="-76.921174"><ele>635</ele></trkpt>
      <trkpt lat="38.940370" lon="-76.892245"><ele>721</ele></trkpt>
      <trkpt lat="38.935334" lon="-76.863247"><ele>781</ele></trkpt>
      <trkpt lat="38.930228" lon="-76.834450"><ele>842</ele></trkpt>
      <trkpt lat="38.925125" lon="-76.805511"><ele>923</ele></trkpt>
      <trkpt lat="38.919647" lon="-76.776389"><ele>999</ele></trkpt>
      <trkpt lat="38.914304" lon="-76.747623"><ele>1042</ele></trkpt>
      <trkpt lat="38.909000" lon="-76.718610"><ele>1071</ele></trkpt>
      <trkpt lat="38.903823" lon="-76.689404"><ele>1114</ele></trkpt>
      <trkpt lat="38.898263" lon="-76.660331"><ele>1153</ele></trkpt>
      <trkpt lat="38.892808" lon="-76.631392"><ele>1155</ele></trkpt>
      <trkpt lat="38.887233" lon="-76.602460"><ele>1135</ele></trkpt>
      <trkpt lat="38.881721" lon="-76.573527"><ele>1124</ele></trkpt>
      <trkpt lat="38.876247" lon="-76.544506"><ele>1115</ele></trkpt>
      <trkpt lat="38.871050" lon="-76.515438"><ele>1073</ele></trkpt>
      <trkpt lat="38.865743" lon="-76.486571"><ele>1005</ele></trkpt>
      <trkpt lat="38.860319" lon="-76.457599"><ele>948</ele></trkpt>
      <trkpt lat="38.855063" lon="-76.428404"><ele>901</ele></trkpt>
      <trkpt lat="38.849673" lon="-76.399308"><ele>832</ele></trkpt>
      <trkpt lat="38.844131" lon="-76.370236"><ele>740</ele></trkpt>
      <trkpt lat="38.838702" lon="-76.341142"><ele>661</ele></trkpt>
      <trkpt lat="38.833360" lon="-76.312217"><ele>604</ele></trkpt>
      <trkpt lat="38.827897" lon="-76.283266"><ele>538</ele></trkpt>
      <trkpt lat="38.822516" lon="-76.254178"><ele>454</ele></trkpt>
      <trkpt lat="38.817040" lon="-76.225126"><ele>386</ele></trkpt>
      <trkpt lat="38.811638" lon="-76.196057"><ele>351</ele></trkpt>
      <trkpt lat="38.806227" lon="-76.167079"><ele>319</ele></trkpt>
      <trkpt lat="38.800837" lon="-76.138073"><ele>273</ele></trkpt>
      <trkpt lat="38.795425" lon="-76.109031"><ele>243</ele></trkpt>
      <trkpt lat="38.790000" lon="-76.080000"><ele>250</ele></trkpt>
    </trkseg>
  </trk>
</gpx>
